Response and Fourier amplitude spectra (** periods,  .04 - 32.0 sec)   for      
Corrected accelerogram   89324-VAA6D-21355.06       Chan  7:  Tran       from   
Uncorrected Accelerogram Data             Processed: 12/21/21, CGS  aa6de006    
Rcrd of Mon Dec 20, 2021 13:53:27.0 PST           (Avol1 v6.5,64b, 1/20; PC00)  
CSMIP Preliminary Processing            (Origin:  To be determined)             
89324-VAA6D-21355.06                 Start time: 12/20/21, 21:53:27.0 UTC (GPS) 
Station No. 89324   40.503N, 124.101W    130-MC  s/n AA6D (17 Chns of 17 at Sta)
Rio Dell - Hwy 101/Painter St. Overpass   CGS   Data: Acceleration              
Chan  7:  Tran                      Location: Middle Bent: Top of Column        
Rcrd of Mon Dec 20, 2021 13:53:27.0 PST    Mon Dec 20, 2021 13:53:27.0 PST      
Hypocenter:  To be determined.               ML:  To be determined.
Instr Period = 0.0008 sec,  Damping = 0.100,  Sensitivity = 1.64 v/g
                        Record Length = 65.610 sec.
                                     Uncor Max  =  0.026 g, at   30.270 sec.
RMS accel of (uncor) record  =        .   Chn. metadata effective date: 04/02/10
Accelerogram bandpass filtered with 3 dB pts at   .07 and 40.00 cyc/sec
                 instrument- and base-line correcte





Rcrd of Mon Dec 20, 2021 13:53:27.0 PST    Mon Dec 20, 2021 13:53:27.0 PST

89324-VAA6D-21355.06      Rio Dell - Hwy 101/Painter St. Overpass   Chan  7:  Tr
an
89324-VAA6D-21355.06      Rio Dell - Hwy 101/Painter St. Overpass   Chan  7:  Tr
an
Units for spectra are inches and sec, except Sa is in fraction of g.

    7  100    7   18   17  200    1    3    1   32  706 -999    089324    3    0
   21   53   27    0  354   12   20 2021   10    3  90013122   39   39   74   -1
13122    0  100    3 -999    1    6 -999 -999 -999 -999 -999 -999 -999 -999 -999
 -999 -999 -999 -999 6561    2  100    1   24  253 -999 -999    3    1 -999 6561
    3 6561    4  100    5   17    5    0    0 -999    0    0 -999 -999    1    2
    2    2    4    0   66   67    0    2 -999    0    0    1 4096 -999    0  222
    1 -999    8 -999
      .001      .100    65.610      .003     1.000  1636.000      .026    30.270
  1300.000     1.583      .968  -999.000     5.000  -999.000     4.000  -999.000
    10.000   -14.918    10.000   312.000    30.400    29.995  -999.000      .002
      .001     -.001     2.000    15.000    40.503  -124.101      .021      .043
     2.043     -.005      .003    43.000    30.398    35.609    13.300  -999.000
     1.000  -999.000    -8.000  -999.000  -999.000  -999.000  -999.000   120.000
     6.500     6.500     7.500   980.665      .010    65.610   206.901      .000
  -999.000    40.000  -999.000    65.610      .010      .067  -999.000  -999.000
    30.270    25.811    30.330     1.170    30.260     -.072     -.001      .067
    40.000      .010      .010     -.003      .010      .020  -999.000  -999.000
      .151      .260      .095      .098      .003      .000  -999.000  -999.000
  -999.000  -999.000  -999.000  -999.000  -999.000  -999.000  -999.000  -999.000
  -999.000  -999.000  -999.000  -999.000
      .000      .020      .050      .100      .200
      .040      .042      .044      .046      .048      .050      .055      .060
      .065      .070      .075      .080      .085      .090      .095      .100
      .110      .120      .130      .140      .150      .160      .170      .180
      .190      .200      .220      .240      .260      .280      .300      .320
      .340      .360      .380      .400      .420      .440      .460      .480
      .500      .550      .600      .650      .700      .750      .800      .850
      .900      .950     1.000     1.100     1.200     1.300     1.400     1.500
     1.600     1.700     1.800     1.900     2.000     2.200     2.400     2.600
     2.800     3.000     3.200     3.400     3.600     3.800     4.000     4.200
     4.400     4.600     4.800     5.000     5.500     6.000     6.500     7.000
     7.500     8.000     8.500     9.000     9.500    10.000    11.000    12.000
    13.000    14.000    15.000    16.000    18.000    20.000    22.000    24.000
    26.000    28.000    30.000    32.000
Fourier amplitude spectra in in/sec.
  .756E-02  .939E-02  .494E-03  .436E-02  .494E-02  .226E-01  .838E-02  .246E-01
  .616E-02  .236E-01  .150E-01  .125E-01  .450E-01  .203E-01  .404E-01  .113E+00
  .143E+00  .138E+00  .108E+00  .427E+00  .230E+00  .142E+00  .943E+00  .463E+00
  .460E+00  .368E+00  .964E+00  .615E+01  .219E+01  .507E+01  .326E+01  .747E+00
  .105E+01  .855E+00  .645E+00  .353E+00  .884E+00  .541E+00  .999E-01  .324E+00
  .144E+00  .107E+00  .133E+00  .667E-01  .108E+00  .525E-01  .104E+00  .565E-01
  .543E-01  .785E-01  .286E-01  .440E-01  .602E-01  .920E-02  .175E-01  .272E-01
  .710E-02  .136E-01  .741E-02  .127E-01  .117E-01  .132E-01  .528E-02  .118E-01
  .185E-02  .114E-01  .696E-02  .914E-02  .545E-02  .590E-02  .901E-02  .113E-01
  .146E-01  .572E-02  .348E-02  .605E-02  .912E-02  .151E-01  .215E-01  .271E-01
  .150E-01  .624E-02  .990E-02  .121E-01  .942E-02  .653E-02  .256E-02  .291E-02
  .217E-02  .702E-02  .135E-01  .172E-01  .163E-01  .113E-01  .720E-02  .508E-02
  .444E-02  .444E-02  .448E-02  .435E-02
Damping =  .00. Data of Sd,Sv,Sa,Pssv,ttSd,ttSv,ttSa :
  .458E-03  .515E-03  .520E-03  .585E-03  .659E-03  .754E-03  .886E-03  .126E-02
  .125E-02  .161E-02  .165E-02  .182E-02  .212E-02  .251E-02  .313E-02  .420E-02
  .619E-02  .606E-02  .767E-02  .965E-02  .128E-01  .170E-01  .269E-01  .284E-01
  .383E-01  .442E-01  .830E-01  .278E+00  .194E+00  .261E+00  .157E+00  .973E-01
  .813E-01  .681E-01  .598E-01  .559E-01  .629E-01  .458E-01  .414E-01  .385E-01
  .371E-01  .347E-01  .335E-01  .314E-01  .304E-01  .289E-01  .278E-01  .270E-01
  .264E-01  .263E-01  .257E-01  .249E-01  .240E-01  .233E-01  .227E-01  .217E-01
  .215E-01  .219E-01  .213E-01  .220E-01  .217E-01  .226E-01  .220E-01  .225E-01
  .227E-01  .224E-01  .223E-01  .208E-01  .215E-01  .216E-01  .226E-01  .223E-01
  .203E-01  .235E-01  .230E-01  .202E-01  .213E-01  .296E-01  .315E-01  .302E-01
  .240E-01  .239E-01  .248E-01  .244E-01  .229E-01  .217E-01  .230E-01  .261E-01
  .263E-01  .256E-01  .323E-01  .438E-01  .467E-01  .366E-01  .327E-01  .317E-01
  .317E-01  .321E-01  .328E-01  .335E-01
  .186E-01  .204E-01  .154E-01  .208E-01  .221E-01  .289E-01  .323E-01  .478E-01
  .366E-01  .622E-01  .539E-01  .602E-01  .748E-01  .904E-01  .949E-01  .155E+00
  .242E+00  .235E+00  .287E+00  .432E+00  .443E+00  .524E+00  .961E+00  .809E+00
  .105E+01  .119E+01  .221E+01  .720E+01  .468E+01  .594E+01  .330E+01  .208E+01
  .167E+01  .143E+01  .121E+01  .109E+01  .101E+01  .926E+00  .875E+00  .829E+00
  .781E+00  .701E+00  .639E+00  .594E+00  .575E+00  .561E+00  .545E+00  .536E+00
  .523E+00  .523E+00  .518E+00  .506E+00  .500E+00  .491E+00  .490E+00  .483E+00
  .481E+00  .480E+00  .477E+00  .475E+00  .474E+00  .475E+00  .475E+00  .468E+00
  .470E+00  .468E+00  .462E+00  .463E+00  .462E+00  .462E+00  .460E+00  .456E+00
  .453E+00  .457E+00  .461E+00  .461E+00  .453E+00  .455E+00  .463E+00  .466E+00
  .465E+00  .463E+00  .464E+00  .464E+00  .464E+00  .464E+00  .462E+00  .463E+00
  .465E+00  .467E+00  .467E+00  .466E+00  .464E+00  .462E+00  .461E+00  .461E+00
  .460E+00  .460E+00  .460E+00  .460E+00
  .293E-01  .299E-01  .275E-01  .283E-01  .292E-01  .308E-01  .300E-01  .359E-01
  .304E-01  .337E-01  .300E-01  .291E-01  .300E-01  .317E-01  .355E-01  .429E-01
  .523E-01  .430E-01  .464E-01  .503E-01  .583E-01  .678E-01  .951E-01  .896E-01
  .109E+00  .113E+00  .175E+00  .493E+00  .293E+00  .341E+00  .178E+00  .972E-01
  .719E-01  .538E-01  .424E-01  .358E-01  .365E-01  .242E-01  .200E-01  .171E-01
  .152E-01  .117E-01  .953E-02  .761E-02  .634E-02  .526E-02  .444E-02  .382E-02
  .334E-02  .298E-02  .263E-02  .211E-02  .171E-02  .141E-02  .119E-02  .986E-03
  .857E-03  .774E-03  .671E-03  .624E-03  .555E-03  .478E-03  .390E-03  .341E-03
  .297E-03  .255E-03  .223E-03  .184E-03  .170E-03  .153E-03  .144E-03  .129E-03
  .107E-03  .113E-03  .102E-03  .826E-04  .719E-04  .840E-04  .763E-04  .631E-04
  .436E-04  .382E-04  .351E-04  .308E-04  .259E-04  .222E-04  .194E-04  .185E-04
  .159E-04  .134E-04  .147E-04  .175E-04  .147E-04  .935E-05  .690E-05  .562E-05
  .479E-05  .419E-05  .373E-05  .335E-05
  .719E-01  .771E-01  .743E-01  .799E-01  .862E-01  .947E-01  .101E+00  .132E+00
  .121E+00  .145E+00  .138E+00  .143E+00  .157E+00  .175E+00  .207E+00  .264E+00
  .353E+00  .317E+00  .371E+00  .433E+00  .538E+00  .667E+00  .993E+00  .991E+00
  .127E+01  .139E+01  .237E+01  .728E+01  .468E+01  .586E+01  .328E+01  .191E+01
  .150E+01  .119E+01  .989E+00  .879E+00  .941E+00  .655E+00  .566E+00  .504E+00
  .467E+00  .397E+00  .351E+00  .304E+00  .273E+00  .242E+00  .218E+00  .200E+00
  .185E+00  .174E+00  .162E+00  .142E+00  .126E+00  .113E+00  .102E+00  .909E-01
  .843E-01  .808E-01  .742E-01  .729E-01  .683E-01  .646E-01  .575E-01  .545E-01
  .510E-01  .470E-01  .437E-01  .385E-01  .376E-01  .358E-01  .355E-01  .334E-01
  .289E-01  .321E-01  .301E-01  .254E-01  .243E-01  .310E-01  .305E-01  .271E-01
  .201E-01  .188E-01  .183E-01  .170E-01  .151E-01  .137E-01  .131E-01  .136E-01
  .127E-01  .115E-01  .135E-01  .172E-01  .163E-01  .115E-01  .933E-02  .829E-02
  .765E-02  .721E-02  .687E-02  .659E-02
  .303E+02  .305E+02  .305E+02  .303E+02  .303E+02  .303E+02  .305E+02  .303E+02
  .303E+02  .305E+02  .305E+02  .303E+02  .303E+02  .303E+02  .305E+02  .305E+02
  .305E+02  .322E+02  .304E+02  .416E+02  .306E+02  .306E+02  .366E+02  .304E+02
  .304E+02  .305E+02  .308E+02  .331E+02  .314E+02  .331E+02  .369E+02  .308E+02
  .306E+02  .307E+02  .305E+02  .305E+02  .419E+02  .351E+02  .305E+02  .304E+02
  .304E+02  .304E+02  .304E+02  .304E+02  .304E+02  .304E+02  .304E+02  .304E+02
  .304E+02  .304E+02  .304E+02  .304E+02  .304E+02  .304E+02  .304E+02  .304E+02
  .303E+02  .304E+02  .303E+02  .304E+02  .304E+02  .304E+02  .304E+02  .304E+02
  .303E+02  .303E+02  .303E+02  .303E+02  .303E+02  .303E+02  .303E+02  .303E+02
  .304E+02  .304E+02  .304E+02  .304E+02  .304E+02  .304E+02  .304E+02  .659E+02
  .304E+02  .304E+02  .304E+02  .304E+02  .304E+02  .304E+02  .304E+02  .304E+02
  .304E+02  .321E+02  .894E+02  .928E+02  .997E+02  .572E+02  .595E+02  .303E+02
  .303E+02  .303E+02  .303E+02  .303E+02
  .305E+02  .305E+02  .305E+02  .305E+02  .305E+02  .319E+02  .305E+02  .306E+02
  .305E+02  .303E+02  .303E+02  .305E+02  .305E+02  .305E+02  .311E+02  .312E+02
  .307E+02  .322E+02  .302E+02  .416E+02  .306E+02  .307E+02  .367E+02  .303E+02
  .304E+02  .305E+02  .307E+02  .330E+02  .313E+02  .332E+02  .369E+02  .307E+02
  .307E+02  .306E+02  .306E+02  .304E+02  .304E+02  .305E+02  .305E+02  .305E+02
  .305E+02  .305E+02  .305E+02  .305E+02  .303E+02  .303E+02  .303E+02  .303E+02
  .303E+02  .303E+02  .303E+02  .303E+02  .303E+02  .303E+02  .303E+02  .303E+02
  .303E+02  .303E+02  .303E+02  .303E+02  .303E+02  .303E+02  .303E+02  .303E+02
  .303E+02  .303E+02  .303E+02  .303E+02  .303E+02  .303E+02  .303E+02  .303E+02
  .303E+02  .303E+02  .303E+02  .303E+02  .303E+02  .303E+02  .303E+02  .303E+02
  .303E+02  .303E+02  .303E+02  .303E+02  .303E+02  .303E+02  .303E+02  .303E+02
  .303E+02  .303E+02  .303E+02  .303E+02  .303E+02  .303E+02  .303E+02  .303E+02
  .303E+02  .303E+02  .303E+02  .303E+02
  .303E+02  .305E+02  .305E+02  .303E+02  .303E+02  .303E+02  .305E+02  .303E+02
  .303E+02  .305E+02  .305E+02  .303E+02  .303E+02  .303E+02  .305E+02  .305E+02
  .305E+02  .322E+02  .304E+02  .416E+02  .306E+02  .306E+02  .366E+02  .304E+02
  .304E+02  .305E+02  .308E+02  .331E+02  .314E+02  .331E+02  .369E+02  .308E+02
  .306E+02  .307E+02  .305E+02  .305E+02  .419E+02  .351E+02  .305E+02  .304E+02
  .304E+02  .304E+02  .304E+02  .304E+02  .304E+02  .304E+02  .304E+02  .304E+02
  .304E+02  .304E+02  .304E+02  .304E+02  .304E+02  .304E+02  .304E+02  .304E+02
  .303E+02  .304E+02  .303E+02  .304E+02  .304E+02  .304E+02  .304E+02  .304E+02
  .303E+02  .303E+02  .303E+02  .303E+02  .303E+02  .303E+02  .303E+02  .303E+02
  .304E+02  .304E+02  .304E+02  .304E+02  .304E+02  .304E+02  .304E+02  .659E+02
  .304E+02  .304E+02  .304E+02  .304E+02  .304E+02  .304E+02  .304E+02  .304E+02
  .304E+02  .321E+02  .894E+02  .928E+02  .997E+02  .572E+02  .595E+02  .303E+02
  .303E+02  .303E+02  .303E+02  .303E+02
Damping =  .02. Data of Sd,Sv,Sa,Pssv,ttSd,ttSv,ttSa :
  .432E-03  .472E-03  .514E-03  .568E-03  .632E-03  .685E-03  .840E-03  .105E-02
  .121E-02  .137E-02  .161E-02  .184E-02  .206E-02  .258E-02  .324E-02  .412E-02
  .569E-02  .575E-02  .635E-02  .887E-02  .121E-01  .160E-01  .193E-01  .257E-01
  .334E-01  .397E-01  .676E-01  .129E+00  .142E+00  .132E+00  .105E+00  .853E-01
  .739E-01  .631E-01  .573E-01  .533E-01  .486E-01  .439E-01  .405E-01  .376E-01
  .365E-01  .341E-01  .327E-01  .309E-01  .298E-01  .287E-01  .276E-01  .268E-01
  .264E-01  .261E-01  .255E-01  .245E-01  .240E-01  .235E-01  .230E-01  .222E-01
  .217E-01  .219E-01  .213E-01  .217E-01  .215E-01  .219E-01  .213E-01  .213E-01
  .218E-01  .221E-01  .219E-01  .211E-01  .213E-01  .215E-01  .219E-01  .214E-01
  .202E-01  .223E-01  .222E-01  .207E-01  .219E-01  .282E-01  .299E-01  .271E-01
  .245E-01  .241E-01  .245E-01  .241E-01  .230E-01  .222E-01  .231E-01  .253E-01
  .254E-01  .242E-01  .260E-01  .347E-01  .384E-01  .321E-01  .317E-01  .313E-01
  .314E-01  .320E-01  .328E-01  .330E-01
  .135E-01  .140E-01  .146E-01  .175E-01  .193E-01  .196E-01  .250E-01  .270E-01
  .403E-01  .440E-01  .500E-01  .597E-01  .758E-01  .961E-01  .113E+00  .139E+00
  .190E+00  .191E+00  .229E+00  .269E+00  .372E+00  .450E+00  .584E+00  .733E+00
  .903E+00  .107E+01  .179E+01  .336E+01  .347E+01  .305E+01  .235E+01  .187E+01
  .154E+01  .135E+01  .116E+01  .105E+01  .980E+00  .912E+00  .858E+00  .813E+00
  .772E+00  .694E+00  .636E+00  .590E+00  .569E+00  .557E+00  .544E+00  .533E+00
  .525E+00  .521E+00  .516E+00  .505E+00  .499E+00  .493E+00  .490E+00  .485E+00
  .482E+00  .479E+00  .477E+00  .475E+00  .474E+00  .472E+00  .472E+00  .469E+00
  .470E+00  .467E+00  .463E+00  .463E+00  .462E+00  .461E+00  .460E+00  .457E+00
  .455E+00  .457E+00  .459E+00  .459E+00  .454E+00  .456E+00  .462E+00  .465E+00
  .464E+00  .463E+00  .464E+00  .464E+00  .464E+00  .464E+00  .463E+00  .463E+00
  .465E+00  .466E+00  .466E+00  .466E+00  .464E+00  .462E+00  .461E+00  .461E+00
  .460E+00  .460E+00  .460E+00  .460E+00
  .276E-01  .274E-01  .272E-01  .275E-01  .281E-01  .280E-01  .284E-01  .299E-01
  .292E-01  .286E-01  .292E-01  .294E-01  .292E-01  .325E-01  .368E-01  .421E-01
  .483E-01  .410E-01  .386E-01  .463E-01  .551E-01  .640E-01  .682E-01  .815E-01
  .950E-01  .102E+00  .143E+00  .229E+00  .216E+00  .172E+00  .119E+00  .853E-01
  .657E-01  .498E-01  .407E-01  .340E-01  .282E-01  .233E-01  .196E-01  .167E-01
  .150E-01  .116E-01  .931E-02  .749E-02  .622E-02  .522E-02  .441E-02  .380E-02
  .334E-02  .297E-02  .262E-02  .208E-02  .172E-02  .144E-02  .122E-02  .103E-02
  .887E-03  .795E-03  .693E-03  .634E-03  .570E-03  .482E-03  .398E-03  .341E-03
  .302E-03  .268E-03  .237E-03  .204E-03  .186E-03  .170E-03  .158E-03  .141E-03
  .125E-03  .125E-03  .116E-03  .103E-03  .919E-04  .974E-04  .895E-04  .734E-04
  .612E-04  .549E-04  .508E-04  .463E-04  .416E-04  .378E-04  .340E-04  .320E-04
  .289E-04  .249E-04  .210E-04  .199E-04  .189E-04  .171E-04  .152E-04  .137E-04
  .125E-04  .115E-04  .107E-04  .100E-04
  .679E-01  .706E-01  .735E-01  .776E-01  .828E-01  .861E-01  .959E-01  .110E+00
  .117E+00  .123E+00  .135E+00  .144E+00  .153E+00  .180E+00  .214E+00  .259E+00
  .325E+00  .301E+00  .307E+00  .398E+00  .506E+00  .628E+00  .712E+00  .897E+00
  .110E+01  .125E+01  .193E+01  .338E+01  .344E+01  .296E+01  .220E+01  .168E+01
  .137E+01  .110E+01  .947E+00  .837E+00  .727E+00  .627E+00  .553E+00  .492E+00
  .458E+00  .390E+00  .342E+00  .299E+00  .268E+00  .241E+00  .217E+00  .198E+00
  .185E+00  .173E+00  .160E+00  .140E+00  .126E+00  .114E+00  .103E+00  .931E-01
  .852E-01  .809E-01  .744E-01  .717E-01  .677E-01  .626E-01  .559E-01  .516E-01
  .490E-01  .462E-01  .431E-01  .389E-01  .372E-01  .356E-01  .345E-01  .320E-01
  .289E-01  .304E-01  .290E-01  .261E-01  .251E-01  .295E-01  .289E-01  .244E-01
  .205E-01  .189E-01  .181E-01  .168E-01  .152E-01  .140E-01  .132E-01  .132E-01
  .123E-01  .108E-01  .109E-01  .136E-01  .134E-01  .101E-01  .907E-02  .819E-02
  .759E-02  .718E-02  .687E-02  .648E-02
  .303E+02  .305E+02  .305E+02  .303E+02  .303E+02  .303E+02  .303E+02  .303E+02
  .303E+02  .305E+02  .305E+02  .303E+02  .303E+02  .305E+02  .305E+02  .305E+02
  .305E+02  .305E+02  .304E+02  .305E+02  .303E+02  .303E+02  .304E+02  .304E+02
  .304E+02  .305E+02  .307E+02  .325E+02  .312E+02  .324E+02  .309E+02  .308E+02
  .306E+02  .305E+02  .305E+02  .305E+02  .305E+02  .305E+02  .305E+02  .304E+02
  .304E+02  .304E+02  .304E+02  .304E+02  .304E+02  .304E+02  .304E+02  .304E+02
  .304E+02  .304E+02  .304E+02  .304E+02  .304E+02  .304E+02  .304E+02  .304E+02
  .304E+02  .304E+02  .304E+02  .304E+02  .304E+02  .304E+02  .304E+02  .304E+02
  .303E+02  .303E+02  .303E+02  .303E+02  .303E+02  .303E+02  .303E+02  .303E+02
  .304E+02  .304E+02  .304E+02  .304E+02  .304E+02  .304E+02  .304E+02  .304E+02
  .304E+02  .304E+02  .304E+02  .304E+02  .304E+02  .304E+02  .304E+02  .304E+02
  .304E+02  .321E+02  .672E+02  .689E+02  .638E+02  .303E+02  .303E+02  .303E+02
  .303E+02  .303E+02  .303E+02  .303E+02
  .303E+02  .305E+02  .305E+02  .303E+02  .303E+02  .303E+02  .305E+02  .304E+02
  .305E+02  .303E+02  .303E+02  .303E+02  .305E+02  .305E+02  .305E+02  .305E+02
  .307E+02  .306E+02  .302E+02  .302E+02  .306E+02  .303E+02  .303E+02  .303E+02
  .303E+02  .305E+02  .307E+02  .324E+02  .312E+02  .311E+02  .308E+02  .307E+02
  .306E+02  .306E+02  .306E+02  .304E+02  .304E+02  .304E+02  .304E+02  .305E+02
  .305E+02  .305E+02  .305E+02  .305E+02  .303E+02  .303E+02  .303E+02  .303E+02
  .303E+02  .303E+02  .303E+02  .303E+02  .303E+02  .303E+02  .303E+02  .303E+02
  .303E+02  .303E+02  .303E+02  .303E+02  .303E+02  .303E+02  .303E+02  .303E+02
  .303E+02  .303E+02  .303E+02  .303E+02  .303E+02  .303E+02  .303E+02  .303E+02
  .303E+02  .303E+02  .303E+02  .303E+02  .303E+02  .303E+02  .303E+02  .303E+02
  .303E+02  .303E+02  .303E+02  .303E+02  .303E+02  .303E+02  .303E+02  .303E+02
  .303E+02  .303E+02  .303E+02  .303E+02  .303E+02  .303E+02  .303E+02  .303E+02
  .303E+02  .303E+02  .303E+02  .303E+02
  .303E+02  .305E+02  .305E+02  .303E+02  .303E+02  .303E+02  .303E+02  .303E+02
  .303E+02  .305E+02  .305E+02  .303E+02  .303E+02  .305E+02  .305E+02  .305E+02
  .305E+02  .305E+02  .304E+02  .305E+02  .303E+02  .303E+02  .304E+02  .304E+02
  .304E+02  .305E+02  .307E+02  .325E+02  .312E+02  .324E+02  .309E+02  .308E+02
  .306E+02  .306E+02  .305E+02  .305E+02  .305E+02  .305E+02  .305E+02  .304E+02
  .304E+02  .304E+02  .304E+02  .304E+02  .304E+02  .304E+02  .304E+02  .304E+02
  .304E+02  .304E+02  .304E+02  .304E+02  .304E+02  .304E+02  .304E+02  .304E+02
  .304E+02  .304E+02  .304E+02  .304E+02  .304E+02  .304E+02  .304E+02  .304E+02
  .302E+02  .302E+02  .302E+02  .302E+02  .302E+02  .302E+02  .302E+02  .302E+02
  .304E+02  .304E+02  .304E+02  .304E+02  .304E+02  .304E+02  .304E+02  .303E+02
  .303E+02  .303E+02  .303E+02  .303E+02  .303E+02  .303E+02  .303E+02  .303E+02
  .303E+02  .303E+02  .303E+02  .302E+02  .305E+02  .305E+02  .305E+02  .305E+02
  .305E+02  .305E+02  .305E+02  .305E+02
Damping =  .05. Data of Sd,Sv,Sa,Pssv,ttSd,ttSv,ttSa :
  .427E-03  .468E-03  .512E-03  .566E-03  .625E-03  .681E-03  .835E-03  .103E-02
