Response and Fourier amplitude spectra (** periods,  .04 - 32.0 sec)   for      
Corrected accelerogram   89324-VAA6D-21355.06       Chan  6:  Up         from   
Uncorrected Accelerogram Data             Processed: 12/21/21, CGS  aa6de006    
Rcrd of Mon Dec 20, 2021 13:53:27.0 PST           (Avol1 v6.5,64b, 1/20; PC00)  
CSMIP Preliminary Processing            (Origin:  To be determined)             
89324-VAA6D-21355.06                 Start time: 12/20/21, 21:53:27.0 UTC (GPS) 
Station No. 89324   40.503N, 124.101W    130-MC  s/n AA6D (17 Chns of 17 at Sta)
Rio Dell - Hwy 101/Painter St. Overpass   CGS   Data: Acceleration              
Chan  6:  Up                        Location: Deck: Middle of West Span         
Rcrd of Mon Dec 20, 2021 13:53:27.0 PST    Mon Dec 20, 2021 13:53:27.0 PST      
Hypocenter:  To be determined.               ML:  To be determined.
Instr Period = 0.0008 sec,  Damping = 0.100,  Sensitivity = 1.64 v/g
                        Record Length = 65.610 sec.
                                     Uncor Max  =  0.031 g, at   30.905 sec.
RMS accel of (uncor) record  =        .   Chn. metadata effective date: 04/02/10
Accelerogram bandpass filtered with 3 dB pts at   .07 and 40.00 cyc/sec
                 instrument- and base-line correcte





Rcrd of Mon Dec 20, 2021 13:53:27.0 PST    Mon Dec 20, 2021 13:53:27.0 PST

89324-VAA6D-21355.06      Rio Dell - Hwy 101/Painter St. Overpass   Chan  6:  Up

89324-VAA6D-21355.06      Rio Dell - Hwy 101/Painter St. Overpass   Chan  6:  Up

Units for spectra are inches and sec, except Sa is in fraction of g.

    6  100    6   18   17  200    1    3    1   32  706 -999    089324    3    0
   21   53   27    0  354   12   20 2021   10    3  50013122   39   39   74   -1
13122    0  100    3 -999    1    6 -999 -999 -999 -999 -999 -999 -999 -999 -999
 -999 -999 -999 -999 6561    2  100    1   24  253 -999 -999    3    1 -999 6561
    3 6561    4  100    5   17    5    0    0 -999    0    0 -999 -999    1    2
    2    2    4    0   66   67    0    2 -999    0    0    1 4096 -999    0  222
    1 -999    7 -999
      .001      .100    65.610      .003     1.000  1642.000      .031    30.905
  1300.000     1.584      .965  -999.000     5.000  -999.000     4.000  -999.000
    10.000   998.503    10.000   312.000    30.400    29.995  -999.000     -.001
      .003      .004     2.000    15.000    40.503  -124.101      .072      .114
     1.579     -.008      .017    43.000    30.398    35.609    13.300  -999.000
     1.000  -999.000    -8.000  -999.000  -999.000  -999.000  -999.000   120.000
     6.500     6.500     7.500   980.665      .010    65.610   206.901      .000
  -999.000    40.000  -999.000    65.610      .010      .067  -999.000  -999.000
    30.900    30.272    30.850    -1.087    30.910     -.045      .000      .067
    40.000      .010      .010      .001      .010      .024  -999.000  -999.000
      .143      .240      .109      .072      .002      .000  -999.000  -999.000
  -999.000  -999.000  -999.000  -999.000  -999.000  -999.000  -999.000  -999.000
  -999.000  -999.000  -999.000  -999.000
      .000      .020      .050      .100      .200
      .040      .042      .044      .046      .048      .050      .055      .060
      .065      .070      .075      .080      .085      .090      .095      .100
      .110      .120      .130      .140      .150      .160      .170      .180
      .190      .200      .220      .240      .260      .280      .300      .320
      .340      .360      .380      .400      .420      .440      .460      .480
      .500      .550      .600      .650      .700      .750      .800      .850
      .900      .950     1.000     1.100     1.200     1.300     1.400     1.500
     1.600     1.700     1.800     1.900     2.000     2.200     2.400     2.600
     2.800     3.000     3.200     3.400     3.600     3.800     4.000     4.200
     4.400     4.600     4.800     5.000     5.500     6.000     6.500     7.000
     7.500     8.000     8.500     9.000     9.500    10.000    11.000    12.000
    13.000    14.000    15.000    16.000    18.000    20.000    22.000    24.000
    26.000    28.000    30.000    32.000
Fourier amplitude spectra in in/sec.
  .183E-01  .415E-01  .552E-02  .827E-01  .711E-01  .242E-01  .216E-01  .792E-01
  .686E-01  .749E-01  .676E-02  .886E-01  .541E-01  .129E-01  .796E-01  .620E-01
  .178E+00  .219E+00  .203E+00  .507E+00  .297E+00  .150E+01  .540E+01  .161E+01
  .244E+01  .202E+01  .130E+01  .549E+01  .206E+01  .207E+01  .205E+01  .112E+01
  .219E+00  .288E+00  .336E+00  .212E+00  .518E+00  .456E+00  .142E+00  .276E+00
  .236E+00  .163E+00  .853E-01  .117E+00  .939E-01  .705E-01  .586E-01  .469E-01
  .206E-01  .393E-01  .394E-01  .212E-01  .257E-01  .187E-01  .121E-01  .133E-01
  .204E-01  .130E-01  .128E-01  .153E-01  .680E-02  .528E-02  .699E-03  .271E-02
  .414E-02  .951E-02  .981E-02  .476E-02  .191E-02  .316E-02  .173E-02  .550E-02
  .547E-02  .372E-02  .415E-02  .801E-02  .730E-02  .864E-02  .587E-02  .699E-02
  .108E-01  .907E-02  .795E-02  .694E-02  .409E-02  .173E-02  .938E-02  .108E-01
  .781E-02  .514E-02  .460E-02  .444E-02  .293E-02  .194E-02  .216E-02  .218E-02
  .184E-02  .135E-02  .850E-03  .424E-03
Damping =  .00. Data of Sd,Sv,Sa,Pssv,ttSd,ttSv,ttSa :
  .596E-03  .790E-03  .679E-03  .124E-02  .132E-02  .889E-03  .116E-02  .177E-02
  .199E-02  .255E-02  .217E-02  .321E-02  .268E-02  .395E-02  .479E-02  .440E-02
  .722E-02  .107E-01  .123E-01  .144E-01  .240E-01  .539E-01  .146E+00  .951E-01
  .801E-01  .683E-01  .958E-01  .260E+00  .147E+00  .232E+00  .136E+00  .930E-01
  .489E-01  .366E-01  .375E-01  .347E-01  .433E-01  .357E-01  .373E-01  .347E-01
  .305E-01  .238E-01  .228E-01  .206E-01  .229E-01  .209E-01  .184E-01  .199E-01
  .184E-01  .170E-01  .174E-01  .177E-01  .224E-01  .176E-01  .180E-01  .169E-01
  .161E-01  .160E-01  .196E-01  .175E-01  .192E-01  .196E-01  .171E-01  .159E-01
  .178E-01  .172E-01  .185E-01  .153E-01  .170E-01  .152E-01  .154E-01  .166E-01
  .164E-01  .160E-01  .160E-01  .174E-01  .223E-01  .176E-01  .159E-01  .211E-01
  .248E-01  .245E-01  .232E-01  .220E-01  .205E-01  .207E-01  .207E-01  .240E-01
  .246E-01  .237E-01  .234E-01  .222E-01  .184E-01  .204E-01  .223E-01  .229E-01
  .225E-01  .218E-01  .208E-01  .200E-01
  .313E-01  .546E-01  .352E-01  .104E+00  .106E+00  .448E-01  .467E-01  .108E+00
  .114E+00  .115E+00  .657E-01  .141E+00  .968E-01  .136E+00  .196E+00  .198E+00
  .297E+00  .432E+00  .425E+00  .546E+00  .867E+00  .197E+01  .542E+01  .330E+01
  .264E+01  .213E+01  .276E+01  .678E+01  .367E+01  .526E+01  .288E+01  .188E+01
  .109E+01  .883E+00  .812E+00  .704E+00  .743E+00  .652E+00  .715E+00  .648E+00
  .526E+00  .490E+00  .498E+00  .471E+00  .467E+00  .466E+00  .459E+00  .442E+00
  .462E+00  .442E+00  .441E+00  .429E+00  .445E+00  .448E+00  .426E+00  .429E+00
  .437E+00  .442E+00  .427E+00  .422E+00  .433E+00  .432E+00  .427E+00  .423E+00
  .429E+00  .423E+00  .432E+00  .426E+00  .426E+00  .426E+00  .423E+00  .423E+00
  .424E+00  .423E+00  .422E+00  .420E+00  .424E+00  .428E+00  .422E+00  .421E+00
  .424E+00  .428E+00  .429E+00  .430E+00  .431E+00  .431E+00  .431E+00  .428E+00
  .426E+00  .423E+00  .422E+00  .422E+00  .422E+00  .423E+00  .424E+00  .424E+00
  .425E+00  .425E+00  .425E+00  .425E+00
  .381E-01  .458E-01  .359E-01  .600E-01  .585E-01  .364E-01  .391E-01  .502E-01
  .482E-01  .532E-01  .394E-01  .513E-01  .380E-01  .498E-01  .542E-01  .450E-01
  .610E-01  .761E-01  .745E-01  .750E-01  .109E+00  .215E+00  .518E+00  .300E+00
  .227E+00  .175E+00  .203E+00  .462E+00  .223E+00  .303E+00  .154E+00  .929E-01
  .432E-01  .289E-01  .265E-01  .222E-01  .251E-01  .188E-01  .180E-01  .154E-01
  .125E-01  .805E-02  .647E-02  .498E-02  .479E-02  .381E-02  .294E-02  .282E-02
  .232E-02  .193E-02  .178E-02  .150E-02  .159E-02  .107E-02  .940E-03  .769E-03
  .644E-03  .565E-03  .620E-03  .496E-03  .492E-03  .415E-03  .303E-03  .241E-03
  .233E-03  .195E-03  .184E-03  .135E-03  .134E-03  .107E-03  .982E-04  .962E-04
  .865E-04  .771E-04  .709E-04  .711E-04  .753E-04  .500E-04  .385E-04  .441E-04
  .452E-04  .392E-04  .328E-04  .278E-04  .233E-04  .212E-04  .175E-04  .171E-04
  .149E-04  .123E-04  .106E-04  .886E-05  .582E-05  .522E-05  .472E-05  .406E-05
  .341E-05  .284E-05  .237E-05  .199E-05
  .936E-01  .118E+00  .969E-01  .169E+00  .173E+00  .112E+00  .132E+00  .185E+00
  .192E+00  .229E+00  .181E+00  .252E+00  .198E+00  .276E+00  .317E+00  .277E+00
  .412E+00  .561E+00  .595E+00  .645E+00  .101E+01  .212E+01  .541E+01  .332E+01
  .265E+01  .215E+01  .274E+01  .681E+01  .356E+01  .522E+01  .284E+01  .183E+01
  .903E+00  .638E+00  .620E+00  .545E+00  .648E+00  .509E+00  .509E+00  .455E+00
  .384E+00  .272E+00  .239E+00  .199E+00  .206E+00  .175E+00  .144E+00  .147E+00
  .128E+00  .113E+00  .110E+00  .101E+00  .117E+00  .852E-01  .809E-01  .708E-01
  .633E-01  .590E-01  .685E-01  .579E-01  .604E-01  .560E-01  .447E-01  .385E-01
  .400E-01  .360E-01  .363E-01  .282E-01  .297E-01  .251E-01  .241E-01  .248E-01
  .234E-01  .218E-01  .209E-01  .218E-01  .254E-01  .184E-01  .154E-01  .190E-01
  .208E-01  .193E-01  .171E-01  .154E-01  .136E-01  .130E-01  .118E-01  .126E-01
  .119E-01  .106E-01  .980E-02  .871E-02  .643E-02  .642E-02  .638E-02  .599E-02
  .544E-02  .488E-02  .437E-02  .392E-02
  .309E+02  .309E+02  .309E+02  .309E+02  .308E+02  .308E+02  .309E+02  .304E+02
  .309E+02  .309E+02  .309E+02  .309E+02  .308E+02  .309E+02  .309E+02  .308E+02
  .308E+02  .308E+02  .309E+02  .322E+02  .309E+02  .321E+02  .460E+02  .318E+02
  .391E+02  .407E+02  .311E+02  .328E+02  .315E+02  .334E+02  .404E+02  .341E+02
  .325E+02  .308E+02  .326E+02  .322E+02  .359E+02  .326E+02  .326E+02  .325E+02
  .325E+02  .322E+02  .326E+02  .326E+02  .325E+02  .325E+02  .304E+02  .323E+02
  .309E+02  .304E+02  .304E+02  .322E+02  .309E+02  .309E+02  .304E+02  .309E+02
  .309E+02  .309E+02  .309E+02  .304E+02  .309E+02  .309E+02  .309E+02  .304E+02
  .309E+02  .309E+02  .309E+02  .308E+02  .309E+02  .309E+02  .309E+02  .309E+02
  .309E+02  .309E+02  .309E+02  .304E+02  .309E+02  .309E+02  .322E+02  .309E+02
  .309E+02  .309E+02  .309E+02  .309E+02  .309E+02  .326E+02  .303E+02  .303E+02
  .308E+02  .308E+02  .325E+02  .325E+02  .345E+02  .309E+02  .309E+02  .309E+02
  .309E+02  .309E+02  .309E+02  .309E+02
  .309E+02  .309E+02  .304E+02  .309E+02  .307E+02  .309E+02  .303E+02  .308E+02
  .308E+02  .314E+02  .321E+02  .321E+02  .325E+02  .307E+02  .309E+02  .320E+02
  .320E+02  .308E+02  .320E+02  .314E+02  .308E+02  .320E+02  .460E+02  .318E+02
  .391E+02  .407E+02  .312E+02  .328E+02  .314E+02  .333E+02  .404E+02  .342E+02
  .325E+02  .307E+02  .325E+02  .304E+02  .321E+02  .320E+02  .325E+02  .325E+02
  .324E+02  .309E+02  .321E+02  .308E+02  .308E+02  .308E+02  .308E+02  .308E+02
  .308E+02  .308E+02  .308E+02  .308E+02  .308E+02  .308E+02  .308E+02  .308E+02
  .308E+02  .308E+02  .308E+02  .308E+02  .308E+02  .308E+02  .308E+02  .308E+02
  .308E+02  .308E+02  .308E+02  .308E+02  .308E+02  .308E+02  .308E+02  .308E+02
  .308E+02  .308E+02  .308E+02  .308E+02  .308E+02  .308E+02  .308E+02  .308E+02
  .308E+02  .308E+02  .308E+02  .308E+02  .308E+02  .308E+02  .308E+02  .308E+02
  .308E+02  .308E+02  .308E+02  .308E+02  .308E+02  .308E+02  .308E+02  .308E+02
  .308E+02  .308E+02  .308E+02  .308E+02
  .309E+02  .309E+02  .309E+02  .309E+02  .308E+02  .308E+02  .309E+02  .304E+02
  .309E+02  .309E+02  .309E+02  .309E+02  .308E+02  .309E+02  .309E+02  .308E+02
  .308E+02  .308E+02  .309E+02  .322E+02  .309E+02  .321E+02  .460E+02  .318E+02
  .391E+02  .407E+02  .311E+02  .328E+02  .315E+02  .334E+02  .404E+02  .341E+02
  .325E+02  .308E+02  .326E+02  .322E+02  .359E+02  .326E+02  .326E+02  .325E+02
  .325E+02  .322E+02  .326E+02  .326E+02  .325E+02  .325E+02  .304E+02  .323E+02
  .309E+02  .304E+02  .304E+02  .322E+02  .309E+02  .309E+02  .304E+02  .309E+02
  .309E+02  .309E+02  .309E+02  .304E+02  .309E+02  .309E+02  .309E+02  .304E+02
  .309E+02  .309E+02  .309E+02  .308E+02  .309E+02  .309E+02  .309E+02  .309E+02
  .309E+02  .309E+02  .309E+02  .304E+02  .309E+02  .309E+02  .322E+02  .309E+02
  .309E+02  .309E+02  .309E+02  .309E+02  .309E+02  .326E+02  .303E+02  .303E+02
  .308E+02  .308E+02  .325E+02  .325E+02  .345E+02  .309E+02  .309E+02  .309E+02
  .309E+02  .309E+02  .309E+02  .309E+02
Damping =  .02. Data of Sd,Sv,Sa,Pssv,ttSd,ttSv,ttSa :
  .492E-03  .549E-03  .610E-03  .699E-03  .730E-03  .821E-03  .983E-03  .116E-02
  .139E-02  .176E-02  .204E-02  .249E-02  .270E-02  .356E-02  .385E-02  .404E-02
  .648E-02  .964E-02  .113E-01  .127E-01  .215E-01  .386E-01  .659E-01  .554E-01
  .445E-01  .522E-01  .716E-01  .133E+00  .106E+00  .126E+00  .788E-01  .602E-01
  .450E-01  .354E-01  .321E-01  .289E-01  .287E-01  .301E-01  .309E-01  .295E-01
  .266E-01  .215E-01  .200E-01  .198E-01  .222E-01  .210E-01  .175E-01  .179E-01
  .172E-01  .169E-01  .174E-01  .174E-01  .190E-01  .179E-01  .169E-01  .178E-01
  .172E-01  .164E-01  .174E-01  .166E-01  .181E-01  .181E-01  .167E-01  .163E-01
  .174E-01  .173E-01  .177E-01  .156E-01  .164E-01  .157E-01  .157E-01  .164E-01
  .164E-01  .162E-01  .164E-01  .174E-01  .209E-01  .180E-01  .166E-01  .206E-01
  .236E-01  .237E-01  .227E-01  .215E-01  .201E-01  .195E-01  .198E-01  .228E-01
  .233E-01  .226E-01  .222E-01  .213E-01  .175E-01  .198E-01  .217E-01  .222E-01
  .220E-01  .216E-01  .210E-01  .196E-01
  .156E-01  .188E-01  .209E-01  .245E-01  .279E-01  .312E-01  .316E-01  .382E-01
  .584E-01  .600E-01  .625E-01  .833E-01  .111E+00  .133E+00  .149E+00  .171E+00
  .246E+00  .365E+00  .381E+00  .452E+00  .742E+00  .138E+01  .231E+01  .189E+01
  .148E+01  .156E+01  .205E+01  .343E+01  .269E+01  .287E+01  .170E+01  .138E+01
  .101E+01  .853E+00  .733E+00  .681E+00  .667E+00  .578E+00  .630E+00  .590E+00
  .516E+00  .489E+00  .482E+00  .472E+00  .461E+00  .454E+00  .452E+00  .447E+00
  .444E+00  .438E+00  .437E+00  .432E+00  .437E+00  .440E+00  .431E+00  .433E+00
  .435E+00  .434E+00  .428E+00  .427E+00  .429E+00  .430E+00  .428E+00  .425E+00
  .427E+00  .425E+00  .429E+00  .427E+00  .426E+00  .426E+00  .424E+00  .424E+00
  .424E+00  .423E+00  .422E+00  .421E+00  .424E+00  .427E+00  .423E+00  .422E+00
  .424E+00  .427E+00  .428E+00  .429E+00  .430E+00  .431E+00  .430E+00  .428E+00
  .426E+00  .424E+00  .423E+00  .422E+00  .422E+00  .423E+00  .423E+00  .424E+00
  .425E+00  .425E+00  .425E+00  .425E+00
  .314E-01  .318E-01  .322E-01  .338E-01  .324E-01  .336E-01  .332E-01  .330E-01
  .337E-01  .368E-01  .370E-01  .398E-01  .383E-01  .451E-01  .436E-01  .413E-01
  .549E-01  .683E-01  .687E-01  .661E-01  .982E-01  .155E+00  .234E+00  .175E+00
  .126E+00  .133E+00  .152E+00  .238E+00  .160E+00  .165E+00  .896E-01  .603E-01
  .400E-01  .280E-01  .227E-01  .185E-01  .166E-01  .160E-01  .150E-01  .131E-01
  .109E-01  .728E-02  .568E-02  .479E-02  .464E-02  .384E-02  .284E-02  .254E-02
  .219E-02  .195E-02  .182E-02  .150E-02  .138E-02  .111E-02  .909E-03  .837E-03
  .713E-03  .604E-03  .574E-03  .498E-03  .488E-03  .410E-03  .323E-03  .272E-03
  .252E-03  .221E-03  .200E-03  .161E-03  .152E-03  .134E-03  .123E-03  .118E-03
  .109E-03  .101E-03  .952E-04  .930E-04  .917E-04  .715E-04  .598E-04  .622E-04
  .617E-04  .563E-04  .501E-04  .447E-04  .398E-04  .350E-04  .272E-04  .271E-04
  .253E-04  .224E-04  .203E-04  .182E-04  .165E-04  .156E-04  .144E-04  .132E-04
  .120E-04  .109E-04  .100E-04  .926E-05
  .773E-01  .822E-01  .871E-01  .955E-01  .955E-01  .103E+00  .112E+00  .122E+00
  .135E+00  .158E+00  .170E+00  .196E+00  .200E+00  .249E+00  .254E+00  .254E+00
  .370E+00  .505E+00  .546E+00  .571E+00  .902E+00  .152E+01  .244E+01  .193E+01
  .147E+01  .164E+01  .205E+01  .349E+01  .256E+01  .282E+01  .165E+01  .118E+01
  .832E+00  .618E+00  .530E+00  .454E+00  .429E+00  .430E+00  .422E+00  .387E+00
  .334E+00  .245E+00  .210E+00  .191E+00  .199E+00  .176E+00  .137E+00  .133E+00
  .120E+00  .112E+00  .109E+00  .994E-01  .995E-01  .865E-01  .758E-01  .747E-01
  .676E-01  .606E-01  .606E-01  .550E-01  .568E-01  .518E-01  .437E-01  .393E-01
  .390E-01  .362E-01  .347E-01  .288E-01  .287E-01  .259E-01  .247E-01  .245E-01
  .234E-01  .222E-01  .215E-01  .218E-01  .238E-01  .188E-01  .161E-01  .185E-01
  .198E-01  .186E-01  .168E-01  .150E-01  .133E-01  .122E-01  .113E-01  .119E-01
  .113E-01  .102E-01  .929E-02  .836E-02  .610E-02  .621E-02  .619E-02  .580E-02
  .532E-02  .484E-02  .439E-02  .385E-02
  .309E+02  .309E+02  .309E+02  .309E+02  .308E+02  .309E+02  .309E+02  .309E+02
  .304E+02  .309E+02  .309E+02  .309E+02  .303E+02  .309E+02  .309E+02  .304E+02
  .308E+02  .308E+02  .309E+02  .304E+02  .309E+02  .321E+02  .322E+02  .311E+02
  .305E+02  .305E+02  .311E+02  .326E+02  .310E+02  .332E+02  .361E+02  .330E+02
  .308E+02  .308E+02  .305E+02  .305E+02  .321E+02  .326E+02  .326E+02  .325E+02
  .325E+02  .322E+02  .322E+02  .321E+02  .325E+02  .325E+02  .309E+02  .323E+02
  .323E+02  .309E+02  .309E+02  .309E+02  .309E+02  .309E+02  .309E+02  .309E+02
  .309E+02  .309E+02  .309E+02  .309E+02  .309E+02  .309E+02  .309E+02  .309E+02
  .309E+02  .309E+02  .309E+02  .309E+02  .309E+02  .309E+02  .309E+02  .309E+02
  .309E+02  .309E+02  .309E+02  .309E+02  .309E+02  .309E+02  .309E+02  .309E+02
  .309E+02  .309E+02  .309E+02  .309E+02  .309E+02  .326E+02  .303E+02  .303E+02
  .308E+02  .308E+02  .325E+02  .325E+02  .345E+02  .309E+02  .309E+02  .309E+02
  .309E+02  .309E+02  .309E+02  .309E+02
  .303E+02  .309E+02  .309E+02  .310E+02  .307E+02  .309E+02  .308E+02  .308E+02
  .308E+02  .309E+02  .303E+02  .303E+02  .303E+02  .303E+02  .303E+02  .303E+02
  .308E+02  .308E+02  .308E+02  .304E+02  .308E+02  .321E+02  .322E+02  .312E+02
  .311E+02  .306E+02  .311E+02  .327E+02  .310E+02  .333E+02  .362E+02  .308E+02
  .308E+02  .307E+02  .304E+02  .304E+02  .321E+02  .320E+02  .325E+02  .325E+02
  .309E+02  .308E+02  .308E+02  .308E+02  .308E+02  .308E+02  .308E+02  .308E+02
  .308E+02  .308E+02  .308E+02  .308E+02  .308E+02  .308E+02  .308E+02  .308E+02
  .308E+02  .308E+02  .308E+02  .308E+02  .308E+02  .308E+02  .308E+02  .308E+02
  .308E+02  .308E+02  .308E+02  .308E+02  .308E+02  .308E+02  .308E+02  .308E+02
  .308E+02  .308E+02  .308E+02  .308E+02  .308E+02  .308E+02  .308E+02  .308E+02
  .308E+02  .308E+02  .308E+02  .308E+02  .308E+02  .308E+02  .308E+02  .308E+02
  .308E+02  .308E+02  .308E+02  .308E+02  .308E+02  .308E+02  .308E+02  .308E+02
  .308E+02  .308E+02  .308E+02  .308E+02
  .309E+02  .309E+02  .309E+02  .309E+02  .308E+02  .309E+02  .309E+02  .309E+02
  .304E+02  .309E+02  .309E+02  .309E+02  .303E+02  .309E+02  .309E+02  .304E+02
  .308E+02  .308E+02  .309E+02  .304E+02  .309E+02  .321E+02  .322E+02  .311E+02
  .305E+02  .305E+02  .311E+02  .326E+02  .310E+02  .332E+02  .361E+02  .330E+02
  .308E+02  .308E+02  .305E+02  .305E+02  .320E+02  .326E+02  .326E+02  .325E+02
  .325E+02  .322E+02  .322E+02  .321E+02  .325E+02  .325E+02  .309E+02  .323E+02
  .304E+02  .309E+02  .309E+02  .309E+02  .309E+02  .309E+02  .309E+02  .309E+02
  .309E+02  .309E+02  .309E+02  .309E+02  .309E+02  .309E+02  .309E+02  .309E+02
  .309E+02  .309E+02  .309E+02  .309E+02  .309E+02  .309E+02  .309E+02  .309E+02
  .309E+02  .309E+02  .309E+02  .309E+02  .309E+02  .309E+02  .309E+02  .309E+02
  .309E+02  .309E+02  .309E+02  .309E+02  .309E+02  .309E+02  .308E+02  .308E+02
  .308E+02  .308E+02  .321E+02  .321E+02  .308E+02  .308E+02  .308E+02  .308E+02
  .308E+02  .308E+02  .308E+02  .308E+02
Damping =  .05. Data of Sd,Sv,Sa,Pssv,ttSd,ttSv,ttSa :
  .492E-03  .548E-03  .611E-03  .677E-03  .730E-03  .805E-03  .993E-03  .118E-02
