Response and Fourier amplitude spectra (** periods,  .04 - 32.0 sec)   for      
Corrected accelerogram   89324-VAA6D-21355.06       Chan  2:  Up         from   
Uncorrected Accelerogram Data             Processed: 12/21/21, CGS  aa6de006    
Rcrd of Mon Dec 20, 2021 13:53:27.0 PST           (Avol1 v6.5,64b, 1/20; PC00)  
CSMIP Preliminary Processing            (Origin:  To be determined)             
89324-VAA6D-21355.06                 Start time: 12/20/21, 21:53:27.0 UTC (GPS) 
Station No. 89324   40.503N, 124.101W    130-MC  s/n AA6D (17 Chns of 17 at Sta)
Rio Dell - Hwy 101/Painter St. Overpass   CGS   Data: Acceleration              
Chan  2:  Up                        Location: Middle Bent: Column at Grnd Level 
Rcrd of Mon Dec 20, 2021 13:53:27.0 PST    Mon Dec 20, 2021 13:53:27.0 PST      
Hypocenter:  To be determined.               ML:  To be determined.
Instr Period = 0.0008 sec,  Damping = 0.100,  Sensitivity = 1.61 v/g
                        Record Length = 65.610 sec.
                                     Uncor Max  =  0.004 g, at   30.385 sec.
RMS accel of (uncor) record  =        .   Chn. metadata effective date: 04/02/10
Accelerogram bandpass filtered with 3 dB pts at   .07 and 40.00 cyc/sec
                 instrument- and base-line correcte





Rcrd of Mon Dec 20, 2021 13:53:27.0 PST    Mon Dec 20, 2021 13:53:27.0 PST

89324-VAA6D-21355.06      Rio Dell - Hwy 101/Painter St. Overpass   Chan  2:  Up

89324-VAA6D-21355.06      Rio Dell - Hwy 101/Painter St. Overpass   Chan  2:  Up

Units for spectra are inches and sec, except Sa is in fraction of g.

    2  100    2   18   17  200    1    3    1   32  706 -999    089324    3    0
   21   53   27    0  354   12   20 2021   10    3  50013122   39   39   74   -1
13122    0  100    3 -999    1    6 -999 -999 -999 -999 -999 -999 -999 -999 -999
 -999 -999 -999 -999 6561    2  100    1   24  253 -999 -999    3    1 -999 6561
    3 6561    4  100    5   17    5    0    0 -999    0    0 -999 -999    1    2
    2    2    4    0   66   67    0    2 -999    0    0    1 4096 -999    0  222
    1 -999    3 -999
      .001      .100    65.610      .000     1.000  1614.000      .004    30.385
  1300.000     1.584      .981  -999.000     5.000  -999.000     4.000  -999.000
    10.000  1000.339    10.000   312.000    30.400    29.995  -999.000     -.001
      .003      .004     2.000    15.000    40.503  -124.101      .049      .054
     1.109     -.004      .011    43.000    30.398    35.609    13.300  -999.000
     1.000  -999.000    -8.000  -999.000  -999.000  -999.000  -999.000   120.000
     6.500     6.500     7.500   980.665      .010    65.610   206.901      .000
  -999.000    40.000  -999.000    65.610      .010      .067  -999.000  -999.000
    30.390     4.231    30.980      .166    30.910     -.023     -.001      .067
    40.000      .010      .010      .001      .010      .005  -999.000  -999.000
      .020      .240      .014      .010      .001      .000  -999.000  -999.000
  -999.000  -999.000  -999.000  -999.000  -999.000  -999.000  -999.000  -999.000
  -999.000  -999.000  -999.000  -999.000
      .000      .020      .050      .100      .200
      .040      .042      .044      .046      .048      .050      .055      .060
      .065      .070      .075      .080      .085      .090      .095      .100
      .110      .120      .130      .140      .150      .160      .170      .180
      .190      .200      .220      .240      .260      .280      .300      .320
      .340      .360      .380      .400      .420      .440      .460      .480
      .500      .550      .600      .650      .700      .750      .800      .850
      .900      .950     1.000     1.100     1.200     1.300     1.400     1.500
     1.600     1.700     1.800     1.900     2.000     2.200     2.400     2.600
     2.800     3.000     3.200     3.400     3.600     3.800     4.000     4.200
     4.400     4.600     4.800     5.000     5.500     6.000     6.500     7.000
     7.500     8.000     8.500     9.000     9.500    10.000    11.000    12.000
    13.000    14.000    15.000    16.000    18.000    20.000    22.000    24.000
    26.000    28.000    30.000    32.000
Fourier amplitude spectra in in/sec.
  .130E-01  .214E-01  .100E-01  .101E-01  .220E-01  .512E-02  .120E-01  .750E-01
  .280E-01  .328E-01  .264E-01  .373E-01  .243E-01  .528E-01  .108E+00  .120E+00
  .440E-01  .741E-01  .958E-01  .142E+00  .676E-01  .381E-01  .111E+00  .180E+00
  .185E+00  .177E+00  .137E+00  .894E+00  .158E+00  .474E+00  .323E+00  .142E+00
  .485E-01  .124E+00  .641E-01  .111E+00  .264E+00  .240E+00  .143E+00  .188E+00
  .164E+00  .109E+00  .938E-01  .807E-01  .856E-01  .688E-01  .644E-01  .349E-01
  .347E-01  .454E-01  .409E-01  .115E-01  .102E-01  .136E-01  .115E-01  .181E-01
  .105E-01  .742E-02  .101E-01  .143E-01  .228E-01  .109E-01  .175E-01  .418E-02
  .617E-02  .219E-01  .165E-01  .826E-02  .239E-01  .146E-01  .123E-01  .289E-01
  .301E-01  .143E-01  .102E-01  .152E-01  .154E-01  .140E-01  .191E-01  .233E-01
  .270E-02  .206E-01  .303E-01  .312E-01  .267E-01  .202E-01  .107E-01  .153E-01
  .167E-01  .135E-01  .927E-02  .586E-02  .148E-02  .169E-02  .307E-02  .349E-02
  .333E-02  .291E-02  .240E-02  .191E-02
Damping =  .00. Data of Sd,Sv,Sa,Pssv,ttSd,ttSv,ttSa :
  .149E-03  .190E-03  .156E-03  .152E-03  .270E-03  .166E-03  .208E-03  .758E-03
  .511E-03  .627E-03  .514E-03  .866E-03  .673E-03  .101E-02  .228E-02  .237E-02
  .125E-02  .160E-02  .339E-02  .366E-02  .302E-02  .387E-02  .465E-02  .591E-02
  .905E-02  .855E-02  .112E-01  .418E-01  .215E-01  .236E-01  .157E-01  .112E-01
  .825E-02  .757E-02  .907E-02  .755E-02  .189E-01  .171E-01  .147E-01  .147E-01
  .133E-01  .106E-01  .934E-02  .127E-01  .102E-01  .957E-02  .114E-01  .725E-02
  .779E-02  .742E-02  .766E-02  .494E-02  .463E-02  .470E-02  .576E-02  .480E-02
  .369E-02  .552E-02  .514E-02  .531E-02  .762E-02  .629E-02  .844E-02  .615E-02
  .516E-02  .106E-01  .840E-02  .931E-02  .137E-01  .881E-02  .898E-02  .193E-01
  .231E-01  .158E-01  .129E-01  .158E-01  .154E-01  .165E-01  .215E-01  .259E-01
  .250E-01  .304E-01  .411E-01  .474E-01  .459E-01  .369E-01  .206E-01  .291E-01
  .346E-01  .300E-01  .257E-01  .224E-01  .162E-01  .156E-01  .159E-01  .173E-01
  .170E-01  .158E-01  .139E-01  .134E-01
  .174E-01  .242E-01  .173E-01  .160E-01  .274E-01  .108E-01  .190E-01  .769E-01
  .379E-01  .452E-01  .295E-01  .533E-01  .402E-01  .625E-01  .137E+00  .140E+00
  .643E-01  .823E-01  .163E+00  .157E+00  .103E+00  .144E+00  .162E+00  .195E+00
  .289E+00  .258E+00  .309E+00  .109E+01  .530E+00  .534E+00  .346E+00  .225E+00
  .169E+00  .141E+00  .158E+00  .125E+00  .283E+00  .245E+00  .215E+00  .192E+00
  .166E+00  .127E+00  .103E+00  .136E+00  .105E+00  .118E+00  .948E-01  .837E-01
  .810E-01  .811E-01  .794E-01  .848E-01  .764E-01  .740E-01  .821E-01  .663E-01
  .721E-01  .613E-01  .741E-01  .655E-01  .677E-01  .629E-01  .616E-01  .769E-01
  .617E-01  .648E-01  .766E-01  .724E-01  .673E-01  .576E-01  .588E-01  .673E-01
  .734E-01  .716E-01  .661E-01  .645E-01  .660E-01  .578E-01  .649E-01  .774E-01
  .799E-01  .786E-01  .764E-01  .726E-01  .675E-01  .628E-01  .587E-01  .604E-01
  .634E-01  .652E-01  .658E-01  .659E-01  .661E-01  .666E-01  .670E-01  .673E-01
  .672E-01  .670E-01  .666E-01  .663E-01
  .953E-02  .110E-01  .825E-02  .733E-02  .120E-01  .680E-02  .702E-02  .215E-01
  .124E-01  .131E-01  .935E-02  .138E-01  .953E-02  .128E-01  .259E-01  .243E-01
  .106E-01  .114E-01  .205E-01  .191E-01  .137E-01  .155E-01  .165E-01  .187E-01
  .257E-01  .219E-01  .237E-01  .742E-01  .325E-01  .308E-01  .178E-01  .112E-01
  .730E-02  .598E-02  .642E-02  .483E-02  .110E-01  .906E-02  .709E-02  .651E-02
  .544E-02  .357E-02  .265E-02  .309E-02  .213E-02  .174E-02  .183E-02  .103E-02
  .983E-03  .840E-03  .783E-03  .418E-03  .329E-03  .284E-03  .301E-03  .218E-03
  .148E-03  .195E-03  .162E-03  .150E-03  .195E-03  .133E-03  .150E-03  .930E-04
  .673E-04  .120E-03  .839E-04  .823E-04  .108E-03  .624E-04  .574E-04  .112E-03
  .122E-03  .764E-04  .571E-04  .644E-04  .519E-04  .468E-04  .520E-04  .541E-04
  .455E-04  .486E-04  .582E-04  .598E-04  .520E-04  .378E-04  .174E-04  .207E-04
  .209E-04  .157E-04  .117E-04  .895E-05  .511E-05  .400E-05  .336E-05  .308E-05
  .258E-05  .206E-05  .158E-05  .134E-05
  .234E-01  .285E-01  .223E-01  .207E-01  .354E-01  .209E-01  .237E-01  .793E-01
  .494E-01  .563E-01  .431E-01  .680E-01  .498E-01  .707E-01  .151E+00  .149E+00
  .716E-01  .837E-01  .164E+00  .164E+00  .127E+00  .152E+00  .172E+00  .206E+00
  .299E+00  .269E+00  .320E+00  .109E+01  .519E+00  .530E+00  .328E+00  .220E+00
  .153E+00  .132E+00  .150E+00  .119E+00  .283E+00  .245E+00  .200E+00  .192E+00
  .167E+00  .121E+00  .979E-01  .123E+00  .917E-01  .802E-01  .899E-01  .536E-01
  .544E-01  .490E-01  .481E-01  .282E-01  .242E-01  .227E-01  .259E-01  .201E-01
  .145E-01  .204E-01  .179E-01  .176E-01  .239E-01  .180E-01  .221E-01  .149E-01
  .116E-01  .221E-01  .165E-01  .172E-01  .239E-01  .146E-01  .141E-01  .289E-01
  .330E-01  .216E-01  .168E-01  .198E-01  .175E-01  .172E-01  .208E-01  .233E-01
  .210E-01  .239E-01  .304E-01  .331E-01  .304E-01  .232E-01  .118E-01  .153E-01
  .167E-01  .135E-01  .107E-01  .880E-02  .566E-02  .491E-02  .454E-02  .454E-02
  .412E-02  .354E-02  .291E-02  .264E-02
  .305E+02  .304E+02  .304E+02  .304E+02  .304E+02  .305E+02  .304E+02  .305E+02
  .304E+02  .304E+02  .305E+02  .305E+02  .302E+02  .309E+02  .310E+02  .316E+02
  .301E+02  .364E+02  .305E+02  .346E+02  .309E+02  .321E+02  .304E+02  .318E+02
  .323E+02  .334E+02  .307E+02  .331E+02  .315E+02  .393E+02  .439E+02  .330E+02
  .308E+02  .439E+02  .349E+02  .373E+02  .449E+02  .560E+02  .326E+02  .547E+02
  .467E+02  .417E+02  .378E+02  .359E+02  .429E+02  .333E+02  .446E+02  .323E+02
  .319E+02  .320E+02  .400E+02  .312E+02  .309E+02  .309E+02  .309E+02  .324E+02
  .312E+02  .305E+02  .312E+02  .309E+02  .631E+02  .309E+02  .305E+02  .304E+02
  .585E+02  .638E+02  .656E+02  .543E+02  .718E+02  .721E+02  .305E+02  .738E+02
  .602E+02  .499E+02  .500E+02  .503E+02  .508E+02  .416E+02  .607E+02  .665E+02
  .407E+02  .416E+02  .641E+02  .569E+02  .536E+02  .545E+02  .548E+02  .679E+02
  .638E+02  .657E+02  .464E+02  .465E+02  .404E+02  .420E+02  .361E+02  .361E+02
  .361E+02  .368E+02  .368E+02  .461E+02
  .583E+02  .524E+02  .158E+02  .582E+02  .305E+02  .302E+02  .990E+01  .567E+02
  .304E+02  .303E+02  .305E+02  .305E+02  .301E+02  .310E+02  .310E+02  .323E+02
  .330E+02  .399E+02  .304E+02  .346E+02  .309E+02  .321E+02  .303E+02  .319E+02
  .313E+02  .334E+02  .306E+02  .329E+02  .315E+02  .332E+02  .321E+02  .330E+02
  .307E+02  .307E+02  .350E+02  .306E+02  .448E+02  .559E+02  .332E+02  .548E+02
  .468E+02  .314E+02  .310E+02  .351E+02  .333E+02  .324E+02  .324E+02  .310E+02
  .310E+02  .310E+02  .310E+02  .310E+02  .310E+02  .310E+02  .310E+02  .310E+02
  .310E+02  .310E+02  .310E+02  .310E+02  .310E+02  .310E+02  .308E+02  .310E+02
  .310E+02  .310E+02  .310E+02  .310E+02  .310E+02  .310E+02  .310E+02  .310E+02
  .310E+02  .310E+02  .310E+02  .310E+02  .310E+02  .308E+02  .310E+02  .310E+02
  .310E+02  .310E+02  .310E+02  .310E+02  .310E+02  .310E+02  .310E+02  .310E+02
  .310E+02  .310E+02  .310E+02  .310E+02  .310E+02  .310E+02  .310E+02  .310E+02
  .310E+02  .310E+02  .310E+02  .310E+02
  .305E+02  .304E+02  .304E+02  .304E+02  .304E+02  .305E+02  .304E+02  .305E+02
  .304E+02  .304E+02  .305E+02  .305E+02  .302E+02  .309E+02  .310E+02  .316E+02
  .301E+02  .364E+02  .305E+02  .346E+02  .309E+02  .321E+02  .304E+02  .318E+02
  .323E+02  .334E+02  .307E+02  .331E+02  .315E+02  .393E+02  .439E+02  .330E+02
  .308E+02  .439E+02  .349E+02  .373E+02  .449E+02  .560E+02  .326E+02  .547E+02
  .467E+02  .417E+02  .378E+02  .359E+02  .429E+02  .333E+02  .446E+02  .323E+02
  .319E+02  .320E+02  .400E+02  .312E+02  .309E+02  .309E+02  .309E+02  .324E+02
  .312E+02  .305E+02  .312E+02  .309E+02  .631E+02  .309E+02  .305E+02  .304E+02
  .585E+02  .638E+02  .656E+02  .543E+02  .718E+02  .721E+02  .305E+02  .738E+02
  .602E+02  .499E+02  .500E+02  .503E+02  .508E+02  .416E+02  .607E+02  .665E+02
  .407E+02  .416E+02  .641E+02  .569E+02  .536E+02  .545E+02  .548E+02  .679E+02
  .638E+02  .657E+02  .464E+02  .465E+02  .404E+02  .420E+02  .361E+02  .361E+02
  .361E+02  .368E+02  .368E+02  .461E+02
Damping =  .02. Data of Sd,Sv,Sa,Pssv,ttSd,ttSv,ttSa :
  .793E-04  .864E-04  .902E-04  .104E-03  .110E-03  .121E-03  .141E-03  .194E-03
  .213E-03  .283E-03  .362E-03  .487E-03  .681E-03  .950E-03  .108E-02  .112E-02
  .838E-03  .120E-02  .182E-02  .182E-02  .239E-02  .312E-02  .360E-02  .428E-02
  .581E-02  .603E-02  .914E-02  .212E-01  .163E-01  .142E-01  .105E-01  .885E-02
  .746E-02  .691E-02  .655E-02  .630E-02  .843E-02  .942E-02  .108E-01  .101E-01
  .880E-02  .789E-02  .778E-02  .785E-02  .885E-02  .732E-02  .726E-02  .710E-02
  .705E-02  .700E-02  .644E-02  .483E-02  .449E-02  .446E-02  .476E-02  .333E-02
  .418E-02  .410E-02  .385E-02  .427E-02  .380E-02  .545E-02  .595E-02  .447E-02
  .467E-02  .559E-02  .593E-02  .621E-02  .781E-02  .688E-02  .769E-02  .112E-01
  .135E-01  .128E-01  .119E-01  .127E-01  .125E-01  .117E-01  .149E-01  .190E-01
  .202E-01  .253E-01  .292E-01  .352E-01  .365E-01  .309E-01  .208E-01  .244E-01
  .274E-01  .250E-01  .237E-01  .211E-01  .154E-01  .144E-01  .151E-01  .164E-01
  .162E-01  .150E-01  .134E-01  .126E-01
  .330E-02  .509E-02  .516E-02  .418E-02  .522E-02  .529E-02  .877E-02  .197E-01
  .102E-01  .132E-01  .145E-01  .210E-01  .348E-01  .547E-01  .638E-01  .660E-01
  .382E-01  .548E-01  .757E-01  .674E-01  .766E-01  .107E+00  .120E+00  .140E+00
  .182E+00  .179E+00  .258E+00  .549E+00  .399E+00  .337E+00  .242E+00  .190E+00
  .156E+00  .138E+00  .128E+00  .118E+00  .135E+00  .154E+00  .159E+00  .151E+00
  .132E+00  .112E+00  .103E+00  .956E-01  .933E-01  .105E+00  .903E-01  .826E-01
  .811E-01  .822E-01  .820E-01  .835E-01  .811E-01  .765E-01  .764E-01  .704E-01
  .733E-01  .675E-01  .715E-01  .684E-01  .691E-01  .668E-01  .602E-01  .715E-01
  .639E-01  .662E-01  .733E-01  .713E-01  .669E-01  .609E-01  .613E-01  .667E-01
  .707E-01  .700E-01  .669E-01  .656E-01  .651E-01  .587E-01  .654E-01  .751E-01
  .780E-01  .773E-01  .753E-01  .720E-01  .678E-01  .639E-01  .601E-01  .611E-01
  .634E-01  .650E-01  .656E-01  .658E-01  .661E-01  .665E-01  .669E-01  .671E-01
  .671E-01  .669E-01  .666E-01  .663E-01
  .507E-02  .501E-02  .476E-02  .501E-02  .488E-02  .494E-02  .476E-02  .553E-02
  .516E-02  .592E-02  .659E-02  .780E-02  .966E-02  .120E-01  .123E-01  .114E-01
  .704E-02  .853E-02  .109E-01  .957E-02  .109E-01  .126E-01  .127E-01  .136E-01
  .165E-01  .155E-01  .193E-01  .376E-01  .247E-01  .186E-01  .120E-01  .886E-02
  .660E-02  .547E-02  .465E-02  .403E-02  .489E-02  .498E-02  .522E-02  .447E-02
  .361E-02  .267E-02  .222E-02  .190E-02  .185E-02  .133E-02  .116E-02  .101E-02
  .894E-03  .796E-03  .660E-03  .411E-03  .320E-03  .272E-03  .251E-03  .153E-03
  .170E-03  .148E-03  .123E-03  .123E-03  .986E-04  .118E-03  .109E-03  .676E-04
  .610E-04  .647E-04  .610E-04  .568E-04  .617E-04  .488E-04  .492E-04  .647E-04
  .713E-04  .620E-04  .528E-04  .519E-04  .424E-04  .335E-04  .379E-04  .414E-04
  .369E-04  .406E-04  .414E-04  .445E-04  .414E-04  .317E-04  .176E-04  .173E-04
  .166E-04  .131E-04  .108E-04  .847E-05  .496E-05  .377E-05  .341E-05  .313E-05
  .267E-05  .216E-05  .209E-05  .203E-05
  .124E-01  .129E-01  .129E-01  .142E-01  .144E-01  .152E-01  .161E-01  .203E-01
  .206E-01  .254E-01  .304E-01  .383E-01  .504E-01  .663E-01  .713E-01  .703E-01
  .479E-01  .630E-01  .878E-01  .819E-01  .100E+00  .123E+00  .133E+00  .150E+00
  .192E+00  .190E+00  .261E+00  .554E+00  .395E+00  .318E+00  .221E+00  .174E+00
  .138E+00  .121E+00  .108E+00  .990E-01  .126E+00  .134E+00  .147E+00  .132E+00
  .111E+00  .901E-01  .815E-01  .759E-01  .794E-01  .614E-01  .570E-01  .525E-01
  .492E-01  .463E-01  .404E-01  .276E-01  .235E-01  .216E-01  .214E-01  .140E-01
  .164E-01  .151E-01  .134E-01  .141E-01  .119E-01  .156E-01  .156E-01  .108E-01
  .105E-01  .117E-01  .116E-01  .115E-01  .136E-01  .114E-01  .121E-01  .167E-01
  .193E-01  .175E-01  .156E-01  .159E-01  .143E-01  .123E-01  .144E-01  .171E-01
  .169E-01  .198E-01  .216E-01  .246E-01  .241E-01  .194E-01  .119E-01  .128E-01
  .133E-01  .112E-01  .991E-02  .830E-02  .538E-02  .454E-02  .431E-02  .429E-02
  .392E-02  .337E-02  .281E-02  .248E-02
  .304E+02  .304E+02  .304E+02  .305E+02  .305E+02  .305E+02  .304E+02  .304E+02
  .305E+02  .305E+02  .304E+02  .304E+02  .305E+02  .305E+02  .310E+02  .307E+02
  .308E+02  .310E+02  .301E+02  .301E+02  .309E+02  .303E+02  .303E+02  .310E+02
  .313E+02  .305E+02  .307E+02  .325E+02  .311E+02  .311E+02  .321E+02  .308E+02
  .306E+02  .306E+02  .306E+02  .347E+02  .340E+02  .334E+02  .326E+02  .324E+02
  .325E+02  .318E+02  .313E+02  .346E+02  .325E+02  .325E+02  .323E+02  .323E+02
  .319E+02  .320E+02  .320E+02  .316E+02  .312E+02  .309E+02  .309E+02  .312E+02
  .309E+02  .309E+02  .312E+02  .309E+02  .312E+02  .309E+02  .305E+02  .200E+02
  .584E+02  .312E+02  .320E+02  .320E+02  .645E+02  .647E+02  .651E+02  .634E+02
  .579E+02  .497E+02  .500E+02  .502E+02  .509E+02  .416E+02  .312E+02  .320E+02
  .407E+02  .416E+02  .560E+02  .525E+02  .535E+02  .542E+02  .548E+02  .500E+02
  .506E+02  .460E+02  .464E+02  .465E+02  .404E+02  .420E+02  .361E+02  .361E+02
  .361E+02  .368E+02  .368E+02  .464E+02
  .100E+02  .102E+02  .103E+02  .978E+01  .981E+01  .310E+02  .939E+01  .960E+01
  .938E+01  .305E+02  .304E+02  .304E+02  .305E+02  .306E+02  .306E+02  .307E+02
  .307E+02  .311E+02  .304E+02  .302E+02  .310E+02  .303E+02  .303E+02  .311E+02
  .313E+02  .305E+02  .306E+02  .324E+02  .312E+02  .311E+02  .310E+02  .308E+02
  .307E+02  .306E+02  .306E+02  .306E+02  .334E+02  .333E+02  .325E+02  .325E+02
  .319E+02  .314E+02  .310E+02  .310E+02  .324E+02  .324E+02  .324E+02  .310E+02
  .310E+02  .310E+02  .310E+02  .310E+02  .310E+02  .310E+02  .310E+02  .310E+02
  .310E+02  .310E+02  .310E+02  .310E+02  .310E+02  .310E+02  .310E+02  .310E+02
  .310E+02  .310E+02  .310E+02  .310E+02  .310E+02  .310E+02  .310E+02  .310E+02
  .310E+02  .310E+02  .310E+02  .310E+02  .310E+02  .310E+02  .310E+02  .310E+02
  .310E+02  .310E+02  .310E+02  .310E+02  .310E+02  .310E+02  .310E+02  .310E+02
  .310E+02  .310E+02  .310E+02  .310E+02  .310E+02  .310E+02  .310E+02  .310E+02
  .310E+02  .310E+02  .310E+02  .310E+02
  .304E+02  .304E+02  .304E+02  .305E+02  .305E+02  .305E+02  .304E+02  .304E+02
  .305E+02  .305E+02  .304E+02  .304E+02  .305E+02  .305E+02  .310E+02  .307E+02
  .308E+02  .310E+02  .301E+02  .301E+02  .309E+02  .303E+02  .303E+02  .310E+02
  .313E+02  .305E+02  .307E+02  .325E+02  .311E+02  .311E+02  .321E+02  .308E+02
  .306E+02  .306E+02  .306E+02  .347E+02  .340E+02  .334E+02  .326E+02  .324E+02
  .324E+02  .318E+02  .313E+02  .346E+02  .324E+02  .325E+02  .323E+02  .323E+02
  .319E+02  .320E+02  .320E+02  .316E+02  .312E+02  .309E+02  .309E+02  .312E+02
  .309E+02  .309E+02  .312E+02  .309E+02  .312E+02  .309E+02  .305E+02  .200E+02
  .584E+02  .312E+02  .319E+02  .319E+02  .645E+02  .647E+02  .651E+02  .634E+02
  .579E+02  .497E+02  .499E+02  .502E+02  .508E+02  .416E+02  .310E+02  .319E+02
  .407E+02  .416E+02  .560E+02  .525E+02  .534E+02  .541E+02  .548E+02  .500E+02
  .505E+02  .459E+02  .463E+02  .465E+02  .403E+02  .420E+02  .360E+02  .360E+02
  .360E+02  .360E+02  .308E+02  .308E+02
Damping =  .05. Data of Sd,Sv,Sa,Pssv,ttSd,ttSv,ttSa :
  .754E-04  .829E-04  .881E-04  .983E-04  .108E-03  .117E-03  .141E-03  .185E-03
