Response and Fourier amplitude spectra (** periods,  .04 - 32.0 sec)   for      
Corrected accelerogram   89324-VAA6D-21355.06       Chan 13:  Up         from   
Uncorrected Accelerogram Data             Processed: 12/21/21, CGS  aa6de006    
Rcrd of Mon Dec 20, 2021 13:53:27.0 PST           (Avol1 v6.5,64b, 1/20; PC00)  
CSMIP Preliminary Processing            (Origin:  To be determined)             
89324-VAA6D-21355.06                 Start time: 12/20/21, 21:53:27.0 UTC (GPS) 
Station No. 89324   40.503N, 124.101W    130-MC  s/n AA6D (17 Chns of 17 at Sta)
Rio Dell - Hwy 101/Painter St. Overpass   CGS   Data: Acceleration              
Chan 13:  Up      (Sta Chn: 16)     Location: On Ground: Near East Abutment     
Rcrd of Mon Dec 20, 2021 13:53:27.0 PST    Mon Dec 20, 2021 13:53:27.0 PST      
Hypocenter:  To be determined.               ML:  To be determined.
Instr Period = 0.0008 sec,  Damping = 0.100,  Sensitivity = 1.61 v/g
                        Record Length = 65.610 sec.
                                     Uncor Max  =  0.004 g, at   30.380 sec.
RMS accel of (uncor) record  =        .   Chn. metadata effective date: 04/02/10
Accelerogram bandpass filtered with 3 dB pts at   .07 and 40.00 cyc/sec
                 instrument- and base-line correcte





Rcrd of Mon Dec 20, 2021 13:53:27.0 PST    Mon Dec 20, 2021 13:53:27.0 PST

89324-VAA6D-21355.06      Rio Dell - Hwy 101/Painter St. Overpass   Chan 13:  Up

89324-VAA6D-21355.06      Rio Dell - Hwy 101/Painter St. Overpass   Chan 13:  Up

Units for spectra are inches and sec, except Sa is in fraction of g.

   13  100   16   18   17  200    1    3    1   32  706 -999    089324    3    0
   21   53   27    0  354   12   20 2021   10    3  50013122   39   39   74   -1
13122    1  100    3 -999    1    6 -999 -999 -999 -999 -999 -999 -999 -999 -999
 -999 -999 -999 -999 6561    2  100    1   24  253 -999 -999    3    1 -999 6561
    3 6561    4  100    5   17    5    0    0 -999    0    0 -999 -999    1    2
    2    2    4    0   66   67    0    2 -999    0    0    1 4096 -999    0  222
    1 -999   14 -999
      .001      .100    65.610      .000     1.000  1614.000      .004    30.380
  1300.000     1.584      .981  -999.000     5.000  -999.000     4.000  -999.000
    10.000   995.638    10.000   312.000    30.400    29.995  -999.000      .001
     -.002     -.002     2.000    15.000    40.503  -124.101      .041      .058
     1.405     -.009      .004    43.000    30.398    35.609    13.300  -999.000
     1.000  -999.000    -8.000  -999.000  -999.000  -999.000  -999.000   120.000
     6.500     6.500     7.500   980.665      .010    65.610   206.901      .000
  -999.000    40.000  -999.000    65.610      .010      .067  -999.000  -999.000
    30.370     3.567    31.940      .122    34.440      .011      .000      .067
    40.000      .010      .010      .002      .010      .003  -999.000  -999.000
      .012      .140      .009      .005      .001      .000  -999.000  -999.000
  -999.000  -999.000  -999.000  -999.000  -999.000  -999.000  -999.000  -999.000
  -999.000  -999.000  -999.000  -999.000
      .000      .020      .050      .100      .200
      .040      .042      .044      .046      .048      .050      .055      .060
      .065      .070      .075      .080      .085      .090      .095      .100
      .110      .120      .130      .140      .150      .160      .170      .180
      .190      .200      .220      .240      .260      .280      .300      .320
      .340      .360      .380      .400      .420      .440      .460      .480
      .500      .550      .600      .650      .700      .750      .800      .850
      .900      .950     1.000     1.100     1.200     1.300     1.400     1.500
     1.600     1.700     1.800     1.900     2.000     2.200     2.400     2.600
     2.800     3.000     3.200     3.400     3.600     3.800     4.000     4.200
     4.400     4.600     4.800     5.000     5.500     6.000     6.500     7.000
     7.500     8.000     8.500     9.000     9.500    10.000    11.000    12.000
    13.000    14.000    15.000    16.000    18.000    20.000    22.000    24.000
    26.000    28.000    30.000    32.000
Fourier amplitude spectra in in/sec.
  .163E-01  .870E-02  .216E-01  .109E-01  .188E-01  .314E-01  .478E-01  .437E-01
  .215E-01  .399E-01  .948E-02  .400E-01  .108E+00  .798E-01  .202E+00  .141E+00
  .384E-01  .107E+00  .314E+00  .368E+00  .326E+00  .391E+00  .256E+00  .132E+00
  .363E-01  .307E+00  .517E+00  .229E+00  .274E+00  .117E+00  .177E+00  .106E+00
  .272E-01  .167E+00  .336E-01  .125E+00  .319E+00  .311E+00  .234E+00  .198E+00
  .211E+00  .116E+00  .689E-01  .756E-01  .961E-01  .749E-01  .774E-01  .366E-01
  .263E-01  .434E-01  .514E-01  .978E-02  .717E-02  .113E-01  .696E-02  .327E-02
  .150E-01  .111E-01  .532E-02  .940E-02  .142E-01  .758E-02  .499E-02  .661E-02
  .451E-02  .448E-02  .304E-02  .864E-02  .507E-02  .638E-02  .787E-02  .153E-01
  .969E-02  .128E-01  .395E-02  .118E-01  .625E-02  .184E-01  .409E-02  .935E-02
  .892E-02  .336E-02  .330E-02  .567E-02  .535E-02  .705E-02  .825E-02  .161E-02
  .473E-02  .672E-02  .571E-02  .448E-02  .504E-02  .494E-02  .372E-02  .238E-02
  .137E-02  .755E-03  .515E-03  .519E-03
Damping =  .00. Data of Sd,Sv,Sa,Pssv,ttSd,ttSv,ttSa :
  .149E-03  .111E-03  .221E-03  .186E-03  .294E-03  .259E-03  .440E-03  .479E-03
  .314E-03  .542E-03  .538E-03  .941E-03  .158E-02  .158E-02  .352E-02  .249E-02
  .212E-02  .311E-02  .667E-02  .832E-02  .781E-02  .101E-01  .764E-02  .389E-02
  .528E-02  .103E-01  .186E-01  .111E-01  .149E-01  .615E-02  .108E-01  .542E-02
  .364E-02  .115E-01  .903E-02  .845E-02  .219E-01  .222E-01  .182E-01  .158E-01
  .169E-01  .109E-01  .872E-02  .122E-01  .114E-01  .939E-02  .126E-01  .800E-02
  .836E-02  .810E-02  .874E-02  .496E-02  .451E-02  .434E-02  .452E-02  .442E-02
  .388E-02  .321E-02  .385E-02  .370E-02  .529E-02  .375E-02  .491E-02  .612E-02
  .367E-02  .340E-02  .715E-02  .590E-02  .448E-02  .559E-02  .724E-02  .102E-01
  .957E-02  .945E-02  .740E-02  .942E-02  .812E-02  .176E-01  .118E-01  .111E-01
  .124E-01  .831E-02  .661E-02  .880E-02  .810E-02  .112E-01  .144E-01  .111E-01
  .106E-01  .150E-01  .136E-01  .114E-01  .144E-01  .169E-01  .147E-01  .128E-01
  .953E-02  .709E-02  .613E-02  .615E-02
  .160E-01  .879E-02  .246E-01  .201E-01  .318E-01  .314E-01  .485E-01  .457E-01
  .297E-01  .441E-01  .382E-01  .637E-01  .111E+00  .104E+00  .228E+00  .145E+00
  .114E+00  .154E+00  .318E+00  .374E+00  .326E+00  .397E+00  .279E+00  .136E+00
  .158E+00  .322E+00  .527E+00  .295E+00  .366E+00  .138E+00  .230E+00  .106E+00
  .733E-01  .198E+00  .164E+00  .144E+00  .328E+00  .317E+00  .264E+00  .215E+00
  .212E+00  .142E+00  .111E+00  .124E+00  .105E+00  .101E+00  .102E+00  .816E-01
  .717E-01  .637E-01  .689E-01  .707E-01  .675E-01  .557E-01  .516E-01  .475E-01
  .472E-01  .513E-01  .477E-01  .533E-01  .469E-01  .429E-01  .531E-01  .550E-01
  .432E-01  .454E-01  .532E-01  .488E-01  .430E-01  .497E-01  .543E-01  .446E-01
  .452E-01  .437E-01  .522E-01  .509E-01  .472E-01  .573E-01  .480E-01  .404E-01
  .409E-01  .450E-01  .476E-01  .476E-01  .462E-01  .451E-01  .460E-01  .488E-01
  .501E-01  .497E-01  .485E-01  .474E-01  .467E-01  .473E-01  .479E-01  .484E-01
  .485E-01  .484E-01  .483E-01  .482E-01
  .952E-02  .642E-02  .117E-01  .899E-02  .130E-01  .106E-01  .149E-01  .136E-01
  .760E-02  .113E-01  .978E-02  .150E-01  .224E-01  .200E-01  .399E-01  .254E-01
  .179E-01  .221E-01  .404E-01  .434E-01  .355E-01  .403E-01  .270E-01  .123E-01
  .150E-01  .263E-01  .394E-01  .197E-01  .226E-01  .803E-02  .123E-01  .541E-02
  .322E-02  .904E-02  .640E-02  .540E-02  .127E-01  .117E-01  .880E-02  .703E-02
  .691E-02  .368E-02  .248E-02  .295E-02  .238E-02  .171E-02  .201E-02  .113E-02
  .106E-02  .918E-03  .894E-03  .419E-03  .320E-03  .263E-03  .236E-03  .201E-03
  .155E-03  .114E-03  .122E-03  .105E-03  .135E-03  .793E-04  .872E-04  .926E-04
  .479E-04  .387E-04  .714E-04  .522E-04  .354E-04  .396E-04  .463E-04  .594E-04
  .506E-04  .457E-04  .329E-04  .385E-04  .275E-04  .500E-04  .285E-04  .231E-04
  .226E-04  .133E-04  .935E-05  .111E-04  .917E-05  .115E-04  .122E-04  .786E-05
  .640E-05  .781E-05  .619E-05  .456E-05  .456E-05  .433E-05  .310E-05  .228E-05
  .144E-05  .925E-06  .696E-06  .614E-06
  .234E-01  .166E-01  .315E-01  .254E-01  .384E-01  .326E-01  .503E-01  .501E-01
  .303E-01  .486E-01  .451E-01  .739E-01  .117E+00  .110E+00  .233E+00  .156E+00
  .121E+00  .163E+00  .322E+00  .374E+00  .327E+00  .397E+00  .282E+00  .136E+00
  .175E+00  .323E+00  .532E+00  .290E+00  .361E+00  .138E+00  .227E+00  .106E+00
  .672E-01  .200E+00  .149E+00  .133E+00  .328E+00  .317E+00  .249E+00  .207E+00
  .212E+00  .124E+00  .913E-01  .118E+00  .102E+00  .787E-01  .990E-01  .591E-01
  .584E-01  .536E-01  .549E-01  .283E-01  .236E-01  .210E-01  .203E-01  .185E-01
  .152E-01  .119E-01  .134E-01  .122E-01  .166E-01  .107E-01  .129E-01  .148E-01
  .824E-02  .713E-02  .140E-01  .109E-01  .782E-02  .925E-02  .114E-01  .153E-01
  .137E-01  .129E-01  .969E-02  .118E-01  .928E-02  .184E-01  .114E-01  .995E-02
  .104E-01  .652E-02  .488E-02  .614E-02  .535E-02  .705E-02  .825E-02  .579E-02
  .512E-02  .672E-02  .571E-02  .448E-02  .504E-02  .531E-02  .420E-02  .336E-02
  .230E-02  .159E-02  .128E-02  .121E-02
  .304E+02  .304E+02  .304E+02  .304E+02  .304E+02  .607E+02  .306E+02  .320E+02
  .257E+02  .310E+02  .304E+02  .320E+02  .311E+02  .309E+02  .310E+02  .339E+02
  .304E+02  .315E+02  .353E+02  .406E+02  .580E+02  .532E+02  .336E+02  .365E+02
  .320E+02  .350E+02  .427E+02  .332E+02  .339E+02  .419E+02  .354E+02  .510E+02
  .326E+02  .387E+02  .337E+02  .337E+02  .447E+02  .541E+02  .328E+02  .324E+02
  .625E+02  .423E+02  .313E+02  .359E+02  .467E+02  .554E+02  .442E+02  .361E+02
  .320E+02  .320E+02  .405E+02  .311E+02  .320E+02  .359E+02  .348E+02  .309E+02
  .613E+02  .334E+02  .308E+02  .344E+02  .526E+02  .308E+02  .309E+02  .309E+02
  .385E+02  .540E+02  .308E+02  .573E+02  .311E+02  .320E+02  .309E+02  .655E+02
  .439E+02  .320E+02  .320E+02  .663E+02  .320E+02  .664E+02  .318E+02  .544E+02
  .602E+02  .432E+02  .365E+02  .605E+02  .662E+02  .817E+02  .692E+02  .384E+02
  .465E+02  .708E+02  .653E+02  .901E+02  .946E+02  .611E+02  .534E+02  .546E+02
  .547E+02  .547E+02  .547E+02  .547E+02
  .411E+02  .644E+02  .303E+02  .301E+02  .498E+02  .607E+02  .633E+02  .602E+02
  .257E+02  .310E+02  .310E+02  .320E+02  .311E+02  .307E+02  .310E+02  .339E+02
  .305E+02  .316E+02  .414E+02  .407E+02  .580E+02  .532E+02  .336E+02  .368E+02
  .320E+02  .350E+02  .426E+02  .325E+02  .338E+02  .419E+02  .355E+02  .511E+02
  .325E+02  .386E+02  .336E+02  .336E+02  .446E+02  .540E+02  .331E+02  .328E+02
  .623E+02  .319E+02  .315E+02  .351E+02  .333E+02  .324E+02  .444E+02  .321E+02
  .335E+02  .321E+02  .319E+02  .319E+02  .319E+02  .319E+02  .319E+02  .319E+02
  .319E+02  .319E+02  .319E+02  .319E+02  .310E+02  .319E+02  .319E+02  .319E+02
  .319E+02  .319E+02  .319E+02  .319E+02  .319E+02  .319E+02  .319E+02  .319E+02
  .320E+02  .304E+02  .319E+02  .319E+02  .319E+02  .319E+02  .319E+02  .320E+02
  .319E+02  .319E+02  .319E+02  .319E+02  .319E+02  .319E+02  .319E+02  .319E+02
  .319E+02  .319E+02  .319E+02  .319E+02  .319E+02  .319E+02  .319E+02  .319E+02
  .319E+02  .319E+02  .319E+02  .319E+02
  .304E+02  .304E+02  .304E+02  .304E+02  .304E+02  .607E+02  .306E+02  .320E+02
  .257E+02  .310E+02  .304E+02  .320E+02  .311E+02  .309E+02  .310E+02  .339E+02
  .304E+02  .315E+02  .353E+02  .406E+02  .580E+02  .532E+02  .336E+02  .365E+02
  .320E+02  .350E+02  .427E+02  .332E+02  .339E+02  .419E+02  .354E+02  .510E+02
  .326E+02  .387E+02  .337E+02  .337E+02  .447E+02  .541E+02  .328E+02  .324E+02
  .625E+02  .423E+02  .313E+02  .359E+02  .467E+02  .554E+02  .442E+02  .361E+02
  .320E+02  .320E+02  .405E+02  .311E+02  .320E+02  .359E+02  .348E+02  .309E+02
  .613E+02  .334E+02  .308E+02  .344E+02  .526E+02  .308E+02  .309E+02  .309E+02
  .385E+02  .540E+02  .308E+02  .573E+02  .311E+02  .320E+02  .309E+02  .655E+02
  .439E+02  .320E+02  .320E+02  .663E+02  .320E+02  .664E+02  .318E+02  .544E+02
  .602E+02  .432E+02  .365E+02  .605E+02  .662E+02  .817E+02  .692E+02  .384E+02
  .465E+02  .708E+02  .653E+02  .901E+02  .946E+02  .611E+02  .534E+02  .546E+02
  .547E+02  .547E+02  .547E+02  .547E+02
Damping =  .02. Data of Sd,Sv,Sa,Pssv,ttSd,ttSv,ttSa :
  .742E-04  .919E-04  .109E-03  .113E-03  .123E-03  .124E-03  .141E-03  .226E-03
  .275E-03  .244E-03  .402E-03  .559E-03  .822E-03  .802E-03  .913E-03  .148E-02
  .156E-02  .190E-02  .291E-02  .322E-02  .292E-02  .380E-02  .376E-02  .260E-02
  .361E-02  .461E-02  .779E-02  .816E-02  .964E-02  .461E-02  .591E-02  .398E-02
  .331E-02  .573E-02  .697E-02  .762E-02  .114E-01  .123E-01  .125E-01  .123E-01
  .110E-01  .950E-02  .821E-02  .765E-02  .816E-02  .765E-02  .741E-02  .670E-02
  .724E-02  .714E-02  .706E-02  .486E-02  .424E-02  .399E-02  .396E-02  .402E-02
  .361E-02  .327E-02  .361E-02  .283E-02  .357E-02  .366E-02  .456E-02  .451E-02
  .281E-02  .302E-02  .529E-02  .340E-02  .372E-02  .436E-02  .524E-02  .546E-02
  .635E-02  .661E-02  .598E-02  .603E-02  .644E-02  .103E-01  .904E-02  .819E-02
  .826E-02  .650E-02  .565E-02  .721E-02  .717E-02  .914E-02  .107E-01  .943E-02
  .867E-02  .121E-01  .119E-01  .107E-01  .126E-01  .147E-01  .133E-01  .118E-01
  .931E-02  .726E-02  .634E-02  .623E-02
  .493E-02  .595E-02  .663E-02  .688E-02  .805E-02  .779E-02  .973E-02  .127E-01
  .175E-01  .159E-01  .232E-01  .360E-01  .534E-01  .530E-01  .558E-01  .868E-01
  .816E-01  .897E-01  .139E+00  .147E+00  .121E+00  .148E+00  .146E+00  .855E-01
  .117E+00  .141E+00  .224E+00  .214E+00  .242E+00  .111E+00  .131E+00  .832E-01
  .699E-01  .105E+00  .129E+00  .131E+00  .182E+00  .182E+00  .186E+00  .175E+00
  .153E+00  .127E+00  .103E+00  .888E-01  .828E-01  .891E-01  .874E-01  .783E-01
  .685E-01  .593E-01  .646E-01  .678E-01  .629E-01  .563E-01  .514E-01  .487E-01
  .482E-01  .486E-01  .475E-01  .487E-01  .441E-01  .437E-01  .491E-01  .508E-01
  .460E-01  .466E-01  .505E-01  .487E-01  .452E-01  .489E-01  .509E-01  .453E-01
  .407E-01  .442E-01  .493E-01  .493E-01  .481E-01  .543E-01  .481E-01  .420E-01
  .421E-01  .449E-01  .469E-01  .471E-01  .462E-01  .455E-01  .462E-01  .484E-01
  .496E-01  .493E-01  .484E-01  .475E-01  .469E-01  .473E-01  .479E-01  .482E-01
  .484E-01  .484E-01  .483E-01  .481E-01
  .475E-02  .533E-02  .573E-02  .543E-02  .546E-02  .509E-02  .476E-02  .639E-02
  .666E-02  .509E-02  .729E-02  .893E-02  .117E-01  .101E-01  .104E-01  .153E-01
  .132E-01  .136E-01  .177E-01  .169E-01  .133E-01  .153E-01  .133E-01  .817E-02
  .103E-01  .118E-01  .165E-01  .146E-01  .146E-01  .600E-02  .673E-02  .399E-02
  .293E-02  .452E-02  .493E-02  .487E-02  .663E-02  .652E-02  .606E-02  .546E-02
  .451E-02  .322E-02  .234E-02  .185E-02  .171E-02  .139E-02  .118E-02  .949E-03
  .916E-03  .813E-03  .724E-03  .412E-03  .303E-03  .243E-03  .208E-03  .184E-03
  .146E-03  .117E-03  .115E-03  .815E-04  .926E-04  .787E-04  .828E-04  .699E-04
  .383E-04  .359E-04  .542E-04  .301E-04  .294E-04  .322E-04  .349E-04  .318E-04
  .353E-04  .341E-04  .288E-04  .247E-04  .232E-04  .293E-04  .228E-04  .176E-04
  .154E-04  .119E-04  .967E-05  .913E-05  .813E-05  .936E-05  .904E-05  .769E-05
  .531E-05  .633E-05  .541E-05  .427E-05  .399E-05  .379E-05  .284E-05  .213E-05
  .168E-05  .138E-05  .117E-05  .102E-05
  .117E-01  .138E-01  .155E-01  .154E-01  .161E-01  .156E-01  .161E-01  .236E-01
  .265E-01  .219E-01  .337E-01  .439E-01  .607E-01  .560E-01  .604E-01  .932E-01
  .893E-01  .997E-01  .141E+00  .145E+00  .122E+00  .149E+00  .139E+00  .908E-01
  .119E+00  .145E+00  .223E+00  .214E+00  .233E+00  .103E+00  .124E+00  .781E-01
  .612E-01  .100E+00  .115E+00  .120E+00  .171E+00  .176E+00  .171E+00  .161E+00
  .138E+00  .109E+00  .860E-01  .739E-01  .732E-01  .641E-01  .582E-01  .495E-01
  .505E-01  .473E-01  .443E-01  .278E-01  .222E-01  .193E-01  .178E-01  .168E-01
  .142E-01  .121E-01  .126E-01  .935E-02  .112E-01  .105E-01  .119E-01  .109E-01
  .630E-02  .632E-02  .104E-01  .629E-02  .649E-02  .721E-02  .823E-02  .817E-02
  .906E-02  .902E-02  .783E-02  .757E-02  .735E-02  .108E-01  .873E-02  .735E-02
  .692E-02  .511E-02  .418E-02  .503E-02  .474E-02  .574E-02  .610E-02  .494E-02
  .419E-02  .543E-02  .498E-02  .419E-02  .439E-02  .463E-02  .380E-02  .310E-02
  .225E-02  .163E-02  .133E-02  .122E-02
  .304E+02  .304E+02  .304E+02  .304E+02  .304E+02  .304E+02  .306E+02  .304E+02
  .304E+02  .304E+02  .304E+02  .304E+02  .306E+02  .307E+02  .307E+02  .315E+02
  .304E+02  .304E+02  .307E+02  .308E+02  .309E+02  .318E+02  .307E+02  .337E+02
  .338E+02  .332E+02  .325E+02  .322E+02  .322E+02  .321E+02  .338E+02  .336E+02
  .336E+02  .336E+02  .337E+02  .335E+02  .335E+02  .334E+02  .328E+02  .324E+02
  .320E+02  .315E+02  .313E+02  .313E+02  .324E+02  .322E+02  .323E+02  .323E+02
  .320E+02  .320E+02  .320E+02  .311E+02  .311E+02  .311E+02  .308E+02  .308E+02
  .308E+02  .308E+02  .308E+02  .311E+02  .308E+02  .308E+02  .308E+02  .309E+02
  .308E+02  .308E+02  .308E+02  .201E+02  .204E+02  .308E+02  .309E+02  .404E+02
  .306E+02  .320E+02  .320E+02  .141E+02  .526E+02  .542E+02  .318E+02  .294E+02
  .601E+02  .311E+02  .365E+02  .604E+02  .662E+02  .668E+02  .637E+02  .384E+02
  .465E+02  .639E+02  .651E+02  .659E+02  .590E+02  .610E+02  .534E+02  .546E+02
  .547E+02  .547E+02  .547E+02  .547E+02
  .303E+02  .304E+02  .304E+02  .306E+02  .306E+02  .304E+02  .303E+02  .303E+02
  .306E+02  .304E+02  .301E+02  .304E+02  .306E+02  .307E+02  .307E+02  .312E+02
  .304E+02  .304E+02  .307E+02  .307E+02  .307E+02  .317E+02  .306E+02  .336E+02
  .337E+02  .332E+02  .325E+02  .322E+02  .321E+02  .322E+02  .338E+02  .337E+02
  .337E+02  .337E+02  .336E+02  .336E+02  .335E+02  .335E+02  .325E+02  .320E+02
  .321E+02  .319E+02  .315E+02  .335E+02  .333E+02  .324E+02  .320E+02  .321E+02
  .321E+02  .319E+02  .319E+02  .319E+02  .319E+02  .319E+02  .319E+02  .319E+02
  .319E+02  .319E+02  .319E+02  .319E+02  .319E+02  .319E+02  .319E+02  .319E+02
  .319E+02  .319E+02  .319E+02  .319E+02  .319E+02  .319E+02  .319E+02  .319E+02
  .320E+02  .319E+02  .319E+02  .319E+02  .319E+02  .319E+02  .319E+02  .319E+02
  .319E+02  .319E+02  .319E+02  .319E+02  .319E+02  .319E+02  .319E+02  .319E+02
  .319E+02  .319E+02  .319E+02  .319E+02  .319E+02  .319E+02  .319E+02  .319E+02
  .319E+02  .319E+02  .319E+02  .319E+02
  .304E+02  .304E+02  .304E+02  .304E+02  .304E+02  .304E+02  .306E+02  .304E+02
  .304E+02  .304E+02  .304E+02  .304E+02  .306E+02  .307E+02  .307E+02  .315E+02
  .304E+02  .304E+02  .307E+02  .308E+02  .309E+02  .318E+02  .307E+02  .337E+02
  .338E+02  .332E+02  .325E+02  .322E+02  .322E+02  .321E+02  .338E+02  .336E+02
  .336E+02  .336E+02  .337E+02  .335E+02  .335E+02  .334E+02  .328E+02  .324E+02
  .320E+02  .315E+02  .313E+02  .313E+02  .324E+02  .322E+02  .322E+02  .323E+02
  .320E+02  .320E+02  .320E+02  .311E+02  .311E+02  .311E+02  .308E+02  .308E+02
  .308E+02  .308E+02  .308E+02  .311E+02  .308E+02  .308E+02  .308E+02  .308E+02
  .320E+02  .320E+02  .308E+02  .201E+02  .204E+02  .308E+02  .308E+02  .404E+02
  .306E+02  .320E+02  .320E+02  .140E+02  .320E+02  .541E+02  .318E+02  .294E+02
  .306E+02  .319E+02  .319E+02  .604E+02  .661E+02  .668E+02  .635E+02  .319E+02
  .460E+02  .639E+02  .650E+02  .658E+02  .590E+02  .608E+02  .531E+02  .545E+02
  .319E+02  .319E+02  .319E+02  .319E+02
Damping =  .05. Data of Sd,Sv,Sa,Pssv,ttSd,ttSv,ttSa :
  .725E-04  .857E-04  .986E-04  .107E-03  .115E-03  .119E-03  .132E-03  .202E-03
