Response and Fourier amplitude spectra (** periods,  .04 - 32.0 sec)   for      
Corrected accelerogram   89324-VAA6D-21355.06       Chan 11:  Long       from   
Uncorrected Accelerogram Data             Processed: 12/21/21, CGS  aa6de006    
Rcrd of Mon Dec 20, 2021 13:53:27.0 PST           (Avol1 v6.5,64b, 1/20; PC00)  
CSMIP Preliminary Processing            (Origin:  To be determined)             
89324-VAA6D-21355.06                 Start time: 12/20/21, 21:53:27.0 UTC (GPS) 
Station No. 89324   40.503N, 124.101W    130-MC  s/n AA6D (17 Chns of 17 at Sta)
Rio Dell - Hwy 101/Painter St. Overpass   CGS   Data: Acceleration              
Chan 11:  Long                      Location: Deck: Near East Abutment          
Rcrd of Mon Dec 20, 2021 13:53:27.0 PST    Mon Dec 20, 2021 13:53:27.0 PST      
Hypocenter:  To be determined.               ML:  To be determined.
Instr Period = 0.0008 sec,  Damping = 0.100,  Sensitivity = 1.65 v/g
                        Record Length = 65.610 sec.
                                     Uncor Max  =  0.015 g, at   30.030 sec.
RMS accel of (uncor) record  =        .   Chn. metadata effective date: 04/02/10
Accelerogram bandpass filtered with 3 dB pts at   .07 and 40.00 cyc/sec
                 instrument- and base-line correcte





Rcrd of Mon Dec 20, 2021 13:53:27.0 PST    Mon Dec 20, 2021 13:53:27.0 PST

89324-VAA6D-21355.06      Rio Dell - Hwy 101/Painter St. Overpass   Chan 11:  Lo
ng
89324-VAA6D-21355.06      Rio Dell - Hwy 101/Painter St. Overpass   Chan 11:  Lo
ng
Units for spectra are inches and sec, except Sa is in fraction of g.

   11  100   11   18   17  200    1    3    1   32  706 -999    089324    3    0
   21   53   27    0  354   12   20 2021   10    3  80013122   39   39   74   -1
13122    0  100    3 -999    1    6 -999 -999 -999 -999 -999 -999 -999 -999 -999
 -999 -999 -999 -999 6561    2  100    1   24  253 -999 -999    3    1 -999 6561
    3 6561    4  100    5   17    5    0    0 -999    0    0 -999 -999    1    2
    2    2    4    0   66   67    0    2 -999    0    0    1 4096 -999    0  222
    1 -999   12 -999
      .001      .100    65.610      .001     1.000  1646.000      .015    30.030
  1300.000     1.584      .962  -999.000     5.000  -999.000     4.000  -999.000
    10.000    18.132    10.000   312.000    30.400    29.995  -999.000     -.003
      .003      .006     2.000    15.000    40.503  -124.101      .030      .040
     1.316      .001      .011    43.000    30.398    35.609    13.300  -999.000
     1.000  -999.000    -8.000  -999.000  -999.000  -999.000  -999.000   120.000
     6.500     6.500     7.500   980.665      .010    65.610   206.901      .000
  -999.000    40.000  -999.000    65.610      .010      .067  -999.000  -999.000
    30.030    14.440    30.080      .413    30.030     -.024      .001      .067
    40.000      .010      .010     -.003      .010      .007  -999.000  -999.000
      .058      .170      .048      .023      .001      .000  -999.000  -999.000
  -999.000  -999.000  -999.000  -999.000  -999.000  -999.000  -999.000  -999.000
  -999.000  -999.000  -999.000  -999.000
      .000      .020      .050      .100      .200
      .040      .042      .044      .046      .048      .050      .055      .060
      .065      .070      .075      .080      .085      .090      .095      .100
      .110      .120      .130      .140      .150      .160      .170      .180
      .190      .200      .220      .240      .260      .280      .300      .320
      .340      .360      .380      .400      .420      .440      .460      .480
      .500      .550      .600      .650      .700      .750      .800      .850
      .900      .950     1.000     1.100     1.200     1.300     1.400     1.500
     1.600     1.700     1.800     1.900     2.000     2.200     2.400     2.600
     2.800     3.000     3.200     3.400     3.600     3.800     4.000     4.200
     4.400     4.600     4.800     5.000     5.500     6.000     6.500     7.000
     7.500     8.000     8.500     9.000     9.500    10.000    11.000    12.000
    13.000    14.000    15.000    16.000    18.000    20.000    22.000    24.000
    26.000    28.000    30.000    32.000
Fourier amplitude spectra in in/sec.
  .112E-01  .571E-02  .194E-02  .142E-01  .156E-01  .188E-01  .967E-02  .237E-01
  .278E-01  .158E-01  .284E-01  .250E-01  .314E-01  .632E-01  .121E+00  .134E+00
  .335E+00  .345E+00  .315E+00  .502E+00  .488E+00  .110E+01  .102E+01  .782E+00
  .465E+00  .563E+00  .140E+01  .158E+01  .921E+00  .856E+00  .448E+00  .157E+00
  .456E+00  .976E+00  .497E+00  .416E+00  .640E-01  .531E+00  .242E+00  .395E+00
  .388E+00  .123E+00  .271E+00  .986E-01  .845E-01  .155E+00  .116E+00  .104E+00
  .229E-01  .682E-01  .276E-01  .601E-01  .242E-01  .572E-01  .543E-01  .216E-01
  .123E-01  .822E-02  .155E-01  .250E-01  .589E-02  .153E-01  .547E-02  .777E-02
  .940E-02  .119E-01  .786E-02  .121E-01  .669E-02  .583E-02  .167E-01  .750E-02
  .103E-01  .509E-02  .146E-01  .105E-01  .129E-01  .834E-02  .172E-01  .416E-02
  .825E-02  .109E-01  .111E-01  .909E-02  .830E-02  .537E-02  .349E-02  .618E-02
  .514E-02  .414E-02  .303E-02  .166E-02  .193E-02  .258E-02  .202E-02  .107E-02
  .493E-03  .880E-03  .129E-02  .153E-02
Damping =  .00. Data of Sd,Sv,Sa,Pssv,ttSd,ttSv,ttSa :
  .239E-03  .283E-03  .298E-03  .326E-03  .353E-03  .408E-03  .509E-03  .776E-03
  .906E-03  .934E-03  .124E-02  .127E-02  .170E-02  .235E-02  .321E-02  .388E-02
  .640E-02  .780E-02  .871E-02  .122E-01  .145E-01  .290E-01  .301E-01  .275E-01
  .281E-01  .321E-01  .509E-01  .748E-01  .456E-01  .490E-01  .302E-01  .307E-01
  .312E-01  .578E-01  .388E-01  .436E-01  .307E-01  .414E-01  .301E-01  .345E-01
  .309E-01  .234E-01  .341E-01  .217E-01  .191E-01  .196E-01  .198E-01  .163E-01
  .161E-01  .153E-01  .153E-01  .147E-01  .128E-01  .143E-01  .125E-01  .118E-01
  .118E-01  .118E-01  .115E-01  .118E-01  .129E-01  .123E-01  .123E-01  .121E-01
  .132E-01  .136E-01  .995E-02  .129E-01  .158E-01  .971E-02  .117E-01  .180E-01
  .151E-01  .101E-01  .112E-01  .139E-01  .146E-01  .182E-01  .182E-01  .131E-01
  .171E-01  .230E-01  .184E-01  .174E-01  .162E-01  .162E-01  .134E-01  .182E-01
  .151E-01  .120E-01  .109E-01  .116E-01  .101E-01  .129E-01  .130E-01  .114E-01
  .104E-01  .112E-01  .130E-01  .142E-01
  .112E-01  .130E-01  .131E-01  .159E-01  .220E-01  .265E-01  .202E-01  .512E-01
  .480E-01  .336E-01  .593E-01  .508E-01  .986E-01  .117E+00  .162E+00  .223E+00
  .345E+00  .392E+00  .413E+00  .511E+00  .577E+00  .112E+01  .110E+01  .943E+00
  .908E+00  .994E+00  .144E+01  .195E+01  .111E+01  .113E+01  .664E+00  .652E+00
  .651E+00  .101E+01  .654E+00  .709E+00  .500E+00  .602E+00  .454E+00  .452E+00
  .401E+00  .325E+00  .364E+00  .288E+00  .268E+00  .243E+00  .230E+00  .220E+00
  .215E+00  .207E+00  .206E+00  .199E+00  .185E+00  .193E+00  .185E+00  .180E+00
  .181E+00  .178E+00  .177E+00  .179E+00  .168E+00  .174E+00  .167E+00  .170E+00
  .174E+00  .164E+00  .166E+00  .173E+00  .164E+00  .162E+00  .172E+00  .167E+00
  .160E+00  .161E+00  .166E+00  .166E+00  .164E+00  .159E+00  .162E+00  .165E+00
  .168E+00  .160E+00  .164E+00  .163E+00  .158E+00  .163E+00  .165E+00  .161E+00
  .159E+00  .159E+00  .160E+00  .161E+00  .162E+00  .161E+00  .161E+00  .160E+00
  .160E+00  .160E+00  .161E+00  .161E+00
  .152E-01  .164E-01  .157E-01  .158E-01  .157E-01  .167E-01  .172E-01  .220E-01
  .219E-01  .195E-01  .225E-01  .203E-01  .240E-01  .297E-01  .364E-01  .397E-01
  .541E-01  .554E-01  .527E-01  .639E-01  .657E-01  .116E+00  .106E+00  .869E-01
  .797E-01  .822E-01  .107E+00  .133E+00  .689E-01  .639E-01  .343E-01  .307E-01
  .276E-01  .456E-01  .275E-01  .278E-01  .178E-01  .219E-01  .145E-01  .153E-01
  .126E-01  .793E-02  .967E-02  .526E-02  .398E-02  .357E-02  .317E-02  .231E-02
  .203E-02  .174E-02  .157E-02  .124E-02  .909E-03  .868E-03  .655E-03  .537E-03
  .471E-03  .416E-03  .364E-03  .336E-03  .330E-03  .261E-03  .219E-03  .184E-03
  .173E-03  .155E-03  .993E-04  .114E-03  .125E-03  .687E-04  .748E-04  .104E-03
  .797E-04  .488E-04  .495E-04  .568E-04  .492E-04  .517E-04  .441E-04  .273E-04
  .312E-04  .368E-04  .260E-04  .219E-04  .183E-04  .166E-04  .113E-04  .129E-04
  .914E-05  .626E-05  .496E-05  .462E-05  .320E-05  .329E-05  .275E-05  .203E-05
  .157E-05  .146E-05  .148E-05  .142E-05
  .375E-01  .423E-01  .426E-01  .446E-01  .463E-01  .513E-01  .581E-01  .812E-01
  .876E-01  .838E-01  .104E+00  .998E-01  .126E+00  .164E+00  .213E+00  .244E+00
  .365E+00  .408E+00  .421E+00  .550E+00  .605E+00  .114E+01  .111E+01  .961E+00
  .931E+00  .101E+01  .145E+01  .196E+01  .110E+01  .110E+01  .633E+00  .603E+00
  .577E+00  .101E+01  .641E+00  .684E+00  .459E+00  .592E+00  .411E+00  .451E+00
  .388E+00  .268E+00  .357E+00  .210E+00  .171E+00  .164E+00  .156E+00  .121E+00
  .112E+00  .101E+00  .962E-01  .841E-01  .670E-01  .693E-01  .563E-01  .495E-01
  .463E-01  .435E-01  .403E-01  .392E-01  .405E-01  .353E-01  .323E-01  .293E-01
  .297E-01  .285E-01  .195E-01  .239E-01  .276E-01  .160E-01  .184E-01  .269E-01
  .215E-01  .138E-01  .146E-01  .175E-01  .166E-01  .191E-01  .176E-01  .117E-01
  .144E-01  .181E-01  .136E-01  .121E-01  .107E-01  .102E-01  .764E-02  .954E-02
  .730E-02  .538E-02  .457E-02  .454E-02  .354E-02  .404E-02  .372E-02  .299E-02
  .251E-02  .251E-02  .272E-02  .280E-02
  .300E+02  .300E+02  .300E+02  .300E+02  .300E+02  .300E+02  .300E+02  .303E+02
  .300E+02  .300E+02  .300E+02  .300E+02  .303E+02  .303E+02  .300E+02  .306E+02
  .341E+02  .331E+02  .335E+02  .303E+02  .303E+02  .341E+02  .346E+02  .310E+02
  .305E+02  .306E+02  .379E+02  .342E+02  .386E+02  .332E+02  .339E+02  .308E+02
  .307E+02  .516E+02  .334E+02  .351E+02  .312E+02  .368E+02  .331E+02  .366E+02
  .635E+02  .304E+02  .341E+02  .318E+02  .319E+02  .553E+02  .365E+02  .303E+02
  .303E+02  .303E+02  .303E+02  .303E+02  .303E+02  .303E+02  .604E+02  .300E+02
  .303E+02  .300E+02  .303E+02  .303E+02  .300E+02  .300E+02  .300E+02  .300E+02
  .300E+02  .300E+02  .300E+02  .300E+02  .300E+02  .300E+02  .300E+02  .300E+02
  .300E+02  .300E+02  .736E+02  .300E+02  .300E+02  .300E+02  .607E+02  .303E+02
  .300E+02  .300E+02  .360E+02  .324E+02  .303E+02  .303E+02  .300E+02  .300E+02
  .300E+02  .341E+02  .303E+02  .303E+02  .300E+02  .300E+02  .300E+02  .300E+02
  .341E+02  .303E+02  .303E+02  .303E+02
  .640E+02  .306E+02  .302E+02  .306E+02  .306E+02  .306E+02  .301E+02  .303E+02
  .300E+02  .302E+02  .306E+02  .302E+02  .302E+02  .302E+02  .302E+02  .306E+02
  .341E+02  .331E+02  .335E+02  .385E+02  .303E+02  .349E+02  .346E+02  .306E+02
  .305E+02  .305E+02  .379E+02  .343E+02  .385E+02  .332E+02  .311E+02  .309E+02
  .307E+02  .518E+02  .333E+02  .346E+02  .306E+02  .369E+02  .341E+02  .367E+02
  .345E+02  .303E+02  .360E+02  .303E+02  .303E+02  .303E+02  .301E+02  .301E+02
  .301E+02  .301E+02  .301E+02  .301E+02  .301E+02  .301E+02  .301E+02  .301E+02
  .301E+02  .301E+02  .301E+02  .301E+02  .301E+02  .301E+02  .301E+02  .301E+02
  .301E+02  .301E+02  .301E+02  .301E+02  .301E+02  .301E+02  .301E+02  .301E+02
  .300E+02  .301E+02  .301E+02  .301E+02  .301E+02  .301E+02  .300E+02  .301E+02
  .301E+02  .301E+02  .300E+02  .300E+02  .301E+02  .301E+02  .301E+02  .301E+02
  .301E+02  .301E+02  .301E+02  .301E+02  .301E+02  .301E+02  .301E+02  .301E+02
  .301E+02  .301E+02  .301E+02  .301E+02
  .300E+02  .300E+02  .300E+02  .300E+02  .300E+02  .300E+02  .300E+02  .303E+02
  .300E+02  .300E+02  .300E+02  .300E+02  .303E+02  .303E+02  .300E+02  .306E+02
  .341E+02  .331E+02  .335E+02  .303E+02  .303E+02  .341E+02  .346E+02  .310E+02
  .305E+02  .306E+02  .379E+02  .342E+02  .386E+02  .332E+02  .339E+02  .308E+02
  .307E+02  .516E+02  .334E+02  .351E+02  .312E+02  .368E+02  .331E+02  .366E+02
  .635E+02  .304E+02  .341E+02  .318E+02  .319E+02  .553E+02  .365E+02  .303E+02
  .303E+02  .303E+02  .303E+02  .303E+02  .303E+02  .303E+02  .604E+02  .300E+02
  .303E+02  .300E+02  .303E+02  .303E+02  .300E+02  .300E+02  .300E+02  .300E+02
  .300E+02  .300E+02  .300E+02  .300E+02  .300E+02  .300E+02  .300E+02  .300E+02
  .300E+02  .300E+02  .736E+02  .300E+02  .300E+02  .300E+02  .607E+02  .303E+02
  .300E+02  .300E+02  .360E+02  .324E+02  .303E+02  .303E+02  .300E+02  .300E+02
  .300E+02  .341E+02  .303E+02  .303E+02  .300E+02  .300E+02  .300E+02  .300E+02
  .341E+02  .303E+02  .303E+02  .303E+02
Damping =  .02. Data of Sd,Sv,Sa,Pssv,ttSd,ttSv,ttSa :
  .239E-03  .266E-03  .294E-03  .321E-03  .349E-03  .386E-03  .492E-03  .607E-03
  .762E-03  .953E-03  .114E-02  .130E-02  .152E-02  .202E-02  .254E-02  .302E-02
  .533E-02  .483E-02  .599E-02  .968E-02  .129E-01  .172E-01  .203E-01  .228E-01
  .237E-01  .247E-01  .289E-01  .369E-01  .277E-01  .251E-01  .238E-01  .262E-01
  .270E-01  .283E-01  .265E-01  .260E-01  .259E-01  .252E-01  .239E-01  .236E-01
  .236E-01  .222E-01  .210E-01  .173E-01  .163E-01  .156E-01  .158E-01  .156E-01
  .154E-01  .150E-01  .148E-01  .142E-01  .130E-01  .135E-01  .123E-01  .117E-01
  .117E-01  .113E-01  .112E-01  .113E-01  .117E-01  .119E-01  .121E-01  .118E-01
  .128E-01  .130E-01  .110E-01  .128E-01  .142E-01  .113E-01  .124E-01  .157E-01
  .143E-01  .116E-01  .118E-01  .134E-01  .146E-01  .164E-01  .118E-01  .104E-01
  .158E-01  .199E-01  .156E-01  .143E-01  .135E-01  .139E-01  .126E-01  .166E-01
  .145E-01  .107E-01  .100E-01  .107E-01  .101E-01  .124E-01  .126E-01  .111E-01
  .986E-02  .110E-01  .127E-01  .136E-01
  .986E-02  .115E-01  .121E-01  .129E-01  .163E-01  .161E-01  .225E-01  .238E-01
  .271E-01  .322E-01  .443E-01  .518E-01  .742E-01  .940E-01  .111E+00  .160E+00
  .266E+00  .235E+00  .272E+00  .380E+00  .498E+00  .655E+00  .739E+00  .754E+00
  .768E+00  .779E+00  .791E+00  .967E+00  .689E+00  .604E+00  .544E+00  .567E+00
  .562E+00  .506E+00  .526E+00  .506E+00  .458E+00  .426E+00  .404E+00  .369E+00
  .335E+00  .314E+00  .301E+00  .280E+00  .261E+00  .241E+00  .225E+00  .218E+00
  .213E+00  .207E+00  .205E+00  .199E+00  .189E+00  .190E+00  .185E+00  .181E+00
  .181E+00  .178E+00  .177E+00  .178E+00  .173E+00  .175E+00  .170E+00  .171E+00
  .172E+00  .166E+00  .167E+00  .170E+00  .165E+00  .164E+00  .169E+00  .167E+00
  .162E+00  .162E+00  .165E+00  .165E+00  .164E+00  .160E+00  .159E+00  .164E+00
  .166E+00  .160E+00  .161E+00  .161E+00  .159E+00  .163E+00  .164E+00  .162E+00
  .159E+00  .159E+00  .160E+00  .161E+00  .162E+00  .162E+00  .161E+00  .161E+00
  .160E+00  .161E+00  .161E+00  .161E+00
  .153E-01  .154E-01  .155E-01  .155E-01  .155E-01  .158E-01  .167E-01  .173E-01
  .184E-01  .199E-01  .207E-01  .207E-01  .215E-01  .256E-01  .288E-01  .311E-01
  .452E-01  .345E-01  .361E-01  .508E-01  .587E-01  .685E-01  .718E-01  .721E-01
  .672E-01  .634E-01  .611E-01  .654E-01  .419E-01  .328E-01  .270E-01  .262E-01
  .239E-01  .223E-01  .188E-01  .166E-01  .151E-01  .133E-01  .115E-01  .105E-01
  .969E-02  .752E-02  .596E-02  .421E-02  .342E-02  .286E-02  .253E-02  .222E-02
  .195E-02  .171E-02  .153E-02  .122E-02  .937E-03  .826E-03  .653E-03  .541E-03
  .478E-03  .410E-03  .363E-03  .329E-03  .310E-03  .261E-03  .225E-03  .189E-03
  .178E-03  .159E-03  .120E-03  .123E-03  .122E-03  .899E-04  .888E-04  .100E-03
  .852E-04  .653E-04  .611E-04  .635E-04  .581E-04  .551E-04  .337E-04  .293E-04
  .363E-04  .393E-04  .295E-04  .200E-04  .215E-04  .203E-04  .166E-04  .175E-04
  .143E-04  .108E-04  .928E-05  .882E-05  .756E-05  .720E-05  .641E-05  .550E-05
  .469E-05  .431E-05  .415E-05  .395E-05
  .375E-01  .398E-01  .420E-01  .438E-01  .456E-01  .485E-01  .563E-01  .636E-01
  .737E-01  .856E-01  .955E-01  .102E+00  .112E+00  .141E+00  .168E+00  .190E+00
  .305E+00  .253E+00  .290E+00  .435E+00  .540E+00  .677E+00  .752E+00  .795E+00
  .785E+00  .775E+00  .826E+00  .967E+00  .669E+00  .562E+00  .498E+00  .514E+00
  .499E+00  .494E+00  .438E+00  .408E+00  .388E+00  .359E+00  .326E+00  .309E+00
  .297E+00  .253E+00  .219E+00  .168E+00  .147E+00  .131E+00  .124E+00  .115E+00
  .107E+00  .990E-01  .929E-01  .814E-01  .682E-01  .651E-01  .552E-01  .489E-01
  .459E-01  .417E-01  .390E-01  .372E-01  .368E-01  .339E-01  .317E-01  .286E-01
  .288E-01  .273E-01  .216E-01  .236E-01  .247E-01  .187E-01  .195E-01  .234E-01
  .205E-01  .159E-01  .154E-01  .168E-01  .167E-01  .172E-01  .114E-01  .936E-02
  .133E-01  .156E-01  .116E-01  .999E-02  .896E-02  .874E-02  .719E-02  .869E-02
  .699E-02  .482E-02  .421E-02  .422E-02  .353E-02  .389E-02  .359E-02  .292E-02
  .238E-02  .246E-02  .265E-02  .268E-02
  .300E+02  .300E+02  .300E+02  .300E+02  .300E+02  .300E+02  .300E+02  .300E+02
  .300E+02  .300E+02  .300E+02  .300E+02  .300E+02  .303E+02  .303E+02  .303E+02
  .307E+02  .307E+02  .308E+02  .303E+02  .303E+02  .303E+02  .304E+02  .304E+02
  .304E+02  .305E+02  .310E+02  .312E+02  .313E+02  .311E+02  .309E+02  .308E+02
  .307E+02  .307E+02  .307E+02  .305E+02  .305E+02  .306E+02  .306E+02  .304E+02
  .304E+02  .304E+02  .338E+02  .304E+02  .312E+02  .303E+02  .303E+02  .303E+02
  .303E+02  .303E+02  .303E+02  .303E+02  .303E+02  .303E+02  .303E+02  .303E+02
  .303E+02  .300E+02  .303E+02  .300E+02  .300E+02  .300E+02  .300E+02  .300E+02
  .300E+02  .300E+02  .300E+02  .300E+02  .300E+02  .300E+02  .300E+02  .300E+02
  .300E+02  .300E+02  .300E+02  .300E+02  .300E+02  .300E+02  .606E+02  .303E+02
  .300E+02  .300E+02  .300E+02  .324E+02  .303E+02  .303E+02  .300E+02  .300E+02
  .300E+02  .324E+02  .303E+02  .303E+02  .300E+02  .300E+02  .300E+02  .300E+02
  .341E+02  .303E+02  .303E+02  .303E+02
  .302E+02  .302E+02  .302E+02  .306E+02  .306E+02  .306E+02  .302E+02  .302E+02
  .300E+02  .300E+02  .301E+02  .301E+02  .302E+02  .303E+02  .303E+02  .306E+02
  .307E+02  .307E+02  .307E+02  .303E+02  .303E+02  .303E+02  .304E+02  .304E+02
  .305E+02  .305E+02  .310E+02  .313E+02  .312E+02  .312E+02  .310E+02  .307E+02
  .307E+02  .306E+02  .306E+02  .306E+02  .306E+02  .305E+02  .305E+02  .305E+02
  .305E+02  .303E+02  .303E+02  .303E+02  .303E+02  .303E+02  .301E+02  .301E+02
  .301E+02  .301E+02  .301E+02  .301E+02  .301E+02  .301E+02  .301E+02  .301E+02
  .301E+02  .301E+02  .301E+02  .301E+02  .301E+02  .301E+02  .301E+02  .301E+02
  .301E+02  .301E+02  .301E+02  .301E+02  .301E+02  .301E+02  .301E+02  .301E+02
  .301E+02  .301E+02  .301E+02  .301E+02  .301E+02  .301E+02  .300E+02  .301E+02
  .301E+02  .301E+02  .300E+02  .300E+02  .301E+02  .301E+02  .301E+02  .301E+02
  .301E+02  .301E+02  .301E+02  .301E+02  .301E+02  .301E+02  .301E+02  .301E+02
  .301E+02  .301E+02  .301E+02  .301E+02
  .300E+02  .300E+02  .300E+02  .300E+02  .300E+02  .300E+02  .300E+02  .300E+02
  .300E+02  .300E+02  .300E+02  .300E+02  .300E+02  .303E+02  .303E+02  .303E+02
  .307E+02  .307E+02  .308E+02  .303E+02  .303E+02  .303E+02  .304E+02  .304E+02
  .304E+02  .305E+02  .310E+02  .312E+02  .313E+02  .311E+02  .309E+02  .308E+02
  .306E+02  .307E+02  .307E+02  .305E+02  .305E+02  .306E+02  .306E+02  .304E+02
  .304E+02  .304E+02  .338E+02  .304E+02  .312E+02  .303E+02  .303E+02  .303E+02
  .303E+02  .303E+02  .303E+02  .303E+02  .303E+02  .303E+02  .303E+02  .303E+02
  .303E+02  .300E+02  .303E+02  .300E+02  .300E+02  .300E+02  .300E+02  .300E+02
  .300E+02  .300E+02  .300E+02  .300E+02  .300E+02  .300E+02  .300E+02  .300E+02
  .300E+02  .300E+02  .300E+02  .300E+02  .300E+02  .300E+02  .300E+02  .303E+02
  .300E+02  .300E+02  .300E+02  .323E+02  .303E+02  .302E+02  .300E+02  .300E+02
  .300E+02  .300E+02  .302E+02  .302E+02  .300E+02  .300E+02  .300E+02  .300E+02
  .300E+02  .302E+02  .302E+02  .302E+02
Damping =  .05. Data of Sd,Sv,Sa,Pssv,ttSd,ttSv,ttSa :
  .240E-03  .266E-03  .294E-03  .322E-03  .352E-03  .387E-03  .489E-03  .607E-03
