Response and Fourier amplitude spectra (** periods,  .04 - 32.0 sec)   for      
Corrected accelerogram   89324-VAA6D-21355.06       Chan  1:  Long       from   
Uncorrected Accelerogram Data             Processed: 12/21/21, CGS  aa6de006    
Rcrd of Mon Dec 20, 2021 13:53:27.0 PST           (Avol1 v6.5,64b, 1/20; PC00)  
CSMIP Preliminary Processing            (Origin:  To be determined)             
89324-VAA6D-21355.06                 Start time: 12/20/21, 21:53:27.0 UTC (GPS) 
Station No. 89324   40.503N, 124.101W    130-MC  s/n AA6D (17 Chns of 17 at Sta)
Rio Dell - Hwy 101/Painter St. Overpass   CGS   Data: Acceleration              
Chan  1:  Long                      Location: Middle Bent: Column at Grnd Level 
Rcrd of Mon Dec 20, 2021 13:53:27.0 PST    Mon Dec 20, 2021 13:53:27.0 PST      
Hypocenter:  To be determined.               ML:  To be determined.
Instr Period = 0.0008 sec,  Damping = 0.100,  Sensitivity = 1.65 v/g
                        Record Length = 65.610 sec.
                                     Uncor Max  =  0.007 g, at   29.980 sec.
RMS accel of (uncor) record  =        .   Chn. metadata effective date: 04/02/10
Accelerogram bandpass filtered with 3 dB pts at   .07 and 40.00 cyc/sec
                 instrument- and base-line correcte





Rcrd of Mon Dec 20, 2021 13:53:27.0 PST    Mon Dec 20, 2021 13:53:27.0 PST

89324-VAA6D-21355.06      Rio Dell - Hwy 101/Painter St. Overpass   Chan  1:  Lo
ng
89324-VAA6D-21355.06      Rio Dell - Hwy 101/Painter St. Overpass   Chan  1:  Lo
ng
Units for spectra are inches and sec, except Sa is in fraction of g.

    1  100    1   18   17  200    1    3    1   32  706 -999    0-9999    3    0
   21   53   27    0  354   12   20 2021   10    3  80013122   39   39   74   -1
13122    0  100    3 -999    1    6 -999 -999 -999 -999 -999 -999 -999 -999 -999
 -999 -999 -999 -999 6561    2  130    1   24  253 -999 -999    3    1 -999 6561
    3 6561    4  100    5   17    5    0    0 -999    0    0 -999 -999    1    2
    2    2    4    0   66   67    0    2 -999    0    0    1 4096 -999    0  222
    1 -999    2 -999
      .001      .100    65.610      .000     1.000  1652.000      .007    29.980
  1300.000     1.589      .962  -999.000     5.000  -999.000     4.000  -999.000
    10.000     5.899    10.000   312.000    30.400    29.995  -999.000      .002
     -.001     -.003     2.000    15.000    40.503  -124.101      .025      .040
     1.603     -.007      .001    43.000    30.398    35.609    13.300  -999.000
     1.000  -999.000    -8.000  -999.000  -999.000  -999.000  -999.000   120.000
     6.500     6.500     7.500   980.665      .010    65.610   206.901      .000
  -999.000    40.000  -999.000    65.610      .010      .067  -999.000  -999.000
    29.980     7.258    29.940     -.252    29.990     -.017     -.001      .067
    40.000      .010      .010     -.001      .010      .004  -999.000  -999.000
      .021      .110      .014      .009      .001      .000  -999.000  -999.000
  -999.000  -999.000  -999.000  -999.000  -999.000  -999.000  -999.000  -999.000
  -999.000  -999.000  -999.000  -999.000
      .000      .020      .050      .100      .200
      .040      .042      .044      .046      .048      .050      .055      .060
      .065      .070      .075      .080      .085      .090      .095      .100
      .110      .120      .130      .140      .150      .160      .170      .180
      .190      .200      .220      .240      .260      .280      .300      .320
      .340      .360      .380      .400      .420      .440      .460      .480
      .500      .550      .600      .650      .700      .750      .800      .850
      .900      .950     1.000     1.100     1.200     1.300     1.400     1.500
     1.600     1.700     1.800     1.900     2.000     2.200     2.400     2.600
     2.800     3.000     3.200     3.400     3.600     3.800     4.000     4.200
     4.400     4.600     4.800     5.000     5.500     6.000     6.500     7.000
     7.500     8.000     8.500     9.000     9.500    10.000    11.000    12.000
    13.000    14.000    15.000    16.000    18.000    20.000    22.000    24.000
    26.000    28.000    30.000    32.000
Fourier amplitude spectra in in/sec.
  .103E-01  .117E-01  .136E-01  .155E-01  .795E-02  .614E-02  .752E-02  .446E-01
  .353E-01  .291E-01  .855E-02  .193E-01  .661E-01  .413E-01  .946E-01  .301E+00
  .242E+00  .251E+00  .800E-01  .296E+00  .189E+00  .602E+00  .302E+00  .350E+00
  .112E+00  .460E+00  .227E+00  .366E+00  .138E+00  .167E+00  .141E+00  .114E+00
  .221E+00  .607E+00  .190E+00  .207E+00  .775E-01  .373E+00  .174E+00  .275E+00
  .284E+00  .103E+00  .223E+00  .908E-01  .780E-01  .136E+00  .105E+00  .955E-01
  .203E-01  .733E-01  .304E-01  .542E-01  .290E-01  .477E-01  .484E-01  .274E-01
  .603E-02  .823E-02  .166E-01  .179E-01  .101E-01  .170E-01  .229E-02  .105E-01
  .603E-02  .441E-02  .421E-02  .108E-01  .763E-02  .135E-02  .564E-02  .688E-02
  .925E-02  .938E-02  .882E-02  .692E-02  .968E-02  .790E-02  .994E-02  .300E-02
  .685E-02  .102E-01  .768E-02  .727E-02  .617E-02  .755E-02  .980E-02  .700E-02
  .104E-01  .109E-01  .798E-02  .427E-02  .112E-02  .615E-03  .983E-03  .198E-02
  .223E-02  .193E-02  .137E-02  .747E-03
Damping =  .00. Data of Sd,Sv,Sa,Pssv,ttSd,ttSv,ttSa :
  .189E-03  .182E-03  .202E-03  .202E-03  .242E-03  .201E-03  .335E-03  .617E-03
  .596E-03  .705E-03  .590E-03  .123E-02  .123E-02  .163E-02  .255E-02  .507E-02
  .496E-02  .590E-02  .374E-02  .671E-02  .583E-02  .156E-01  .969E-02  .104E-01
  .893E-02  .155E-01  .109E-01  .148E-01  .103E-01  .967E-02  .129E-01  .851E-02
  .129E-01  .360E-01  .191E-01  .235E-01  .156E-01  .282E-01  .219E-01  .241E-01
  .227E-01  .142E-01  .270E-01  .191E-01  .169E-01  .170E-01  .167E-01  .130E-01
  .956E-02  .114E-01  .977E-02  .110E-01  .103E-01  .107E-01  .120E-01  .780E-02
  .694E-02  .703E-02  .779E-02  .733E-02  .687E-02  .699E-02  .755E-02  .599E-02
  .751E-02  .654E-02  .751E-02  .769E-02  .103E-01  .855E-02  .843E-02  .782E-02
  .698E-02  .825E-02  .762E-02  .717E-02  .149E-01  .133E-01  .103E-01  .944E-02
  .856E-02  .130E-01  .104E-01  .105E-01  .141E-01  .156E-01  .215E-01  .198E-01
  .214E-01  .244E-01  .191E-01  .114E-01  .743E-02  .698E-02  .729E-02  .850E-02
  .923E-02  .861E-02  .801E-02  .770E-02
  .163E-01  .134E-01  .165E-01  .156E-01  .168E-01  .178E-01  .184E-01  .475E-01
  .399E-01  .475E-01  .419E-01  .846E-01  .820E-01  .979E-01  .155E+00  .322E+00
  .283E+00  .306E+00  .186E+00  .304E+00  .244E+00  .609E+00  .351E+00  .358E+00
  .295E+00  .485E+00  .315E+00  .382E+00  .248E+00  .218E+00  .263E+00  .165E+00
  .237E+00  .626E+00  .332E+00  .377E+00  .250E+00  .410E+00  .305E+00  .320E+00
  .285E+00  .179E+00  .287E+00  .192E+00  .159E+00  .154E+00  .153E+00  .109E+00
  .973E-01  .952E-01  .968E-01  .983E-01  .975E-01  .972E-01  .971E-01  .101E+00
  .982E-01  .971E-01  .954E-01  .102E+00  .988E-01  .984E-01  .996E-01  .982E-01
  .971E-01  .965E-01  .975E-01  .945E-01  .985E-01  .101E+00  .100E+00  .101E+00
  .100E+00  .980E-01  .964E-01  .944E-01  .964E-01  .105E+00  .104E+00  .103E+00
  .104E+00  .103E+00  .101E+00  .102E+00  .104E+00  .107E+00  .108E+00  .103E+00
  .976E-01  .950E-01  .947E-01  .957E-01  .978E-01  .986E-01  .984E-01  .980E-01
  .976E-01  .974E-01  .974E-01  .975E-01
  .121E-01  .105E-01  .107E-01  .975E-02  .107E-01  .824E-02  .113E-01  .175E-01
  .144E-01  .147E-01  .107E-01  .197E-01  .174E-01  .205E-01  .289E-01  .518E-01
  .420E-01  .419E-01  .226E-01  .350E-01  .265E-01  .623E-01  .343E-01  .327E-01
  .253E-01  .395E-01  .229E-01  .263E-01  .155E-01  .126E-01  .146E-01  .850E-02
  .115E-01  .284E-01  .136E-01  .150E-01  .904E-02  .149E-01  .106E-01  .107E-01
  .930E-02  .479E-02  .768E-02  .462E-02  .353E-02  .310E-02  .267E-02  .184E-02
  .121E-02  .129E-02  .999E-03  .928E-03  .731E-03  .645E-03  .625E-03  .355E-03
  .277E-03  .249E-03  .246E-03  .208E-03  .176E-03  .148E-03  .134E-03  .906E-04
  .980E-04  .744E-04  .750E-04  .681E-04  .814E-04  .606E-04  .539E-04  .453E-04
  .369E-04  .399E-04  .338E-04  .293E-04  .504E-04  .377E-04  .249E-04  .197E-04
  .156E-04  .208E-04  .147E-04  .133E-04  .160E-04  .160E-04  .181E-04  .141E-04
  .130E-04  .127E-04  .866E-05  .454E-05  .235E-05  .179E-05  .154E-05  .151E-05
  .140E-05  .112E-05  .911E-06  .769E-06
  .298E-01  .272E-01  .289E-01  .275E-01  .316E-01  .253E-01  .383E-01  .646E-01
  .576E-01  .633E-01  .494E-01  .966E-01  .911E-01  .114E+00  .169E+00  .318E+00
  .284E+00  .309E+00  .181E+00  .301E+00  .244E+00  .612E+00  .358E+00  .362E+00
  .295E+00  .486E+00  .310E+00  .387E+00  .248E+00  .217E+00  .270E+00  .167E+00
  .239E+00  .628E+00  .316E+00  .369E+00  .233E+00  .402E+00  .299E+00  .315E+00
  .286E+00  .162E+00  .283E+00  .184E+00  .152E+00  .143E+00  .131E+00  .963E-01
  .667E-01  .752E-01  .614E-01  .627E-01  .539E-01  .515E-01  .537E-01  .327E-01
  .272E-01  .260E-01  .272E-01  .242E-01  .216E-01  .200E-01  .198E-01  .145E-01
  .168E-01  .137E-01  .148E-01  .142E-01  .180E-01  .141E-01  .132E-01  .117E-01
  .997E-02  .113E-01  .998E-02  .900E-02  .170E-01  .139E-01  .994E-02  .847E-02
  .717E-02  .102E-01  .768E-02  .736E-02  .932E-02  .983E-02  .123E-01  .104E-01
  .104E-01  .109E-01  .798E-02  .446E-02  .259E-02  .219E-02  .208E-02  .223E-02
  .223E-02  .193E-02  .168E-02  .151E-02
  .300E+02  .300E+02  .300E+02  .300E+02  .300E+02  .300E+02  .300E+02  .300E+02
  .300E+02  .305E+02  .305E+02  .305E+02  .305E+02  .302E+02  .302E+02  .325E+02
  .308E+02  .312E+02  .306E+02  .410E+02  .309E+02  .395E+02  .342E+02  .393E+02
  .311E+02  .379E+02  .325E+02  .394E+02  .371E+02  .406E+02  .338E+02  .371E+02
  .421E+02  .516E+02  .328E+02  .347E+02  .312E+02  .370E+02  .327E+02  .366E+02
  .563E+02  .344E+02  .356E+02  .321E+02  .319E+02  .335E+02  .365E+02  .449E+02
  .303E+02  .589E+02  .348E+02  .539E+02  .328E+02  .342E+02  .520E+02  .340E+02
  .300E+02  .300E+02  .300E+02  .300E+02  .300E+02  .300E+02  .300E+02  .300E+02
  .300E+02  .300E+02  .300E+02  .300E+02  .300E+02  .300E+02  .300E+02  .300E+02
  .547E+02  .579E+02  .614E+02  .300E+02  .300E+02  .300E+02  .669E+02  .300E+02
  .469E+02  .803E+02  .823E+02  .300E+02  .550E+02  .324E+02  .340E+02  .340E+02
  .701E+02  .664E+02  .914E+02  .482E+02  .139E+02  .141E+02  .418E+02  .429E+02
  .715E+02  .117E+03  .360E+02  .260E+02
  .305E+02  .306E+02  .305E+02  .632E+02  .299E+02  .299E+02  .300E+02  .325E+02
  .311E+02  .310E+02  .306E+02  .305E+02  .311E+02  .302E+02  .303E+02  .324E+02
  .309E+02  .313E+02  .306E+02  .402E+02  .309E+02  .396E+02  .341E+02  .388E+02
  .311E+02  .378E+02  .325E+02  .393E+02  .372E+02  .404E+02  .336E+02  .300E+02
  .420E+02  .515E+02  .329E+02  .348E+02  .311E+02  .369E+02  .341E+02  .367E+02
  .487E+02  .343E+02  .357E+02  .320E+02  .317E+02  .337E+02  .343E+02  .304E+02
  .304E+02  .299E+02  .299E+02  .299E+02  .299E+02  .299E+02  .299E+02  .299E+02
  .299E+02  .299E+02  .299E+02  .299E+02  .299E+02  .299E+02  .299E+02  .299E+02
  .299E+02  .299E+02  .299E+02  .299E+02  .299E+02  .299E+02  .299E+02  .299E+02
  .299E+02  .299E+02  .299E+02  .299E+02  .299E+02  .299E+02  .299E+02  .299E+02
  .299E+02  .299E+02  .299E+02  .299E+02  .299E+02  .299E+02  .299E+02  .299E+02
  .299E+02  .299E+02  .299E+02  .299E+02  .299E+02  .299E+02  .299E+02  .299E+02
  .299E+02  .299E+02  .299E+02  .299E+02
  .300E+02  .300E+02  .300E+02  .300E+02  .300E+02  .300E+02  .300E+02  .300E+02
  .300E+02  .305E+02  .305E+02  .305E+02  .305E+02  .302E+02  .302E+02  .325E+02
  .308E+02  .312E+02  .306E+02  .410E+02  .309E+02  .395E+02  .342E+02  .393E+02
  .311E+02  .379E+02  .325E+02  .394E+02  .371E+02  .406E+02  .338E+02  .371E+02
  .421E+02  .516E+02  .328E+02  .347E+02  .312E+02  .370E+02  .327E+02  .366E+02
  .563E+02  .344E+02  .356E+02  .321E+02  .319E+02  .335E+02  .365E+02  .449E+02
  .303E+02  .589E+02  .348E+02  .539E+02  .328E+02  .342E+02  .520E+02  .340E+02
  .300E+02  .300E+02  .300E+02  .300E+02  .300E+02  .300E+02  .300E+02  .300E+02
  .300E+02  .300E+02  .300E+02  .300E+02  .300E+02  .300E+02  .300E+02  .300E+02
  .547E+02  .579E+02  .614E+02  .300E+02  .300E+02  .300E+02  .669E+02  .300E+02
  .469E+02  .803E+02  .823E+02  .300E+02  .550E+02  .324E+02  .340E+02  .340E+02
  .701E+02  .664E+02  .914E+02  .482E+02  .139E+02  .141E+02  .418E+02  .429E+02
  .715E+02  .117E+03  .360E+02  .260E+02
Damping =  .02. Data of Sd,Sv,Sa,Pssv,ttSd,ttSv,ttSa :
  .125E-03  .139E-03  .154E-03  .172E-03  .186E-03  .209E-03  .269E-03  .365E-03
  .435E-03  .557E-03  .650E-03  .766E-03  .100E-02  .116E-02  .151E-02  .270E-02
  .367E-02  .355E-02  .269E-02  .377E-02  .478E-02  .630E-02  .691E-02  .726E-02
  .692E-02  .670E-02  .696E-02  .701E-02  .766E-02  .802E-02  .883E-02  .832E-02
  .962E-02  .133E-01  .109E-01  .118E-01  .123E-01  .126E-01  .138E-01  .132E-01
  .133E-01  .126E-01  .160E-01  .141E-01  .131E-01  .117E-01  .108E-01  .968E-02
  .918E-02  .883E-02  .851E-02  .821E-02  .832E-02  .851E-02  .822E-02  .722E-02
  .687E-02  .695E-02  .747E-02  .732E-02  .693E-02  .697E-02  .721E-02  .640E-02
  .711E-02  .690E-02  .740E-02  .792E-02  .933E-02  .861E-02  .826E-02  .772E-02
  .680E-02  .655E-02  .685E-02  .781E-02  .133E-01  .125E-01  .925E-02  .917E-02
  .824E-02  .940E-02  .836E-02  .967E-02  .103E-01  .137E-01  .185E-01  .174E-01
  .184E-01  .178E-01  .147E-01  .986E-02  .707E-02  .670E-02  .684E-02  .773E-02
  .767E-02  .733E-02  .744E-02  .736E-02
  .496E-02  .559E-02  .661E-02  .734E-02  .836E-02  .867E-02  .136E-01  .162E-01
  .174E-01  .249E-01  .344E-01  .471E-01  .632E-01  .684E-01  .850E-01  .163E+00
  .205E+00  .182E+00  .136E+00  .171E+00  .203E+00  .247E+00  .257E+00  .264E+00
  .244E+00  .233E+00  .207E+00  .204E+00  .206E+00  .192E+00  .184E+00  .167E+00
  .179E+00  .233E+00  .189E+00  .192E+00  .197E+00  .194E+00  .208E+00  .211E+00
  .204E+00  .166E+00  .177E+00  .147E+00  .132E+00  .116E+00  .113E+00  .101E+00
  .944E-01  .945E-01  .957E-01  .957E-01  .960E-01  .972E-01  .971E-01  .987E-01
  .977E-01  .968E-01  .968E-01  .996E-01  .985E-01  .979E-01  .987E-01  .978E-01
  .970E-01  .967E-01  .968E-01  .957E-01  .979E-01  .997E-01  .997E-01  .100E+00
  .994E-01  .979E-01  .966E-01  .952E-01  .971E-01  .103E+00  .103E+00  .103E+00
  .103E+00  .102E+00  .101E+00  .102E+00  .104E+00  .106E+00  .106E+00  .103E+00
  .982E-01  .959E-01  .954E-01  .960E-01  .977E-01  .984E-01  .984E-01  .980E-01
  .977E-01  .975E-01  .975E-01  .976E-01
  .799E-02  .805E-02  .812E-02  .830E-02  .828E-02  .856E-02  .913E-02  .104E-01
  .105E-01  .117E-01  .118E-01  .122E-01  .142E-01  .146E-01  .171E-01  .278E-01
  .311E-01  .253E-01  .163E-01  .196E-01  .219E-01  .250E-01  .244E-01  .230E-01
  .196E-01  .171E-01  .147E-01  .125E-01  .116E-01  .104E-01  .100E-01  .833E-02
  .852E-02  .105E-01  .771E-02  .754E-02  .716E-02  .667E-02  .668E-02  .588E-02
  .544E-02  .427E-02  .455E-02  .342E-02  .273E-02  .212E-02  .173E-02  .137E-02
  .116E-02  .100E-02  .871E-03  .696E-03  .591E-03  .516E-03  .430E-03  .334E-03
  .280E-03  .252E-03  .241E-03  .213E-03  .183E-03  .153E-03  .133E-03  .102E-03
  .985E-04  .842E-04  .796E-04  .758E-04  .793E-04  .666E-04  .583E-04  .502E-04
  .412E-04  .368E-04  .356E-04  .372E-04  .501E-04  .407E-04  .275E-04  .241E-04
  .198E-04  .157E-04  .153E-04  .165E-04  .159E-04  .147E-04  .164E-04  .138E-04
  .130E-04  .979E-05  .670E-05  .448E-05  .468E-05  .374E-05  .298E-05  .270E-05
  .246E-05  .242E-05  .240E-05  .236E-05
  .196E-01  .208E-01  .219E-01  .234E-01  .244E-01  .262E-01  .308E-01  .383E-01
  .421E-01  .500E-01  .544E-01  .602E-01  .740E-01  .807E-01  .100E+00  .169E+00
  .210E+00  .186E+00  .130E+00  .169E+00  .200E+00  .247E+00  .256E+00  .253E+00
  .229E+00  .211E+00  .199E+00  .184E+00  .185E+00  .180E+00  .185E+00  .163E+00
  .178E+00  .233E+00  .180E+00  .185E+00  .184E+00  .180E+00  .189E+00  .173E+00
  .167E+00  .144E+00  .168E+00  .137E+00  .117E+00  .978E-01  .849E-01  .716E-01
  .641E-01  .584E-01  .535E-01  .469E-01  .436E-01  .411E-01  .369E-01  .303E-01
  .270E-01  .257E-01  .261E-01  .242E-01  .218E-01  .199E-01  .189E-01  .155E-01
  .159E-01  .145E-01  .145E-01  .146E-01  .163E-01  .142E-01  .130E-01  .115E-01
  .971E-02  .894E-02  .897E-02  .982E-02  .152E-01  .131E-01  .894E-02  .824E-02
  .690E-02  .738E-02  .618E-02  .675E-02  .680E-02  .862E-02  .105E-01  .910E-02
  .889E-02  .798E-02  .615E-02  .387E-02  .247E-02  .210E-02  .195E-02  .202E-02
  .185E-02  .165E-02  .156E-02  .145E-02
  .300E+02  .300E+02  .300E+02  .300E+02  .300E+02  .300E+02  .300E+02  .300E+02
  .300E+02  .300E+02  .300E+02  .300E+02  .305E+02  .302E+02  .302E+02  .305E+02
  .307E+02  .311E+02  .300E+02  .304E+02  .302E+02  .303E+02  .303E+02  .303E+02
  .303E+02  .302E+02  .301E+02  .301E+02  .300E+02  .301E+02  .301E+02  .301E+02
  .346E+02  .347E+02  .313E+02  .313E+02  .305E+02  .306E+02  .327E+02  .306E+02
  .306E+02  .304E+02  .340E+02  .321E+02  .319E+02  .336E+02  .329E+02  .302E+02
  .302E+02  .303E+02  .303E+02  .326E+02  .328E+02  .323E+02  .324E+02  .300E+02
  .300E+02  .300E+02  .300E+02  .300E+02  .300E+02  .300E+02  .300E+02  .300E+02
  .300E+02  .300E+02  .300E+02  .300E+02  .300E+02  .300E+02  .300E+02  .300E+02
  .300E+02  .300E+02  .300E+02  .300E+02  .300E+02  .300E+02  .300E+02  .300E+02
  .300E+02  .643E+02  .652E+02  .300E+02  .300E+02  .324E+02  .340E+02  .340E+02
  .303E+02  .663E+02  .616E+02  .482E+02  .138E+02  .141E+02  .303E+02  .310E+02
  .714E+02  .619E+02  .360E+02  .260E+02
  .299E+02  .299E+02  .305E+02  .305E+02  .299E+02  .299E+02  .305E+02  .299E+02
  .300E+02  .300E+02  .301E+02  .305E+02  .305E+02  .302E+02  .303E+02  .306E+02
  .306E+02  .311E+02  .306E+02  .303E+02  .303E+02  .306E+02  .306E+02  .302E+02
  .303E+02  .302E+02  .302E+02  .301E+02  .301E+02  .301E+02  .301E+02  .300E+02
  .349E+02  .346E+02  .325E+02  .310E+02  .311E+02  .305E+02  .305E+02  .305E+02
  .305E+02  .305E+02  .330E+02  .320E+02  .317E+02  .303E+02  .343E+02  .304E+02
  .299E+02  .299E+02  .299E+02  .299E+02  .299E+02  .299E+02  .299E+02  .299E+02
  .299E+02  .299E+02  .299E+02  .299E+02  .299E+02  .299E+02  .299E+02  .299E+02
  .299E+02  .299E+02  .299E+02  .299E+02  .299E+02  .299E+02  .299E+02  .299E+02
  .299E+02  .299E+02  .299E+02  .299E+02  .299E+02  .299E+02  .299E+02  .299E+02
  .299E+02  .299E+02  .299E+02  .299E+02  .299E+02  .299E+02  .299E+02  .299E+02
  .299E+02  .299E+02  .299E+02  .299E+02  .299E+02  .299E+02  .299E+02  .299E+02
  .299E+02  .299E+02  .299E+02  .299E+02
  .300E+02  .300E+02  .300E+02  .300E+02  .300E+02  .300E+02  .300E+02  .300E+02
  .300E+02  .300E+02  .300E+02  .300E+02  .305E+02  .302E+02  .302E+02  .305E+02
  .307E+02  .311E+02  .306E+02  .304E+02  .302E+02  .303E+02  .303E+02  .303E+02
  .303E+02  .302E+02  .301E+02  .301E+02  .300E+02  .301E+02  .301E+02  .301E+02
  .346E+02  .346E+02  .313E+02  .313E+02  .305E+02  .306E+02  .327E+02  .306E+02
  .306E+02  .304E+02  .340E+02  .321E+02  .319E+02  .335E+02  .329E+02  .302E+02
  .302E+02  .302E+02  .303E+02  .326E+02  .327E+02  .323E+02  .323E+02  .300E+02
  .300E+02  .300E+02  .300E+02  .300E+02  .300E+02  .300E+02  .300E+02  .300E+02
  .300E+02  .300E+02  .300E+02  .300E+02  .300E+02  .300E+02  .300E+02  .300E+02
  .300E+02  .299E+02  .299E+02  .299E+02  .299E+02  .299E+02  .299E+02  .299E+02
  .299E+02  .299E+02  .299E+02  .299E+02  .299E+02  .323E+02  .340E+02  .302E+02
  .302E+02  .302E+02  .615E+02  .299E+02  .299E+02  .299E+02  .299E+02  .302E+02
  .299E+02  .299E+02  .299E+02  .299E+02
Damping =  .05. Data of Sd,Sv,Sa,Pssv,ttSd,ttSv,ttSa :
  .124E-03  .139E-03  .154E-03  .170E-03  .188E-03  .208E-03  .268E-03  .349E-03
