Response and Fourier amplitude spectra (** periods,  .04 - 32.0 sec)   for      
Corrected accelerogram   89324-VAA6D-21355.06       Chan 10:  Up         from   
Uncorrected Accelerogram Data             Processed: 12/21/21, CGS  aa6de006    
Rcrd of Mon Dec 20, 2021 13:53:27.0 PST           (Avol1 v6.5,64b, 1/20; PC00)  
CSMIP Preliminary Processing            (Origin:  To be determined)             
89324-VAA6D-21355.06                 Start time: 12/20/21, 21:53:27.0 UTC (GPS) 
Station No. 89324   40.503N, 124.101W    130-MC  s/n AA6D (17 Chns of 17 at Sta)
Rio Dell - Hwy 101/Painter St. Overpass   CGS   Data: Acceleration              
Chan 10:  Up                        Location: Deck: Near East Abutment          
Rcrd of Mon Dec 20, 2021 13:53:27.0 PST    Mon Dec 20, 2021 13:53:27.0 PST      
Hypocenter:  To be determined.               ML:  To be determined.
Instr Period = 0.0008 sec,  Damping = 0.100,  Sensitivity = 1.65 v/g
                        Record Length = 65.610 sec.
                                     Uncor Max  =  0.007 g, at   30.375 sec.
RMS accel of (uncor) record  =        .   Chn. metadata effective date: 04/02/10
Accelerogram bandpass filtered with 3 dB pts at   .07 and 40.00 cyc/sec
                 instrument- and base-line correcte





Rcrd of Mon Dec 20, 2021 13:53:27.0 PST    Mon Dec 20, 2021 13:53:27.0 PST

89324-VAA6D-21355.06      Rio Dell - Hwy 101/Painter St. Overpass   Chan 10:  Up

89324-VAA6D-21355.06      Rio Dell - Hwy 101/Painter St. Overpass   Chan 10:  Up

Units for spectra are inches and sec, except Sa is in fraction of g.

   10  100   10   18   17  200    1    3    1   32  706 -999    089324    3    0
   21   53   27    0  354   12   20 2021   10    3  50013122   39   39   74   -1
13122    0  100    3 -999    1    6 -999 -999 -999 -999 -999 -999 -999 -999 -999
 -999 -999 -999 -999 6561    2  100    1   24  253 -999 -999    3    1 -999 6561
    3 6561    4  100    5   17    5    0    0 -999    0    0 -999 -999    1    2
    2    2    4    0   66   67    0    2 -999    0    0    1 4096 -999    0  222
    1 -999   11 -999
      .001      .100    65.610      .001     1.000  1652.000      .007    30.375
  1300.000     1.583      .958  -999.000     5.000  -999.000     4.000  -999.000
    10.000  1021.607    10.000   312.000    30.400    29.995  -999.000      .007
     -.009     -.016     2.000    15.000    40.503  -124.101      .029      .052
     1.772     -.021     -.010    43.000    30.398    35.609    13.300  -999.000
     1.000  -999.000    -8.000  -999.000  -999.000  -999.000  -999.000   120.000
     6.500     6.500     7.500   980.665      .010    65.610   206.901      .000
  -999.000    40.000  -999.000    65.610      .010      .067  -999.000  -999.000
    30.370     6.501    30.330     -.204    30.900     -.014     -.002      .067
    40.000      .010      .010      .006      .010      .005  -999.000  -999.000
      .026      .240      .020      .012      .001      .000  -999.000  -999.000
  -999.000  -999.000  -999.000  -999.000  -999.000  -999.000  -999.000  -999.000
  -999.000  -999.000  -999.000  -999.000
      .000      .020      .050      .100      .200
      .040      .042      .044      .046      .048      .050      .055      .060
      .065      .070      .075      .080      .085      .090      .095      .100
      .110      .120      .130      .140      .150      .160      .170      .180
      .190      .200      .220      .240      .260      .280      .300      .320
      .340      .360      .380      .400      .420      .440      .460      .480
      .500      .550      .600      .650      .700      .750      .800      .850
      .900      .950     1.000     1.100     1.200     1.300     1.400     1.500
     1.600     1.700     1.800     1.900     2.000     2.200     2.400     2.600
     2.800     3.000     3.200     3.400     3.600     3.800     4.000     4.200
     4.400     4.600     4.800     5.000     5.500     6.000     6.500     7.000
     7.500     8.000     8.500     9.000     9.500    10.000    11.000    12.000
    13.000    14.000    15.000    16.000    18.000    20.000    22.000    24.000
    26.000    28.000    30.000    32.000
Fourier amplitude spectra in in/sec.
  .862E-02  .106E-01  .195E-01  .476E-02  .157E-01  .850E-02  .221E-01  .664E-01
  .462E-01  .897E-01  .251E-01  .548E-01  .940E-01  .107E+00  .179E+00  .167E+00
  .626E-01  .241E+00  .746E-01  .829E+00  .897E-01  .373E+00  .268E+00  .363E+00
  .392E+00  .408E+00  .593E+00  .103E+01  .137E+00  .577E+00  .631E+00  .481E-01
  .102E+00  .141E+00  .284E-01  .100E+00  .325E+00  .315E+00  .197E+00  .200E+00
  .203E+00  .117E+00  .700E-01  .821E-01  .873E-01  .677E-01  .695E-01  .378E-01
  .264E-01  .435E-01  .402E-01  .940E-02  .144E-01  .104E-01  .549E-02  .715E-02
  .121E-01  .195E-02  .244E-02  .207E-02  .276E-02  .229E-02  .437E-02  .185E-02
  .504E-02  .295E-02  .693E-02  .588E-02  .571E-02  .961E-02  .369E-02  .706E-02
  .105E-01  .666E-02  .661E-02  .695E-02  .645E-02  .508E-02  .392E-02  .704E-02
  .793E-02  .495E-02  .702E-02  .646E-02  .374E-02  .558E-02  .268E-02  .568E-02
  .994E-02  .110E-01  .108E-01  .925E-02  .338E-02  .230E-02  .425E-02  .395E-02
  .259E-02  .119E-02  .996E-03  .175E-02
Damping =  .00. Data of Sd,Sv,Sa,Pssv,ttSd,ttSv,ttSa :
  .168E-03  .176E-03  .214E-03  .197E-03  .273E-03  .237E-03  .228E-03  .848E-03
  .856E-03  .112E-02  .658E-03  .102E-02  .156E-02  .213E-02  .301E-02  .288E-02
  .230E-02  .566E-02  .407E-02  .185E-01  .571E-02  .117E-01  .106E-01  .106E-01
  .133E-01  .139E-01  .220E-01  .504E-01  .265E-01  .264E-01  .317E-01  .117E-01
  .998E-02  .103E-01  .112E-01  .985E-02  .227E-01  .223E-01  .180E-01  .165E-01
  .162E-01  .110E-01  .884E-02  .123E-01  .105E-01  .100E-01  .113E-01  .824E-02
  .933E-02  .868E-02  .838E-02  .574E-02  .443E-02  .495E-02  .463E-02  .429E-02
  .433E-02  .458E-02  .494E-02  .378E-02  .366E-02  .397E-02  .526E-02  .517E-02
  .465E-02  .370E-02  .628E-02  .393E-02  .555E-02  .581E-02  .734E-02  .714E-02
  .777E-02  .790E-02  .759E-02  .667E-02  .702E-02  .911E-02  .671E-02  .911E-02
  .956E-02  .117E-01  .109E-01  .925E-02  .614E-02  .889E-02  .110E-01  .151E-01
  .215E-01  .277E-01  .270E-01  .236E-01  .133E-01  .123E-01  .149E-01  .151E-01
  .133E-01  .140E-01  .142E-01  .132E-01
  .149E-01  .151E-01  .220E-01  .178E-01  .188E-01  .191E-01  .235E-01  .843E-01
  .599E-01  .969E-01  .450E-01  .656E-01  .968E-01  .132E+00  .192E+00  .169E+00
  .110E+00  .275E+00  .174E+00  .840E+00  .237E+00  .452E+00  .392E+00  .361E+00
  .429E+00  .429E+00  .628E+00  .131E+01  .664E+00  .594E+00  .673E+00  .253E+00
  .199E+00  .189E+00  .201E+00  .193E+00  .340E+00  .320E+00  .261E+00  .242E+00
  .204E+00  .171E+00  .121E+00  .139E+00  .140E+00  .127E+00  .119E+00  .111E+00
  .973E-01  .891E-01  .100E+00  .101E+00  .930E-01  .852E-01  .841E-01  .808E-01
  .797E-01  .813E-01  .820E-01  .790E-01  .764E-01  .792E-01  .787E-01  .822E-01
  .795E-01  .757E-01  .832E-01  .769E-01  .815E-01  .764E-01  .788E-01  .857E-01
  .779E-01  .742E-01  .796E-01  .812E-01  .778E-01  .825E-01  .825E-01  .840E-01
  .842E-01  .794E-01  .753E-01  .766E-01  .774E-01  .788E-01  .762E-01  .795E-01
  .829E-01  .820E-01  .802E-01  .827E-01  .833E-01  .812E-01  .792E-01  .781E-01
  .777E-01  .779E-01  .783E-01  .788E-01
  .108E-01  .102E-01  .113E-01  .952E-02  .121E-01  .968E-02  .772E-02  .241E-01
  .207E-01  .235E-01  .120E-01  .164E-01  .221E-01  .269E-01  .342E-01  .295E-01
  .194E-01  .402E-01  .246E-01  .964E-01  .260E-01  .468E-01  .376E-01  .333E-01
  .377E-01  .355E-01  .465E-01  .894E-01  .401E-01  .345E-01  .360E-01  .117E-01
  .883E-02  .811E-02  .792E-02  .630E-02  .131E-01  .118E-01  .870E-02  .733E-02
  .663E-02  .373E-02  .251E-02  .297E-02  .220E-02  .182E-02  .180E-02  .117E-02
  .118E-02  .984E-03  .857E-03  .486E-03  .314E-03  .299E-03  .242E-03  .195E-03
  .173E-03  .162E-03  .156E-03  .107E-03  .936E-04  .839E-04  .935E-04  .782E-04
  .606E-04  .420E-04  .627E-04  .348E-04  .438E-04  .412E-04  .469E-04  .414E-04
  .411E-04  .382E-04  .337E-04  .273E-04  .237E-04  .259E-04  .163E-04  .190E-04
  .174E-04  .186E-04  .155E-04  .117E-04  .696E-05  .909E-05  .931E-05  .107E-04
  .130E-04  .145E-04  .123E-04  .941E-05  .419E-05  .313E-05  .314E-05  .267E-05
  .201E-05  .183E-05  .161E-05  .132E-05
  .264E-01  .264E-01  .306E-01  .269E-01  .357E-01  .297E-01  .261E-01  .888E-01
  .828E-01  .101E+00  .551E-01  .804E-01  .115E+00  .149E+00  .199E+00  .181E+00
  .131E+00  .296E+00  .197E+00  .829E+00  .239E+00  .460E+00  .393E+00  .368E+00
  .440E+00  .436E+00  .628E+00  .132E+01  .640E+00  .593E+00  .664E+00  .229E+00
  .184E+00  .179E+00  .185E+00  .155E+00  .339E+00  .319E+00  .246E+00  .216E+00
  .204E+00  .126E+00  .926E-01  .118E+00  .947E-01  .837E-01  .887E-01  .609E-01
  .652E-01  .574E-01  .527E-01  .328E-01  .232E-01  .239E-01  .208E-01  .180E-01
  .170E-01  .169E-01  .172E-01  .125E-01  .115E-01  .113E-01  .138E-01  .125E-01
  .104E-01  .774E-02  .123E-01  .726E-02  .969E-02  .961E-02  .115E-01  .107E-01
  .111E-01  .108E-01  .993E-02  .838E-02  .801E-02  .954E-02  .649E-02  .817E-02
  .801E-02  .916E-02  .807E-02  .646E-02  .406E-02  .559E-02  .629E-02  .790E-02
  .104E-01  .125E-01  .113E-01  .925E-02  .464E-02  .385E-02  .425E-02  .394E-02
  .322E-02  .314E-02  .296E-02  .259E-02
  .304E+02  .304E+02  .303E+02  .305E+02  .304E+02  .320E+02  .304E+02  .304E+02
  .304E+02  .306E+02  .304E+02  .316E+02  .304E+02  .324E+02  .353E+02  .339E+02
  .305E+02  .323E+02  .320E+02  .413E+02  .311E+02  .317E+02  .335E+02  .416E+02
  .351E+02  .334E+02  .424E+02  .331E+02  .316E+02  .440E+02  .357E+02  .306E+02
  .306E+02  .388E+02  .335E+02  .317E+02  .446E+02  .538E+02  .333E+02  .324E+02
  .637E+02  .318E+02  .313E+02  .350E+02  .468E+02  .333E+02  .450E+02  .323E+02
  .320E+02  .320E+02  .320E+02  .320E+02  .318E+02  .309E+02  .309E+02  .309E+02
  .309E+02  .309E+02  .309E+02  .309E+02  .305E+02  .309E+02  .305E+02  .309E+02
  .320E+02  .305E+02  .309E+02  .305E+02  .309E+02  .713E+02  .320E+02  .309E+02
  .305E+02  .320E+02  .320E+02  .309E+02  .547E+02  .309E+02  .309E+02  .604E+02
  .404E+02  .303E+02  .613E+02  .678E+02  .121E+02  .840E+02  .320E+02  .332E+02
  .554E+02  .576E+02  .524E+02  .949E+02  .334E+02  .194E+02  .992E+02  .105E+03
  .481E+02  .400E+02  .407E+02  .416E+02
  .303E+02  .303E+02  .303E+02  .303E+02  .320E+02  .303E+02  .621E+02  .257E+02
  .304E+02  .606E+02  .289E+02  .342E+02  .604E+02  .324E+02  .364E+02  .339E+02
  .306E+02  .323E+02  .319E+02  .406E+02  .312E+02  .318E+02  .314E+02  .417E+02
  .351E+02  .366E+02  .426E+02  .332E+02  .317E+02  .445E+02  .355E+02  .307E+02
  .306E+02  .337E+02  .336E+02  .317E+02  .448E+02  .540E+02  .332E+02  .320E+02
  .638E+02  .319E+02  .318E+02  .351E+02  .333E+02  .324E+02  .320E+02  .320E+02
  .320E+02  .320E+02  .319E+02  .319E+02  .319E+02  .303E+02  .303E+02  .303E+02
  .319E+02  .303E+02  .303E+02  .303E+02  .319E+02  .303E+02  .319E+02  .303E+02
  .303E+02  .303E+02  .303E+02  .303E+02  .303E+02  .303E+02  .319E+02  .303E+02
  .303E+02  .310E+02  .319E+02  .303E+02  .319E+02  .303E+02  .303E+02  .303E+02
  .303E+02  .303E+02  .303E+02  .319E+02  .303E+02  .303E+02  .303E+02  .319E+02
  .319E+02  .319E+02  .303E+02  .303E+02  .303E+02  .303E+02  .303E+02  .303E+02
  .303E+02  .303E+02  .303E+02  .303E+02
  .304E+02  .304E+02  .303E+02  .305E+02  .304E+02  .320E+02  .304E+02  .304E+02
  .304E+02  .306E+02  .304E+02  .316E+02  .304E+02  .324E+02  .353E+02  .339E+02
  .305E+02  .323E+02  .320E+02  .413E+02  .311E+02  .317E+02  .335E+02  .416E+02
  .351E+02  .334E+02  .424E+02  .331E+02  .316E+02  .440E+02  .357E+02  .306E+02
  .306E+02  .388E+02  .335E+02  .317E+02  .446E+02  .538E+02  .333E+02  .324E+02
  .637E+02  .318E+02  .313E+02  .350E+02  .468E+02  .333E+02  .450E+02  .323E+02
  .320E+02  .320E+02  .320E+02  .320E+02  .318E+02  .309E+02  .309E+02  .309E+02
  .309E+02  .309E+02  .309E+02  .309E+02  .305E+02  .309E+02  .305E+02  .309E+02
  .320E+02  .305E+02  .309E+02  .305E+02  .309E+02  .713E+02  .320E+02  .309E+02
  .305E+02  .320E+02  .320E+02  .309E+02  .547E+02  .309E+02  .309E+02  .604E+02
  .404E+02  .303E+02  .613E+02  .678E+02  .121E+02  .840E+02  .320E+02  .332E+02
  .554E+02  .576E+02  .524E+02  .949E+02  .334E+02  .194E+02  .992E+02  .105E+03
  .481E+02  .400E+02  .407E+02  .416E+02
Damping =  .02. Data of Sd,Sv,Sa,Pssv,ttSd,ttSv,ttSa :
  .110E-03  .118E-03  .125E-03  .153E-03  .178E-03  .195E-03  .245E-03  .294E-03
  .385E-03  .378E-03  .498E-03  .760E-03  .113E-02  .129E-02  .151E-02  .174E-02
  .222E-02  .305E-02  .341E-02  .687E-02  .448E-02  .677E-02  .675E-02  .585E-02
  .771E-02  .985E-02  .122E-01  .267E-01  .183E-01  .155E-01  .140E-01  .106E-01
  .943E-02  .850E-02  .880E-02  .878E-02  .122E-01  .132E-01  .126E-01  .125E-01
  .121E-01  .915E-02  .815E-02  .850E-02  .854E-02  .790E-02  .679E-02  .762E-02
  .831E-02  .834E-02  .788E-02  .574E-02  .417E-02  .443E-02  .450E-02  .444E-02
  .433E-02  .432E-02  .439E-02  .390E-02  .361E-02  .445E-02  .383E-02  .438E-02
  .414E-02  .407E-02  .501E-02  .396E-02  .455E-02  .407E-02  .546E-02  .546E-02
  .539E-02  .606E-02  .626E-02  .556E-02  .555E-02  .792E-02  .664E-02  .672E-02
  .758E-02  .974E-02  .860E-02  .808E-02  .595E-02  .663E-02  .993E-02  .128E-01
  .163E-01  .219E-01  .218E-01  .180E-01  .119E-01  .114E-01  .124E-01  .123E-01
  .118E-01  .127E-01  .129E-01  .120E-01
  .643E-02  .619E-02  .695E-02  .857E-02  .855E-02  .888E-02  .118E-01  .210E-01
  .219E-01  .225E-01  .288E-01  .388E-01  .581E-01  .721E-01  .889E-01  .965E-01
  .106E+00  .144E+00  .149E+00  .294E+00  .184E+00  .250E+00  .238E+00  .208E+00
  .261E+00  .314E+00  .347E+00  .714E+00  .463E+00  .365E+00  .312E+00  .229E+00
  .191E+00  .175E+00  .170E+00  .157E+00  .219E+00  .219E+00  .219E+00  .206E+00
  .168E+00  .154E+00  .107E+00  .104E+00  .117E+00  .118E+00  .115E+00  .108E+00
  .960E-01  .896E-01  .960E-01  .984E-01  .911E-01  .846E-01  .835E-01  .819E-01
  .804E-01  .810E-01  .807E-01  .792E-01  .784E-01  .807E-01  .785E-01  .802E-01
  .792E-01  .777E-01  .808E-01  .786E-01  .799E-01  .778E-01  .790E-01  .823E-01
  .784E-01  .751E-01  .776E-01  .796E-01  .777E-01  .815E-01  .823E-01  .832E-01
  .830E-01  .796E-01  .765E-01  .761E-01  .774E-01  .782E-01  .763E-01  .790E-01
  .816E-01  .811E-01  .797E-01  .819E-01  .827E-01  .811E-01  .793E-01  .783E-01
  .780E-01  .781E-01  .784E-01  .788E-01
  .701E-02  .686E-02  .659E-02  .741E-02  .792E-02  .796E-02  .829E-02  .835E-02
  .934E-02  .786E-02  .909E-02  .121E-01  .161E-01  .163E-01  .172E-01  .180E-01
  .188E-01  .217E-01  .205E-01  .361E-01  .204E-01  .270E-01  .239E-01  .185E-01
  .217E-01  .253E-01  .256E-01  .475E-01  .276E-01  .203E-01  .159E-01  .106E-01
  .837E-02  .671E-02  .626E-02  .560E-02  .710E-02  .696E-02  .608E-02  .554E-02
  .496E-02  .310E-02  .232E-02  .206E-02  .178E-02  .144E-02  .109E-02  .108E-02
  .105E-02  .951E-03  .808E-03  .491E-03  .298E-03  .271E-03  .237E-03  .204E-03
  .175E-03  .155E-03  .141E-03  .113E-03  .943E-04  .960E-04  .713E-04  .684E-04
  .580E-04  .502E-04  .519E-04  .389E-04  .379E-04  .325E-04  .386E-04  .336E-04
  .310E-04  .329E-04  .314E-04  .246E-04  .223E-04  .243E-04  .179E-04  .156E-04
  .159E-04  .181E-04  .151E-04  .132E-04  .965E-05  .837E-05  .111E-04  .109E-04
  .991E-05  .114E-04  .102E-04  .806E-05  .502E-05  .329E-05  .326E-05  .287E-05
  .222E-05  .238E-05  .248E-05  .246E-05
  .172E-01  .177E-01  .178E-01  .210E-01  .233E-01  .245E-01  .280E-01  .307E-01
  .372E-01  .339E-01  .418E-01  .597E-01  .837E-01  .903E-01  .100E+00  .109E+00
  .127E+00  .160E+00  .165E+00  .308E+00  .188E+00  .266E+00  .249E+00  .204E+00
  .255E+00  .310E+00  .348E+00  .700E+00  .442E+00  .347E+00  .293E+00  .209E+00
  .174E+00  .148E+00  .146E+00  .138E+00  .183E+00  .188E+00  .172E+00  .164E+00
  .152E+00  .105E+00  .854E-01  .822E-01  .767E-01  .661E-01  .533E-01  .563E-01
  .580E-01  .551E-01  .495E-01  .328E-01  .218E-01  .214E-01  .202E-01  .186E-01
  .170E-01  .160E-01  .153E-01  .129E-01  .113E-01  .127E-01  .100E-01  .106E-01
  .930E-02  .853E-02  .983E-02  .732E-02  .794E-02  .673E-02  .858E-02  .817E-02
  .770E-02  .827E-02  .819E-02  .699E-02  .634E-02  .829E-02  .642E-02  .603E-02
  .635E-02  .765E-02  .636E-02  .564E-02  .394E-02  .417E-02  .567E-02  .671E-02
  .790E-02  .981E-02  .912E-02  .708E-02  .415E-02  .359E-02  .354E-02  .322E-02
  .284E-02  .285E-02  .270E-02  .236E-02
  .304E+02  .304E+02  .304E+02  .304E+02  .304E+02  .304E+02  .304E+02  .304E+02
  .304E+02  .306E+02  .304E+02  .304E+02  .304E+02  .304E+02  .304E+02  .305E+02
  .306E+02  .315E+02  .307E+02  .324E+02  .310E+02  .308E+02  .309E+02  .305E+02
  .304E+02  .304E+02  .338E+02  .324E+02  .311E+02  .310E+02  .336E+02  .306E+02
  .306E+02  .306E+02  .335E+02  .335E+02  .335E+02  .334E+02  .326E+02  .324E+02
  .320E+02  .318E+02  .313E+02  .334E+02  .324E+02  .333E+02  .323E+02  .320E+02
  .320E+02  .320E+02  .320E+02  .320E+02  .309E+02  .309E+02  .309E+02  .309E+02
  .309E+02  .309E+02  .309E+02  .309E+02  .309E+02  .309E+02  .305E+02  .309E+02
  .320E+02  .320E+02  .309E+02  .320E+02  .309E+02  .320E+02  .320E+02  .309E+02
  .305E+02  .320E+02  .320E+02  .309E+02  .320E+02  .309E+02  .309E+02  .318E+02
  .334E+02  .303E+02  .305E+02  .320E+02  .320E+02  .691E+02  .320E+02  .332E+02
  .557E+02  .508E+02  .523E+02  .467E+02  .334E+02  .192E+02  .663E+02  .692E+02
  .481E+02  .400E+02  .407E+02  .416E+02
  .303E+02  .102E+02  .303E+02  .303E+02  .303E+02  .303E+02  .960E+01  .101E+02
  .271E+02  .302E+02  .303E+02  .303E+02  .304E+02  .304E+02  .305E+02  .305E+02
  .306E+02  .315E+02  .307E+02  .317E+02  .311E+02  .307E+02  .308E+02  .304E+02
  .304E+02  .304E+02  .337E+02  .325E+02  .313E+02  .311E+02  .337E+02  .307E+02
  .306E+02  .306E+02  .336E+02  .336E+02  .334E+02  .333E+02  .320E+02  .320E+02
  .319E+02  .319E+02  .318E+02  .335E+02  .333E+02  .320E+02  .320E+02  .320E+02
  .320E+02  .319E+02  .319E+02  .319E+02  .319E+02  .319E+02  .303E+02  .303E+02
  .303E+02  .303E+02  .303E+02  .303E+02  .303E+02  .303E+02  .303E+02  .303E+02
  .303E+02  .303E+02  .303E+02  .303E+02  .303E+02  .303E+02  .303E+02  .303E+02
  .303E+02  .303E+02  .319E+02  .303E+02  .319E+02  .303E+02  .303E+02  .303E+02
  .303E+02  .303E+02  .303E+02  .303E+02  .303E+02  .303E+02  .303E+02  .319E+02
  .319E+02  .319E+02  .303E+02  .303E+02  .303E+02  .303E+02  .303E+02  .303E+02
  .303E+02  .303E+02  .303E+02  .303E+02
  .304E+02  .304E+02  .304E+02  .304E+02  .304E+02  .304E+02  .304E+02  .304E+02
  .304E+02  .306E+02  .304E+02  .304E+02  .304E+02  .304E+02  .304E+02  .305E+02
  .306E+02  .315E+02  .307E+02  .324E+02  .310E+02  .308E+02  .309E+02  .309E+02
  .304E+02  .304E+02  .338E+02  .324E+02  .311E+02  .310E+02  .336E+02  .306E+02
  .306E+02  .306E+02  .335E+02  .335E+02  .335E+02  .334E+02  .326E+02  .324E+02
  .320E+02  .318E+02  .313E+02  .334E+02  .324E+02  .332E+02  .323E+02  .320E+02
  .320E+02  .320E+02  .320E+02  .320E+02  .309E+02  .309E+02  .309E+02  .309E+02
  .309E+02  .309E+02  .309E+02  .309E+02  .309E+02  .309E+02  .305E+02  .320E+02
  .320E+02  .320E+02  .309E+02  .320E+02  .309E+02  .320E+02  .320E+02  .309E+02
  .305E+02  .319E+02  .319E+02  .309E+02  .319E+02  .309E+02  .309E+02  .318E+02
  .302E+02  .302E+02  .319E+02  .319E+02  .319E+02  .319E+02  .319E+02  .319E+02
  .556E+02  .507E+02  .303E+02  .303E+02  .333E+02  .302E+02  .319E+02  .319E+02
  .319E+02  .303E+02  .303E+02  .303E+02
Damping =  .05. Data of Sd,Sv,Sa,Pssv,ttSd,ttSv,ttSa :
  .103E-03  .116E-03  .129E-03  .149E-03  .171E-03  .190E-03  .240E-03  .298E-03
