Response and Fourier amplitude spectra (** periods,  .04 - 32.0 sec)   for      
Corrected accelerogram   89324-VAA6D-21355.06       Chan 17:  Tran       from   
Uncorrected Accelerogram Data             Processed: 12/21/21, CGS  aa6de006    
Rcrd of Mon Dec 20, 2021 13:53:27.0 PST           (Avol1 v6.5,64b, 1/20; PC00)  
CSMIP Preliminary Processing            (Origin:  To be determined)             
89324-VAA6D-21355.06                 Start time: 12/20/21, 21:53:27.0 UTC (GPS) 
Station No. 89324   40.503N, 124.101W    130-MC  s/n AA6D (17 Chns of 17 at Sta)
Rio Dell - Hwy 101/Painter St. Overpass   CGS   Data: Acceleration              
Chan 17:  Tran    (Sta Chn: 20)     Location: On Ground: Near West Abutment     
Rcrd of Mon Dec 20, 2021 13:53:27.0 PST    Mon Dec 20, 2021 13:53:27.0 PST      
Hypocenter:  To be determined.               ML:  To be determined.
Instr Period = 0.0008 sec,  Damping = 0.100,  Sensitivity = 1.63 v/g
                        Record Length = 65.610 sec.
                                     Uncor Max  =  0.027 g, at   30.230 sec.
RMS accel of (uncor) record  =        .   Chn. metadata effective date: 04/02/10
Accelerogram bandpass filtered with 3 dB pts at   .07 and 40.00 cyc/sec
                 instrument- and base-line correcte





Rcrd of Mon Dec 20, 2021 13:53:27.0 PST    Mon Dec 20, 2021 13:53:27.0 PST

89324-VAA6D-21355.06      Rio Dell - Hwy 101/Painter St. Overpass   Chan 17:  Tr
an
89324-VAA6D-21355.06      Rio Dell - Hwy 101/Painter St. Overpass   Chan 17:  Tr
an
Units for spectra are inches and sec, except Sa is in fraction of g.

   17  100   20   18   17  200    1    3    1   32  706 -999    089324    3    0
   21   53   27    0  354   12   20 2021   10    3  90013122   39   39   74   -1
13122    1  100    3 -999    1    6 -999 -999 -999 -999 -999 -999 -999 -999 -999
 -999 -999 -999 -999 6561    2  100    1   24  253 -999 -999    3    1 -999 6561
    3 6561    4  100    5   17    5    0    0 -999    0    0 -999 -999    1    2
    2    2    4    0   66   67    0    2 -999    0    0    1 4096 -999    0  222
    1 -999   18 -999
      .001      .100    65.610      .001     1.000  1628.000      .027    30.230
  1300.000     1.584      .973  -999.000     5.000  -999.000     4.000  -999.000
    10.000   -16.981    10.000   312.000    30.400    29.995  -999.000     -.010
      .002      .012     2.000    15.000    40.503  -124.101      .101      .071
      .701     -.002      .026    43.000    30.398    35.609    13.300  -999.000
     1.000  -999.000    -8.000  -999.000  -999.000  -999.000  -999.000   120.000
     6.500     6.500     7.500   980.665      .010    65.610   206.901      .000
  -999.000    40.000  -999.000    65.610      .010      .067  -999.000  -999.000
    30.230    25.971    30.260      .783     8.600      .031      .002      .067
    40.000      .010      .010     -.007      .010      .008  -999.000  -999.000
      .071      .110      .058      .031      .001      .000  -999.000  -999.000
  -999.000  -999.000  -999.000  -999.000  -999.000  -999.000  -999.000  -999.000
  -999.000  -999.000  -999.000  -999.000
      .000      .020      .050      .100      .200
      .040      .042      .044      .046      .048      .050      .055      .060
      .065      .070      .075      .080      .085      .090      .095      .100
      .110      .120      .130      .140      .150      .160      .170      .180
      .190      .200      .220      .240      .260      .280      .300      .320
      .340      .360      .380      .400      .420      .440      .460      .480
      .500      .550      .600      .650      .700      .750      .800      .850
      .900      .950     1.000     1.100     1.200     1.300     1.400     1.500
     1.600     1.700     1.800     1.900     2.000     2.200     2.400     2.600
     2.800     3.000     3.200     3.400     3.600     3.800     4.000     4.200
     4.400     4.600     4.800     5.000     5.500     6.000     6.500     7.000
     7.500     8.000     8.500     9.000     9.500    10.000    11.000    12.000
    13.000    14.000    15.000    16.000    18.000    20.000    22.000    24.000
    26.000    28.000    30.000    32.000
Fourier amplitude spectra in in/sec.
  .194E-01  .305E-01  .677E-01  .170E-01  .870E-01  .290E-01  .115E+00  .127E+00
  .150E+00  .106E+00  .785E-01  .140E+00  .125E+00  .299E+00  .149E+00  .623E+00
  .677E+00  .748E+00  .282E+00  .286E+00  .272E+00  .558E+00  .696E+00  .908E+00
  .108E+01  .547E+00  .210E+00  .149E+01  .780E+00  .188E+01  .858E+00  .557E+00
  .102E+01  .326E+00  .148E+00  .446E+00  .401E+00  .444E+00  .264E+00  .179E+00
  .851E-01  .177E+00  .133E+00  .103E+00  .616E-01  .816E-01  .106E+00  .425E-01
  .576E-01  .650E-01  .329E-01  .486E-01  .552E-01  .306E-01  .869E-02  .189E-01
  .699E-02  .379E-02  .169E-01  .108E-01  .136E-01  .929E-02  .988E-02  .177E-01
  .206E-01  .868E-02  .687E-02  .644E-02  .368E-02  .161E-01  .199E-01  .802E-02
  .228E-02  .135E-01  .276E-01  .280E-01  .174E-01  .114E-01  .145E-01  .584E-02
  .293E-01  .228E-01  .165E-01  .242E-01  .208E-01  .124E-01  .174E-01  .126E-01
  .924E-03  .884E-02  .109E-01  .103E-01  .120E-01  .130E-01  .114E-01  .972E-02
  .874E-02  .814E-02  .750E-02  .669E-02
Damping =  .00. Data of Sd,Sv,Sa,Pssv,ttSd,ttSv,ttSa :
  .463E-03  .676E-03  .718E-03  .738E-03  .130E-02  .896E-03  .121E-02  .128E-02
  .310E-02  .263E-02  .272E-02  .356E-02  .331E-02  .516E-02  .502E-02  .105E-01
  .151E-01  .158E-01  .802E-02  .889E-02  .934E-02  .147E-01  .220E-01  .313E-01
  .335E-01  .301E-01  .371E-01  .700E-01  .442E-01  .861E-01  .586E-01  .361E-01
  .579E-01  .289E-01  .282E-01  .329E-01  .290E-01  .369E-01  .219E-01  .163E-01
  .156E-01  .190E-01  .179E-01  .148E-01  .142E-01  .156E-01  .148E-01  .145E-01
  .133E-01  .136E-01  .131E-01  .123E-01  .128E-01  .120E-01  .138E-01  .146E-01
  .150E-01  .129E-01  .133E-01  .136E-01  .115E-01  .126E-01  .150E-01  .162E-01
  .176E-01  .150E-01  .173E-01  .155E-01  .165E-01  .222E-01  .174E-01  .113E-01
  .135E-01  .192E-01  .243E-01  .258E-01  .217E-01  .136E-01  .150E-01  .230E-01
  .350E-01  .328E-01  .309E-01  .380E-01  .412E-01  .363E-01  .305E-01  .253E-01
  .277E-01  .288E-01  .289E-01  .356E-01  .441E-01  .420E-01  .412E-01  .427E-01
  .391E-01  .386E-01  .358E-01  .347E-01
  .484E-01  .522E-01  .734E-01  .695E-01  .144E+00  .592E-01  .115E+00  .127E+00
  .207E+00  .182E+00  .182E+00  .224E+00  .191E+00  .302E+00  .265E+00  .670E+00
  .836E+00  .809E+00  .389E+00  .392E+00  .376E+00  .573E+00  .798E+00  .107E+01
  .111E+01  .924E+00  .105E+01  .185E+01  .107E+01  .193E+01  .125E+01  .756E+00
  .107E+01  .590E+00  .531E+00  .533E+00  .517E+00  .538E+00  .485E+00  .460E+00
  .448E+00  .433E+00  .411E+00  .394E+00  .383E+00  .371E+00  .355E+00  .351E+00
  .349E+00  .333E+00  .343E+00  .332E+00  .336E+00  .335E+00  .332E+00  .319E+00
  .316E+00  .308E+00  .330E+00  .312E+00  .315E+00  .312E+00  .317E+00  .324E+00
  .303E+00  .315E+00  .308E+00  .307E+00  .313E+00  .307E+00  .296E+00  .301E+00
  .310E+00  .311E+00  .306E+00  .297E+00  .287E+00  .301E+00  .298E+00  .301E+00
  .315E+00  .325E+00  .324E+00  .316E+00  .305E+00  .297E+00  .292E+00  .299E+00
  .307E+00  .312E+00  .312E+00  .309E+00  .301E+00  .296E+00  .294E+00  .294E+00
  .296E+00  .298E+00  .300E+00  .301E+00
  .296E-01  .392E-01  .379E-01  .357E-01  .577E-01  .366E-01  .408E-01  .363E-01
  .751E-01  .549E-01  .495E-01  .570E-01  .468E-01  .652E-01  .569E-01  .108E+00
  .128E+00  .112E+00  .485E-01  .464E-01  .425E-01  .589E-01  .779E-01  .990E-01
  .950E-01  .769E-01  .784E-01  .124E+00  .669E-01  .112E+00  .666E-01  .360E-01
  .512E-01  .228E-01  .200E-01  .210E-01  .168E-01  .195E-01  .106E-01  .722E-02
  .638E-02  .643E-02  .509E-02  .359E-02  .297E-02  .284E-02  .236E-02  .205E-02
  .168E-02  .154E-02  .134E-02  .104E-02  .911E-03  .728E-03  .720E-03  .663E-03
  .598E-03  .458E-03  .419E-03  .386E-03  .294E-03  .266E-03  .266E-03  .245E-03
  .230E-03  .170E-03  .172E-03  .137E-03  .131E-03  .157E-03  .111E-03  .654E-04
  .713E-04  .926E-04  .108E-03  .106E-03  .734E-04  .385E-04  .363E-04  .479E-04
  .636E-04  .524E-04  .437E-04  .479E-04  .467E-04  .372E-04  .258E-04  .180E-04
  .168E-04  .150E-04  .131E-04  .142E-04  .139E-04  .107E-04  .871E-05  .758E-05
  .592E-05  .503E-05  .407E-05  .346E-05
  .727E-01  .101E+00  .103E+00  .101E+00  .170E+00  .113E+00  .138E+00  .134E+00
  .300E+00  .236E+00  .228E+00  .280E+00  .244E+00  .360E+00  .332E+00  .662E+00
  .862E+00  .826E+00  .388E+00  .399E+00  .391E+00  .578E+00  .813E+00  .109E+01
  .111E+01  .944E+00  .106E+01  .183E+01  .107E+01  .193E+01  .123E+01  .708E+00
  .107E+01  .504E+00  .467E+00  .516E+00  .434E+00  .527E+00  .300E+00  .213E+00
  .196E+00  .217E+00  .188E+00  .143E+00  .128E+00  .131E+00  .116E+00  .107E+00
  .927E-01  .897E-01  .824E-01  .701E-01  .672E-01  .581E-01  .620E-01  .611E-01
  .588E-01  .479E-01  .463E-01  .451E-01  .361E-01  .359E-01  .392E-01  .391E-01
  .396E-01  .314E-01  .339E-01  .287E-01  .289E-01  .367E-01  .273E-01  .169E-01
  .193E-01  .262E-01  .318E-01  .325E-01  .248E-01  .142E-01  .145E-01  .206E-01
  .293E-01  .258E-01  .228E-01  .265E-01  .273E-01  .228E-01  .174E-01  .133E-01
  .134E-01  .129E-01  .121E-01  .140E-01  .154E-01  .132E-01  .118E-01  .112E-01
  .945E-02  .866E-02  .750E-02  .681E-02
  .302E+02  .302E+02  .302E+02  .303E+02  .303E+02  .302E+02  .303E+02  .303E+02
  .302E+02  .303E+02  .303E+02  .303E+02  .303E+02  .303E+02  .302E+02  .310E+02
  .306E+02  .315E+02  .303E+02  .303E+02  .301E+02  .355E+02  .315E+02  .318E+02
  .406E+02  .303E+02  .305E+02  .322E+02  .309E+02  .398E+02  .325E+02  .315E+02
  .414E+02  .319E+02  .316E+02  .359E+02  .446E+02  .353E+02  .337E+02  .303E+02
  .303E+02  .411E+02  .336E+02  .302E+02  .302E+02  .345E+02  .399E+02  .302E+02
  .302E+02  .302E+02  .302E+02  .302E+02  .302E+02  .302E+02  .302E+02  .302E+02
  .302E+02  .302E+02  .302E+02  .302E+02  .302E+02  .302E+02  .302E+02  .302E+02
  .302E+02  .302E+02  .302E+02  .302E+02  .302E+02  .302E+02  .302E+02  .302E+02
  .302E+02  .302E+02  .302E+02  .302E+02  .319E+02  .301E+02  .673E+02  .301E+02
  .649E+02  .519E+02  .456E+02  .302E+02  .302E+02  .302E+02  .662E+02  .180E+02
  .184E+02  .187E+02  .189E+02  .302E+02  .302E+02  .319E+02  .350E+02  .600E+02
  .375E+02  .541E+02  .718E+02  .301E+02
  .303E+02  .241E+02  .613E+02  .303E+02  .303E+02  .303E+02  .635E+02  .625E+02
  .302E+02  .303E+02  .303E+02  .303E+02  .303E+02  .303E+02  .300E+02  .310E+02
  .306E+02  .355E+02  .304E+02  .304E+02  .301E+02  .367E+02  .315E+02  .317E+02
  .406E+02  .305E+02  .305E+02  .323E+02  .309E+02  .398E+02  .324E+02  .315E+02
  .413E+02  .303E+02  .303E+02  .303E+02  .303E+02  .352E+02  .303E+02  .303E+02
  .303E+02  .303E+02  .303E+02  .303E+02  .303E+02  .303E+02  .303E+02  .303E+02
  .303E+02  .303E+02  .303E+02  .303E+02  .303E+02  .303E+02  .303E+02  .303E+02
  .303E+02  .303E+02  .303E+02  .303E+02  .303E+02  .303E+02  .303E+02  .303E+02
  .303E+02  .303E+02  .303E+02  .303E+02  .303E+02  .303E+02  .303E+02  .303E+02
  .303E+02  .303E+02  .303E+02  .303E+02  .303E+02  .303E+02  .303E+02  .303E+02
  .303E+02  .303E+02  .303E+02  .303E+02  .303E+02  .303E+02  .303E+02  .303E+02
  .303E+02  .303E+02  .303E+02  .303E+02  .303E+02  .303E+02  .303E+02  .303E+02
  .303E+02  .303E+02  .303E+02  .303E+02
  .302E+02  .302E+02  .302E+02  .303E+02  .303E+02  .302E+02  .303E+02  .303E+02
  .302E+02  .303E+02  .303E+02  .303E+02  .303E+02  .303E+02  .302E+02  .310E+02
  .306E+02  .315E+02  .303E+02  .303E+02  .301E+02  .355E+02  .315E+02  .318E+02
  .406E+02  .303E+02  .305E+02  .322E+02  .309E+02  .398E+02  .325E+02  .315E+02
  .414E+02  .319E+02  .316E+02  .359E+02  .446E+02  .353E+02  .337E+02  .303E+02
  .303E+02  .411E+02  .336E+02  .302E+02  .302E+02  .345E+02  .399E+02  .302E+02
  .302E+02  .302E+02  .302E+02  .302E+02  .302E+02  .302E+02  .302E+02  .302E+02
  .302E+02  .302E+02  .302E+02  .302E+02  .302E+02  .302E+02  .302E+02  .302E+02
  .302E+02  .302E+02  .302E+02  .302E+02  .302E+02  .302E+02  .302E+02  .302E+02
  .302E+02  .302E+02  .302E+02  .302E+02  .319E+02  .301E+02  .673E+02  .301E+02
  .649E+02  .519E+02  .456E+02  .302E+02  .302E+02  .302E+02  .662E+02  .180E+02
  .184E+02  .187E+02  .189E+02  .302E+02  .302E+02  .319E+02  .350E+02  .600E+02
  .375E+02  .541E+02  .718E+02  .301E+02
Damping =  .02. Data of Sd,Sv,Sa,Pssv,ttSd,ttSv,ttSa :
  .434E-03  .495E-03  .544E-03  .617E-03  .690E-03  .744E-03  .961E-03  .128E-02
  .154E-02  .196E-02  .255E-02  .294E-02  .357E-02  .448E-02  .519E-02  .752E-02
  .104E-01  .107E-01  .877E-02  .749E-02  .865E-02  .123E-01  .166E-01  .213E-01
  .248E-01  .271E-01  .307E-01  .384E-01  .342E-01  .411E-01  .372E-01  .289E-01
  .268E-01  .238E-01  .213E-01  .215E-01  .198E-01  .184E-01  .177E-01  .166E-01
  .159E-01  .144E-01  .139E-01  .138E-01  .139E-01  .140E-01  .139E-01  .135E-01
  .131E-01  .129E-01  .133E-01  .125E-01  .129E-01  .127E-01  .138E-01  .141E-01
  .141E-01  .126E-01  .129E-01  .134E-01  .123E-01  .131E-01  .144E-01  .161E-01
  .169E-01  .154E-01  .167E-01  .159E-01  .169E-01  .197E-01  .170E-01  .135E-01
  .147E-01  .185E-01  .218E-01  .225E-01  .175E-01  .125E-01  .127E-01  .197E-01
  .220E-01  .254E-01  .250E-01  .331E-01  .363E-01  .328E-01  .229E-01  .238E-01
  .260E-01  .271E-01  .271E-01  .329E-01  .405E-01  .385E-01  .372E-01  .374E-01
  .355E-01  .329E-01  .311E-01  .324E-01
  .285E-01  .297E-01  .334E-01  .340E-01  .352E-01  .391E-01  .494E-01  .743E-01
  .956E-01  .122E+00  .149E+00  .170E+00  .201E+00  .252E+00  .312E+00  .458E+00
  .595E+00  .549E+00  .414E+00  .320E+00  .335E+00  .476E+00  .591E+00  .697E+00
  .769E+00  .825E+00  .884E+00  .986E+00  .835E+00  .920E+00  .823E+00  .613E+00
  .585E+00  .568E+00  .535E+00  .523E+00  .507E+00  .489E+00  .476E+00  .461E+00
  .448E+00  .425E+00  .408E+00  .391E+00  .380E+00  .371E+00  .359E+00  .350E+00
  .347E+00  .343E+00  .343E+00  .334E+00  .333E+00  .332E+00  .329E+00  .323E+00
  .319E+00  .315E+00  .322E+00  .316E+00  .317E+00  .316E+00  .318E+00  .320E+00
  .309E+00  .312E+00  .310E+00  .309E+00  .311E+00  .307E+00  .300E+00  .303E+00
  .308E+00  .309E+00  .305E+00  .299E+00  .291E+00  .300E+00  .300E+00  .303E+00
  .313E+00  .321E+00  .321E+00  .314E+00  .306E+00  .299E+00  .295E+00  .300E+00
  .306E+00  .310E+00  .310E+00  .308E+00  .301E+00  .297E+00  .295E+00  .295E+00
  .296E+00  .298E+00  .300E+00  .301E+00
  .277E-01  .287E-01  .288E-01  .298E-01  .307E-01  .305E-01  .325E-01  .364E-01
  .373E-01  .411E-01  .464E-01  .472E-01  .505E-01  .566E-01  .590E-01  .762E-01
  .882E-01  .765E-01  .532E-01  .393E-01  .392E-01  .496E-01  .589E-01  .670E-01
  .706E-01  .696E-01  .647E-01  .682E-01  .519E-01  .536E-01  .424E-01  .289E-01
  .237E-01  .188E-01  .151E-01  .138E-01  .115E-01  .974E-02  .855E-02  .739E-02
  .653E-02  .488E-02  .397E-02  .337E-02  .292E-02  .257E-02  .226E-02  .195E-02
  .168E-02  .149E-02  .139E-02  .108E-02  .936E-03  .791E-03  .739E-03  .659E-03
  .579E-03  .464E-03  .423E-03  .396E-03  .330E-03  .290E-03  .271E-03  .258E-03
  .234E-03  .189E-03  .181E-03  .154E-03  .147E-03  .153E-03  .122E-03  .914E-04
  .901E-04  .101E-03  .109E-03  .104E-03  .626E-04  .432E-04  .379E-04  .499E-04
  .493E-04  .409E-04  .404E-04  .501E-04  .493E-04  .417E-04  .223E-04  .194E-04
  .186E-04  .141E-04  .162E-04  .187E-04  .180E-04  .137E-04  .926E-05  .757E-05
  .857E-05  .883E-05  .866E-05  .823E-05
  .681E-01  .741E-01  .777E-01  .842E-01  .904E-01  .934E-01  .110E+00  .134E+00
  .149E+00  .176E+00  .214E+00  .231E+00  .264E+00  .313E+00  .343E+00  .472E+00
  .596E+00  .562E+00  .424E+00  .336E+00  .362E+00  .485E+00  .615E+00  .745E+00
  .819E+00  .850E+00  .878E+00  .101E+01  .827E+00  .922E+00  .780E+00  .568E+00
  .496E+00  .415E+00  .352E+00  .338E+00  .296E+00  .263E+00  .242E+00  .218E+00
  .200E+00  .165E+00  .146E+00  .134E+00  .124E+00  .117E+00  .109E+00  .998E-01
  .912E-01  .855E-01  .834E-01  .717E-01  .673E-01  .615E-01  .619E-01  .590E-01
  .552E-01  .467E-01  .450E-01  .445E-01  .387E-01  .374E-01  .378E-01  .389E-01
  .378E-01  .322E-01  .328E-01  .293E-01  .295E-01  .326E-01  .268E-01  .202E-01
  .210E-01  .252E-01  .286E-01  .283E-01  .200E-01  .131E-01  .122E-01  .177E-01
  .185E-01  .199E-01  .185E-01  .231E-01  .240E-01  .206E-01  .131E-01  .124E-01
  .125E-01  .121E-01  .114E-01  .129E-01  .141E-01  .121E-01  .106E-01  .979E-02
  .859E-02  .739E-02  .652E-02  .636E-02
  .302E+02  .302E+02  .302E+02  .302E+02  .302E+02  .302E+02  .302E+02  .302E+02
  .302E+02  .303E+02  .303E+02  .303E+02  .303E+02  .303E+02  .303E+02  .304E+02
  .306E+02  .303E+02  .303E+02  .303E+02  .301E+02  .303E+02  .303E+02  .303E+02
  .303E+02  .303E+02  .305E+02  .321E+02  .308E+02  .321E+02  .318E+02  .306E+02
  .306E+02  .305E+02  .305E+02  .315E+02  .315E+02  .303E+02  .303E+02  .303E+02
  .303E+02  .303E+02  .302E+02  .302E+02  .302E+02  .302E+02  .302E+02  .302E+02
  .302E+02  .302E+02  .302E+02  .302E+02  .302E+02  .302E+02  .302E+02  .302E+02
  .302E+02  .302E+02  .302E+02  .302E+02  .302E+02  .302E+02  .302E+02  .302E+02
  .302E+02  .302E+02  .302E+02  .302E+02  .302E+02  .302E+02  .302E+02  .302E+02
  .302E+02  .302E+02  .302E+02  .302E+02  .319E+02  .301E+02  .301E+02  .301E+02
  .274E+02  .278E+02  .285E+02  .302E+02  .302E+02  .302E+02  .319E+02  .180E+02
  .184E+02  .186E+02  .189E+02  .302E+02  .302E+02  .319E+02  .340E+02  .364E+02
  .375E+02  .540E+02  .268E+02  .301E+02
  .303E+02  .303E+02  .303E+02  .303E+02  .303E+02  .303E+02  .304E+02  .303E+02
  .303E+02  .303E+02  .303E+02  .303E+02  .303E+02  .303E+02  .304E+02  .305E+02
  .304E+02  .304E+02  .303E+02  .304E+02  .301E+02  .303E+02  .304E+02  .304E+02
  .303E+02  .303E+02  .303E+02  .321E+02  .307E+02  .320E+02  .317E+02  .307E+02
  .302E+02  .303E+02  .303E+02  .303E+02  .303E+02  .303E+02  .303E+02  .303E+02
  .303E+02  .303E+02  .303E+02  .303E+02  .303E+02  .303E+02  .303E+02  .303E+02
  .303E+02  .303E+02  .303E+02  .303E+02  .303E+02  .303E+02  .303E+02  .303E+02
  .303E+02  .303E+02  .303E+02  .303E+02  .303E+02  .303E+02  .303E+02  .303E+02
  .303E+02  .303E+02  .303E+02  .303E+02  .303E+02  .303E+02  .303E+02  .303E+02
  .303E+02  .303E+02  .303E+02  .303E+02  .303E+02  .303E+02  .303E+02  .303E+02
  .303E+02  .303E+02  .303E+02  .303E+02  .303E+02  .303E+02  .303E+02  .303E+02
  .303E+02  .303E+02  .303E+02  .303E+02  .303E+02  .303E+02  .303E+02  .303E+02
  .303E+02  .303E+02  .303E+02  .303E+02
  .302E+02  .302E+02  .302E+02  .302E+02  .302E+02  .302E+02  .302E+02  .302E+02
  .302E+02  .303E+02  .303E+02  .303E+02  .303E+02  .303E+02  .303E+02  .304E+02
  .306E+02  .303E+02  .303E+02  .303E+02  .301E+02  .303E+02  .303E+02  .303E+02
  .303E+02  .303E+02  .305E+02  .321E+02  .308E+02  .321E+02  .318E+02  .306E+02
  .306E+02  .305E+02  .305E+02  .315E+02  .315E+02  .303E+02  .303E+02  .303E+02
  .303E+02  .303E+02  .302E+02  .302E+02  .302E+02  .302E+02  .302E+02  .302E+02
  .302E+02  .302E+02  .302E+02  .302E+02  .302E+02  .302E+02  .302E+02  .302E+02
  .302E+02  .302E+02  .302E+02  .302E+02  .302E+02  .302E+02  .302E+02  .302E+02
  .302E+02  .302E+02  .302E+02  .302E+02  .302E+02  .302E+02  .302E+02  .302E+02
  .302E+02  .302E+02  .302E+02  .302E+02  .319E+02  .300E+02  .300E+02  .303E+02
  .303E+02  .278E+02  .302E+02  .302E+02  .302E+02  .302E+02  .319E+02  .303E+02
  .303E+02  .185E+02  .302E+02  .302E+02  .302E+02  .302E+02  .302E+02  .303E+02
  .303E+02  .303E+02  .303E+02  .303E+02
Damping =  .05. Data of Sd,Sv,Sa,Pssv,ttSd,ttSv,ttSa :
  .434E-03  .490E-03  .548E-03  .614E-03  .681E-03  .746E-03  .967E-03  .122E-02
