Response and Fourier amplitude spectra (** periods,  .04 - 32.0 sec)   for      
Corrected accelerogram   89324-VAA6D-21355.06       Chan  9:  Tran       from   
Uncorrected Accelerogram Data             Processed: 12/21/21, CGS  aa6de006    
Rcrd of Mon Dec 20, 2021 13:53:27.0 PST           (Avol1 v6.5,64b, 1/20; PC00)  
CSMIP Preliminary Processing            (Origin:  To be determined)             
89324-VAA6D-21355.06                 Start time: 12/20/21, 21:53:27.0 UTC (GPS) 
Station No. 89324   40.503N, 124.101W    130-MC  s/n AA6D (17 Chns of 17 at Sta)
Rio Dell - Hwy 101/Painter St. Overpass   CGS   Data: Acceleration              
Chan  9:  Tran                      Location: Deck: Near East Abutment          
Rcrd of Mon Dec 20, 2021 13:53:27.0 PST    Mon Dec 20, 2021 13:53:27.0 PST      
Hypocenter:  To be determined.               ML:  To be determined.
Instr Period = 0.0008 sec,  Damping = 0.100,  Sensitivity = 1.64 v/g
                        Record Length = 65.610 sec.
                                     Uncor Max  =  0.024 g, at   30.265 sec.
RMS accel of (uncor) record  =        .   Chn. metadata effective date: 04/02/10
Accelerogram bandpass filtered with 3 dB pts at   .07 and 40.00 cyc/sec
                 instrument- and base-line correcte





Rcrd of Mon Dec 20, 2021 13:53:27.0 PST    Mon Dec 20, 2021 13:53:27.0 PST

89324-VAA6D-21355.06      Rio Dell - Hwy 101/Painter St. Overpass   Chan  9:  Tr
an
89324-VAA6D-21355.06      Rio Dell - Hwy 101/Painter St. Overpass   Chan  9:  Tr
an
Units for spectra are inches and sec, except Sa is in fraction of g.

    9  100    9   18   17  200    1    3    1   32  706 -999    089324    3    0
   21   53   27    0  354   12   20 2021   10    3  90013122   39   39   74   -1
13122    0  100    3 -999    1    6 -999 -999 -999 -999 -999 -999 -999 -999 -999
 -999 -999 -999 -999 6561    2  100    1   24  253 -999 -999    3    1 -999 6561
    3 6561    4  100    5   17    5    0    0 -999    0    0 -999 -999    1    2
    2    2    4    0   66   67    0    2 -999    0    0    1 4096 -999    0  222
    1 -999   10 -999
      .001      .100    65.610      .002     1.000  1640.000      .024    30.265
  1300.000     1.584      .966  -999.000     5.000  -999.000     4.000  -999.000
    10.000      .975    10.000   312.000    30.400    29.995  -999.000      .003
     -.001     -.004     2.000    15.000    40.503  -124.101      .098      .104
     1.055     -.019      .011    43.000    30.398    35.609    13.300  -999.000
     1.000  -999.000    -8.000  -999.000  -999.000  -999.000  -999.000   120.000
     6.500     6.500     7.500   980.665      .010    65.610   206.901      .000
  -999.000    40.000  -999.000    65.610      .010      .067  -999.000  -999.000
    30.270    23.660    30.320     1.017    30.260     -.046      .002      .067
    40.000      .010      .010     -.003      .010      .016  -999.000  -999.000
      .097      .260      .080      .067      .002      .000  -999.000  -999.000
  -999.000  -999.000  -999.000  -999.000  -999.000  -999.000  -999.000  -999.000
  -999.000  -999.000  -999.000  -999.000
      .000      .020      .050      .100      .200
      .040      .042      .044      .046      .048      .050      .055      .060
      .065      .070      .075      .080      .085      .090      .095      .100
      .110      .120      .130      .140      .150      .160      .170      .180
      .190      .200      .220      .240      .260      .280      .300      .320
      .340      .360      .380      .400      .420      .440      .460      .480
      .500      .550      .600      .650      .700      .750      .800      .850
      .900      .950     1.000     1.100     1.200     1.300     1.400     1.500
     1.600     1.700     1.800     1.900     2.000     2.200     2.400     2.600
     2.800     3.000     3.200     3.400     3.600     3.800     4.000     4.200
     4.400     4.600     4.800     5.000     5.500     6.000     6.500     7.000
     7.500     8.000     8.500     9.000     9.500    10.000    11.000    12.000
    13.000    14.000    15.000    16.000    18.000    20.000    22.000    24.000
    26.000    28.000    30.000    32.000
Fourier amplitude spectra in in/sec.
  .222E-01  .296E-01  .136E-01  .213E-01  .217E-01  .262E-01  .207E-01  .136E-01
  .348E-02  .106E-01  .394E-01  .273E-01  .177E-01  .707E-01  .109E+00  .182E+00
  .113E+00  .254E+00  .376E+00  .235E+00  .845E-01  .331E+00  .549E+00  .969E+00
  .107E+01  .721E+00  .481E+00  .356E+01  .170E+01  .316E+01  .279E+01  .873E+00
  .727E+00  .815E+00  .815E+00  .234E+00  .102E+01  .469E+00  .143E+00  .381E+00
  .141E+00  .687E-01  .145E+00  .435E-01  .131E+00  .420E-01  .679E-01  .582E-01
  .446E-01  .756E-01  .306E-01  .429E-01  .585E-01  .330E-01  .162E-01  .454E-01
  .320E-01  .304E-01  .204E-01  .167E-01  .260E-01  .150E-01  .162E-01  .136E-01
  .759E-02  .249E-01  .284E-01  .169E-01  .220E-01  .152E-01  .542E-02  .127E-01
  .325E-02  .861E-02  .780E-02  .247E-01  .292E-01  .105E-01  .114E-01  .114E-01
  .173E-01  .316E-01  .254E-01  .901E-02  .234E-01  .234E-01  .107E-01  .209E-01
  .519E-02  .169E-01  .274E-01  .268E-01  .108E-01  .281E-02  .733E-02  .662E-02
  .411E-02  .173E-02  .749E-03  .141E-02
Damping =  .00. Data of Sd,Sv,Sa,Pssv,ttSd,ttSv,ttSa :
  .466E-03  .612E-03  .517E-03  .638E-03  .672E-03  .638E-03  .834E-03  .916E-03
  .125E-02  .143E-02  .170E-02  .202E-02  .218E-02  .216E-02  .283E-02  .360E-02
  .413E-02  .637E-02  .983E-02  .845E-02  .106E-01  .141E-01  .214E-01  .296E-01
  .396E-01  .459E-01  .587E-01  .171E+00  .130E+00  .187E+00  .135E+00  .729E-01
  .603E-01  .529E-01  .496E-01  .428E-01  .732E-01  .402E-01  .332E-01  .351E-01
  .359E-01  .292E-01  .287E-01  .238E-01  .229E-01  .216E-01  .208E-01  .198E-01
  .192E-01  .198E-01  .212E-01  .195E-01  .188E-01  .197E-01  .222E-01  .179E-01
  .207E-01  .182E-01  .201E-01  .212E-01  .213E-01  .194E-01  .197E-01  .216E-01
  .198E-01  .225E-01  .203E-01  .287E-01  .219E-01  .207E-01  .246E-01  .246E-01
  .208E-01  .222E-01  .270E-01  .246E-01  .284E-01  .180E-01  .165E-01  .205E-01
  .224E-01  .402E-01  .350E-01  .453E-01  .402E-01  .373E-01  .389E-01  .400E-01
  .395E-01  .439E-01  .654E-01  .682E-01  .391E-01  .287E-01  .317E-01  .324E-01
  .294E-01  .253E-01  .213E-01  .182E-01
  .225E-01  .400E-01  .246E-01  .303E-01  .414E-01  .292E-01  .377E-01  .399E-01
  .515E-01  .412E-01  .436E-01  .608E-01  .100E+00  .113E+00  .143E+00  .197E+00
  .151E+00  .292E+00  .428E+00  .252E+00  .295E+00  .478E+00  .738E+00  .981E+00
  .125E+01  .138E+01  .158E+01  .443E+01  .313E+01  .423E+01  .285E+01  .151E+01
  .121E+01  .104E+01  .866E+00  .784E+00  .111E+01  .668E+00  .630E+00  .628E+00
  .621E+00  .569E+00  .550E+00  .513E+00  .496E+00  .491E+00  .478E+00  .458E+00
  .444E+00  .449E+00  .453E+00  .446E+00  .428E+00  .442E+00  .425E+00  .403E+00
  .424E+00  .386E+00  .404E+00  .421E+00  .434E+00  .403E+00  .416E+00  .414E+00
  .408E+00  .413E+00  .414E+00  .405E+00  .394E+00  .401E+00  .400E+00  .393E+00
  .392E+00  .396E+00  .392E+00  .380E+00  .390E+00  .400E+00  .390E+00  .395E+00
  .394E+00  .386E+00  .387E+00  .399E+00  .410E+00  .415E+00  .404E+00  .388E+00
  .384E+00  .390E+00  .398E+00  .404E+00  .409E+00  .407E+00  .403E+00  .400E+00
  .398E+00  .398E+00  .397E+00  .398E+00
  .298E-01  .355E-01  .273E-01  .309E-01  .298E-01  .261E-01  .282E-01  .260E-01
  .302E-01  .299E-01  .309E-01  .323E-01  .309E-01  .273E-01  .320E-01  .368E-01
  .349E-01  .453E-01  .595E-01  .441E-01  .480E-01  .564E-01  .756E-01  .933E-01
  .112E+00  .117E+00  .124E+00  .303E+00  .196E+00  .244E+00  .153E+00  .728E-01
  .534E-01  .417E-01  .352E-01  .273E-01  .425E-01  .213E-01  .161E-01  .156E-01
  .147E-01  .987E-02  .816E-02  .577E-02  .479E-02  .392E-02  .333E-02  .281E-02
  .243E-02  .225E-02  .217E-02  .165E-02  .134E-02  .119E-02  .116E-02  .815E-03
  .829E-03  .643E-03  .636E-03  .600E-03  .545E-03  .410E-03  .350E-03  .327E-03
  .258E-03  .256E-03  .203E-03  .254E-03  .173E-03  .147E-03  .157E-03  .143E-03
  .110E-03  .107E-03  .120E-03  .101E-03  .962E-04  .511E-04  .398E-04  .428E-04
  .408E-04  .643E-04  .495E-04  .572E-04  .456E-04  .381E-04  .329E-04  .284E-04
  .239E-04  .229E-04  .297E-04  .272E-04  .123E-04  .735E-05  .670E-05  .575E-05
  .445E-05  .329E-05  .242E-05  .182E-05
  .732E-01  .916E-01  .738E-01  .872E-01  .880E-01  .802E-01  .952E-01  .959E-01
  .121E+00  .129E+00  .142E+00  .159E+00  .161E+00  .151E+00  .187E+00  .226E+00
  .236E+00  .334E+00  .475E+00  .379E+00  .443E+00  .555E+00  .790E+00  .103E+01
  .131E+01  .144E+01  .168E+01  .447E+01  .314E+01  .419E+01  .282E+01  .143E+01
  .112E+01  .923E+00  .821E+00  .672E+00  .110E+01  .574E+00  .454E+00  .460E+00
  .452E+00  .334E+00  .301E+00  .231E+00  .206E+00  .181E+00  .164E+00  .147E+00
  .134E+00  .131E+00  .133E+00  .111E+00  .985E-01  .951E-01  .997E-01  .751E-01
  .815E-01  .672E-01  .703E-01  .700E-01  .670E-01  .555E-01  .517E-01  .522E-01
  .443E-01  .472E-01  .399E-01  .530E-01  .382E-01  .343E-01  .387E-01  .368E-01
  .298E-01  .303E-01  .353E-01  .309E-01  .325E-01  .188E-01  .159E-01  .184E-01
  .188E-01  .316E-01  .259E-01  .316E-01  .266E-01  .234E-01  .222E-01  .209E-01
  .191E-01  .197E-01  .274E-01  .268E-01  .136E-01  .903E-02  .906E-02  .848E-02
  .710E-02  .567E-02  .446E-02  .358E-02
  .303E+02  .303E+02  .303E+02  .303E+02  .302E+02  .302E+02  .303E+02  .304E+02
  .303E+02  .303E+02  .303E+02  .303E+02  .303E+02  .303E+02  .303E+02  .339E+02
  .304E+02  .321E+02  .339E+02  .303E+02  .303E+02  .303E+02  .309E+02  .309E+02
  .311E+02  .318E+02  .305E+02  .332E+02  .314E+02  .330E+02  .370E+02  .308E+02
  .307E+02  .319E+02  .395E+02  .330E+02  .410E+02  .342E+02  .304E+02  .342E+02
  .339E+02  .304E+02  .304E+02  .304E+02  .304E+02  .304E+02  .303E+02  .304E+02
  .303E+02  .303E+02  .304E+02  .303E+02  .303E+02  .304E+02  .303E+02  .304E+02
  .304E+02  .304E+02  .303E+02  .303E+02  .304E+02  .303E+02  .304E+02  .304E+02
  .304E+02  .303E+02  .303E+02  .303E+02  .303E+02  .303E+02  .303E+02  .303E+02
  .303E+02  .303E+02  .303E+02  .303E+02  .489E+02  .303E+02  .304E+02  .304E+02
  .634E+02  .808E+02  .304E+02  .304E+02  .304E+02  .822E+02  .303E+02  .675E+02
  .340E+02  .304E+02  .909E+02  .949E+02  .587E+02  .272E+02  .303E+02  .303E+02
  .303E+02  .303E+02  .303E+02  .109E+02
  .411E+02  .409E+02  .588E+02  .302E+02  .304E+02  .303E+02  .303E+02  .303E+02
  .303E+02  .310E+02  .338E+02  .311E+02  .311E+02  .306E+02  .307E+02  .341E+02
  .308E+02  .338E+02  .341E+02  .302E+02  .302E+02  .307E+02  .308E+02  .349E+02
  .311E+02  .318E+02  .306E+02  .333E+02  .314E+02  .329E+02  .369E+02  .307E+02
  .307E+02  .306E+02  .306E+02  .304E+02  .409E+02  .341E+02  .303E+02  .303E+02
  .303E+02  .303E+02  .303E+02  .303E+02  .303E+02  .303E+02  .303E+02  .303E+02
  .303E+02  .303E+02  .303E+02  .303E+02  .303E+02  .303E+02  .303E+02  .303E+02
  .303E+02  .303E+02  .303E+02  .303E+02  .303E+02  .303E+02  .303E+02  .303E+02
  .303E+02  .303E+02  .303E+02  .303E+02  .303E+02  .303E+02  .303E+02  .303E+02
  .303E+02  .303E+02  .303E+02  .303E+02  .303E+02  .303E+02  .303E+02  .303E+02
  .303E+02  .303E+02  .303E+02  .303E+02  .303E+02  .303E+02  .303E+02  .303E+02
  .303E+02  .303E+02  .303E+02  .303E+02  .303E+02  .303E+02  .303E+02  .303E+02
  .303E+02  .303E+02  .303E+02  .303E+02
  .303E+02  .303E+02  .303E+02  .303E+02  .302E+02  .302E+02  .303E+02  .304E+02
  .303E+02  .303E+02  .303E+02  .303E+02  .303E+02  .303E+02  .303E+02  .339E+02
  .304E+02  .321E+02  .339E+02  .303E+02  .303E+02  .303E+02  .309E+02  .309E+02
  .311E+02  .318E+02  .305E+02  .332E+02  .314E+02  .330E+02  .370E+02  .308E+02
  .307E+02  .319E+02  .395E+02  .330E+02  .410E+02  .342E+02  .304E+02  .342E+02
  .339E+02  .304E+02  .304E+02  .304E+02  .304E+02  .304E+02  .303E+02  .304E+02
  .303E+02  .303E+02  .304E+02  .303E+02  .303E+02  .304E+02  .303E+02  .304E+02
  .304E+02  .304E+02  .303E+02  .303E+02  .304E+02  .303E+02  .304E+02  .304E+02
  .304E+02  .303E+02  .303E+02  .303E+02  .303E+02  .303E+02  .303E+02  .303E+02
  .303E+02  .303E+02  .303E+02  .303E+02  .489E+02  .303E+02  .304E+02  .304E+02
  .634E+02  .808E+02  .304E+02  .304E+02  .304E+02  .822E+02  .303E+02  .675E+02
  .340E+02  .304E+02  .909E+02  .949E+02  .587E+02  .272E+02  .303E+02  .303E+02
  .303E+02  .303E+02  .303E+02  .109E+02
Damping =  .02. Data of Sd,Sv,Sa,Pssv,ttSd,ttSv,ttSa :
  .389E-03  .441E-03  .481E-03  .519E-03  .548E-03  .614E-03  .732E-03  .953E-03
  .117E-02  .138E-02  .158E-02  .187E-02  .208E-02  .227E-02  .248E-02  .287E-02
  .378E-02  .497E-02  .616E-02  .727E-02  .987E-02  .135E-01  .184E-01  .234E-01
  .303E-01  .347E-01  .498E-01  .768E-01  .933E-01  .964E-01  .736E-01  .620E-01
  .544E-01  .478E-01  .431E-01  .395E-01  .360E-01  .339E-01  .327E-01  .319E-01
  .307E-01  .280E-01  .272E-01  .249E-01  .239E-01  .227E-01  .214E-01  .206E-01
  .195E-01  .195E-01  .205E-01  .195E-01  .189E-01  .182E-01  .193E-01  .176E-01
  .180E-01  .172E-01  .179E-01  .183E-01  .189E-01  .186E-01  .187E-01  .192E-01
  .181E-01  .205E-01  .214E-01  .255E-01  .224E-01  .215E-01  .235E-01  .235E-01
  .216E-01  .223E-01  .241E-01  .219E-01  .237E-01  .171E-01  .169E-01  .194E-01
  .191E-01  .273E-01  .320E-01  .393E-01  .354E-01  .293E-01  .328E-01  .285E-01
  .329E-01  .396E-01  .488E-01  .509E-01  .347E-01  .261E-01  .292E-01  .303E-01
  .281E-01  .248E-01  .215E-01  .181E-01
  .124E-01  .130E-01  .130E-01  .156E-01  .199E-01  .201E-01  .256E-01  .311E-01
  .305E-01  .335E-01  .415E-01  .534E-01  .712E-01  .984E-01  .108E+00  .117E+00
  .142E+00  .212E+00  .227E+00  .215E+00  .275E+00  .408E+00  .532E+00  .693E+00
  .910E+00  .104E+01  .136E+01  .199E+01  .226E+01  .220E+01  .165E+01  .132E+01
  .112E+01  .968E+00  .832E+00  .762E+00  .691E+00  .651E+00  .628E+00  .616E+00
  .599E+00  .557E+00  .539E+00  .517E+00  .500E+00  .490E+00  .475E+00  .464E+00
  .452E+00  .444E+00  .445E+00  .443E+00  .430E+00  .428E+00  .423E+00  .413E+00
  .421E+00  .407E+00  .413E+00  .416E+00  .420E+00  .400E+00  .407E+00  .409E+00
  .410E+00  .412E+00  .411E+00  .405E+00  .398E+00  .400E+00  .399E+00  .395E+00
  .393E+00  .394E+00  .391E+00  .384E+00  .390E+00  .398E+00  .392E+00  .394E+00
  .393E+00  .388E+00  .390E+00  .398E+00  .407E+00  .411E+00  .403E+00  .391E+00
  .387E+00  .391E+00  .398E+00  .403E+00  .408E+00  .406E+00  .403E+00  .400E+00
  .399E+00  .398E+00  .398E+00  .398E+00
  .249E-01  .255E-01  .254E-01  .251E-01  .243E-01  .251E-01  .247E-01  .271E-01
  .282E-01  .288E-01  .288E-01  .298E-01  .294E-01  .287E-01  .281E-01  .294E-01
  .320E-01  .353E-01  .371E-01  .380E-01  .450E-01  .542E-01  .649E-01  .742E-01
  .859E-01  .889E-01  .105E+00  .137E+00  .141E+00  .126E+00  .838E-01  .622E-01
  .482E-01  .377E-01  .305E-01  .254E-01  .209E-01  .180E-01  .159E-01  .142E-01
  .125E-01  .946E-02  .774E-02  .606E-02  .501E-02  .416E-02  .345E-02  .294E-02
  .249E-02  .222E-02  .212E-02  .167E-02  .136E-02  .112E-02  .102E-02  .817E-03
  .738E-03  .628E-03  .582E-03  .535E-03  .501E-03  .410E-03  .350E-03  .307E-03
  .253E-03  .250E-03  .230E-03  .243E-03  .194E-03  .169E-03  .166E-03  .152E-03
  .130E-03  .123E-03  .122E-03  .105E-03  .962E-04  .643E-04  .562E-04  .554E-04
  .446E-04  .473E-04  .596E-04  .637E-04  .543E-04  .377E-04  .386E-04  .309E-04
  .254E-04  .321E-04  .325E-04  .289E-04  .192E-04  .128E-04  .130E-04  .119E-04
  .104E-04  .900E-05  .829E-05  .807E-05
  .611E-01  .659E-01  .686E-01  .709E-01  .717E-01  .772E-01  .836E-01  .998E-01
  .113E+00  .124E+00  .133E+00  .147E+00  .154E+00  .158E+00  .164E+00  .180E+00
  .216E+00  .260E+00  .298E+00  .326E+00  .413E+00  .531E+00  .680E+00  .818E+00
  .100E+01  .109E+01  .142E+01  .201E+01  .225E+01  .216E+01  .154E+01  .122E+01
  .101E+01  .834E+00  .713E+00  .621E+00  .539E+00  .485E+00  .446E+00  .417E+00
  .385E+00  .320E+00  .285E+00  .241E+00  .214E+00  .190E+00  .168E+00  .152E+00
  .136E+00  .129E+00  .129E+00  .111E+00  .991E-01  .880E-01  .864E-01  .737E-01
  .708E-01  .637E-01  .624E-01  .605E-01  .595E-01  .531E-01  .490E-01  .463E-01
  .406E-01  .430E-01  .419E-01  .472E-01  .392E-01  .355E-01  .369E-01  .351E-01
  .309E-01  .304E-01  .316E-01  .275E-01  .271E-01  .179E-01  .163E-01  .174E-01
  .160E-01  .214E-01  .237E-01  .274E-01  .234E-01  .184E-01  .187E-01  .149E-01
  .159E-01  .178E-01  .204E-01  .200E-01  .121E-01  .821E-02  .835E-02  .794E-02
  .680E-02  .557E-02  .450E-02  .356E-02
  .303E+02  .303E+02  .303E+02  .303E+02  .303E+02  .303E+02  .303E+02  .303E+02
  .303E+02  .303E+02  .303E+02  .303E+02  .303E+02  .303E+02  .303E+02  .303E+02
  .304E+02  .304E+02  .309E+02  .303E+02  .303E+02  .303E+02  .304E+02  .304E+02
  .304E+02  .304E+02  .305E+02  .326E+02  .312E+02  .324E+02  .309E+02  .308E+02
  .306E+02  .305E+02  .305E+02  .305E+02  .304E+02  .304E+02  .304E+02  .304E+02
  .304E+02  .304E+02  .304E+02  .304E+02  .304E+02  .304E+02  .304E+02  .304E+02
  .304E+02  .304E+02  .304E+02  .304E+02  .303E+02  .304E+02  .303E+02  .304E+02
  .304E+02  .304E+02  .303E+02  .303E+02  .303E+02  .303E+02  .304E+02  .304E+02
  .304E+02  .303E+02  .303E+02  .303E+02  .303E+02  .303E+02  .303E+02  .303E+02
  .303E+02  .303E+02  .303E+02  .303E+02  .304E+02  .304E+02  .304E+02  .304E+02
  .635E+02  .648E+02  .304E+02  .304E+02  .304E+02  .321E+02  .303E+02  .303E+02
  .340E+02  .304E+02  .685E+02  .707E+02  .321E+02  .271E+02  .303E+02  .303E+02
  .303E+02  .303E+02  .303E+02  .303E+02
  .303E+02  .303E+02  .302E+02  .304E+02  .303E+02  .303E+02  .303E+02  .303E+02
  .304E+02  .303E+02  .303E+02  .303E+02  .306E+02  .306E+02  .306E+02  .306E+02
  .308E+02  .308E+02  .306E+02  .302E+02  .302E+02  .303E+02  .308E+02  .304E+02
  .304E+02  .304E+02  .305E+02  .324E+02  .312E+02  .323E+02  .308E+02  .307E+02
  .306E+02  .306E+02  .304E+02  .304E+02  .304E+02  .303E+02  .303E+02  .303E+02
  .303E+02  .303E+02  .303E+02  .303E+02  .303E+02  .303E+02  .303E+02  .303E+02
  .303E+02  .303E+02  .303E+02  .303E+02  .303E+02  .303E+02  .303E+02  .303E+02
  .303E+02  .303E+02  .303E+02  .303E+02  .303E+02  .303E+02  .303E+02  .303E+02
  .303E+02  .303E+02  .303E+02  .303E+02  .303E+02  .303E+02  .303E+02  .303E+02
  .303E+02  .303E+02  .303E+02  .303E+02  .303E+02  .303E+02  .303E+02  .303E+02
  .303E+02  .303E+02  .303E+02  .303E+02  .303E+02  .303E+02  .303E+02  .303E+02
  .303E+02  .303E+02  .303E+02  .303E+02  .303E+02  .303E+02  .303E+02  .303E+02
  .303E+02  .303E+02  .303E+02  .303E+02
  .303E+02  .303E+02  .303E+02  .303E+02  .303E+02  .303E+02  .303E+02  .303E+02
  .303E+02  .303E+02  .303E+02  .303E+02  .303E+02  .303E+02  .303E+02  .303E+02
  .304E+02  .304E+02  .309E+02  .303E+02  .303E+02  .303E+02  .304E+02  .304E+02
  .304E+02  .304E+02  .305E+02  .326E+02  .312E+02  .324E+02  .309E+02  .308E+02
  .306E+02  .305E+02  .305E+02  .305E+02  .304E+02  .304E+02  .304E+02  .304E+02
  .304E+02  .304E+02  .304E+02  .304E+02  .304E+02  .304E+02  .304E+02  .304E+02
  .304E+02  .304E+02  .304E+02  .304E+02  .302E+02  .304E+02  .302E+02  .304E+02
  .304E+02  .304E+02  .302E+02  .302E+02  .302E+02  .302E+02  .304E+02  .304E+02
  .304E+02  .302E+02  .302E+02  .302E+02  .302E+02  .302E+02  .302E+02  .302E+02
  .302E+02  .302E+02  .302E+02  .302E+02  .303E+02  .303E+02  .303E+02  .303E+02
  .303E+02  .303E+02  .303E+02  .303E+02  .303E+02  .303E+02  .302E+02  .302E+02
  .303E+02  .303E+02  .303E+02  .303E+02  .303E+02  .302E+02  .302E+02  .302E+02
  .302E+02  .302E+02  .303E+02  .303E+02
Damping =  .05. Data of Sd,Sv,Sa,Pssv,ttSd,ttSv,ttSa :
  .386E-03  .432E-03  .474E-03  .511E-03  .549E-03  .606E-03  .743E-03  .937E-03
