Response and Fourier amplitude spectra (** periods,  .04 - 32.0 sec)   for      
Corrected accelerogram   89324-VAA6D-21355.06       Chan 12:  Long       from   
Uncorrected Accelerogram Data             Processed: 12/21/21, CGS  aa6de006    
Rcrd of Mon Dec 20, 2021 13:53:27.0 PST           (Avol1 v6.5,64b, 1/20; PC00)  
CSMIP Preliminary Processing            (Origin:  To be determined)             
89324-VAA6D-21355.06                 Start time: 12/20/21, 21:53:27.0 UTC (GPS) 
Station No. 89324   40.503N, 124.101W    130-MC  s/n AA6D (17 Chns of 17 at Sta)
Rio Dell - Hwy 101/Painter St. Overpass   CGS   Data: Acceleration              
Chan 12:  Long    (Sta Chn: 15)     Location: On Ground: Near East Abutment     
Rcrd of Mon Dec 20, 2021 13:53:27.0 PST    Mon Dec 20, 2021 13:53:27.0 PST      
Hypocenter:  To be determined.               ML:  To be determined.
Instr Period = 0.0008 sec,  Damping = 0.100,  Sensitivity = 1.65 v/g
                        Record Length = 65.610 sec.
                                     Uncor Max  =  0.016 g, at   30.025 sec.
RMS accel of (uncor) record  =        .   Chn. metadata effective date: 04/02/10
Accelerogram bandpass filtered with 3 dB pts at   .07 and 40.00 cyc/sec
                 instrument- and base-line correcte





Rcrd of Mon Dec 20, 2021 13:53:27.0 PST    Mon Dec 20, 2021 13:53:27.0 PST

89324-VAA6D-21355.06      Rio Dell - Hwy 101/Painter St. Overpass   Chan 12:  Lo
ng
89324-VAA6D-21355.06      Rio Dell - Hwy 101/Painter St. Overpass   Chan 12:  Lo
ng
Units for spectra are inches and sec, except Sa is in fraction of g.

   12  100   15   18   17  200    1    3    1   32  706 -999    089324    3    0
   21   53   27    0  354   12   20 2021   10    3  80013122   39   39   74   -1
13122    1  100    3 -999    1    6 -999 -999 -999 -999 -999 -999 -999 -999 -999
 -999 -999 -999 -999 6561    2  100    1   24  253 -999 -999    3    1 -999 6561
    3 6561    4  100    5   17    5    0    0 -999    0    0 -999 -999    1    2
    2    2    4    0   66   67    0    2 -999    0    0    1 4096 -999    0  222
    1 -999   13 -999
      .001      .100    65.610      .001     1.000  1648.000      .016    30.025
  1300.000     1.583      .961  -999.000     5.000  -999.000     4.000  -999.000
    10.000     9.012    10.000   312.000    30.400    29.995  -999.000     -.001
     -.001      .000     2.000    15.000    40.503  -124.101      .029      .048
     1.658     -.005      .005    43.000    30.398    35.609    13.300  -999.000
     1.000  -999.000    -8.000  -999.000  -999.000  -999.000  -999.000   120.000
     6.500     6.500     7.500   980.665      .010    65.610   206.901      .000
  -999.000    40.000  -999.000    65.610      .010      .067  -999.000  -999.000
    30.030    15.331    29.990     -.404    30.030     -.032     -.001      .067
    40.000      .010      .010     -.001      .010      .007  -999.000  -999.000
      .046      .160      .036      .019      .001      .000  -999.000  -999.000
  -999.000  -999.000  -999.000  -999.000  -999.000  -999.000  -999.000  -999.000
  -999.000  -999.000  -999.000  -999.000
      .000      .020      .050      .100      .200
      .040      .042      .044      .046      .048      .050      .055      .060
      .065      .070      .075      .080      .085      .090      .095      .100
      .110      .120      .130      .140      .150      .160      .170      .180
      .190      .200      .220      .240      .260      .280      .300      .320
      .340      .360      .380      .400      .420      .440      .460      .480
      .500      .550      .600      .650      .700      .750      .800      .850
      .900      .950     1.000     1.100     1.200     1.300     1.400     1.500
     1.600     1.700     1.800     1.900     2.000     2.200     2.400     2.600
     2.800     3.000     3.200     3.400     3.600     3.800     4.000     4.200
     4.400     4.600     4.800     5.000     5.500     6.000     6.500     7.000
     7.500     8.000     8.500     9.000     9.500    10.000    11.000    12.000
    13.000    14.000    15.000    16.000    18.000    20.000    22.000    24.000
    26.000    28.000    30.000    32.000
Fourier amplitude spectra in in/sec.
  .570E-02  .191E-01  .326E-02  .151E-01  .186E-01  .444E-01  .340E-01  .102E+00
  .485E-01  .107E+00  .143E+00  .912E-01  .163E+00  .259E+00  .236E+00  .288E+00
  .215E+00  .379E+00  .331E+00  .394E+00  .432E+00  .860E+00  .787E+00  .378E+00
  .399E+00  .450E+00  .784E+00  .164E+01  .673E+00  .702E+00  .475E+00  .268E+00
  .246E+00  .111E+01  .589E+00  .375E+00  .393E-01  .513E+00  .273E+00  .444E+00
  .384E+00  .136E+00  .283E+00  .101E+00  .997E-01  .158E+00  .106E+00  .966E-01
  .211E-01  .703E-01  .343E-01  .513E-01  .238E-01  .589E-01  .474E-01  .232E-01
  .298E-02  .125E-01  .132E-01  .157E-01  .809E-02  .180E-01  .333E-02  .905E-02
  .628E-02  .355E-02  .640E-02  .780E-02  .112E-01  .798E-02  .482E-02  .211E-02
  .516E-02  .147E-02  .812E-02  .747E-02  .891E-02  .200E-01  .562E-02  .859E-02
  .869E-02  .163E-01  .106E-01  .869E-02  .894E-02  .656E-02  .964E-02  .900E-02
  .416E-02  .212E-02  .353E-02  .382E-02  .320E-02  .389E-02  .428E-02  .383E-02
  .293E-02  .194E-02  .106E-02  .368E-03
Damping =  .00. Data of Sd,Sv,Sa,Pssv,ttSd,ttSv,ttSa :
  .306E-03  .337E-03  .358E-03  .378E-03  .447E-03  .703E-03  .712E-03  .101E-02
  .122E-02  .185E-02  .238E-02  .243E-02  .344E-02  .464E-02  .464E-02  .650E-02
  .507E-02  .888E-02  .846E-02  .106E-01  .132E-01  .224E-01  .233E-01  .203E-01
  .207E-01  .223E-01  .336E-01  .719E-01  .327E-01  .403E-01  .253E-01  .317E-01
  .298E-01  .657E-01  .381E-01  .429E-01  .303E-01  .408E-01  .323E-01  .404E-01
  .329E-01  .229E-01  .346E-01  .240E-01  .216E-01  .210E-01  .195E-01  .155E-01
  .145E-01  .141E-01  .140E-01  .126E-01  .126E-01  .125E-01  .130E-01  .112E-01
  .113E-01  .111E-01  .112E-01  .124E-01  .114E-01  .109E-01  .101E-01  .116E-01
  .105E-01  .112E-01  .121E-01  .104E-01  .111E-01  .121E-01  .142E-01  .141E-01
  .117E-01  .103E-01  .108E-01  .124E-01  .166E-01  .192E-01  .139E-01  .957E-02
  .136E-01  .208E-01  .143E-01  .131E-01  .144E-01  .179E-01  .170E-01  .172E-01
  .163E-01  .148E-01  .131E-01  .117E-01  .967E-02  .124E-01  .150E-01  .148E-01
  .153E-01  .130E-01  .141E-01  .149E-01
  .143E-01  .255E-01  .176E-01  .185E-01  .262E-01  .563E-01  .519E-01  .102E+00
  .789E-01  .149E+00  .179E+00  .173E+00  .244E+00  .308E+00  .274E+00  .375E+00
  .271E+00  .451E+00  .397E+00  .467E+00  .524E+00  .876E+00  .851E+00  .688E+00
  .673E+00  .685E+00  .931E+00  .186E+01  .797E+00  .929E+00  .566E+00  .638E+00
  .598E+00  .115E+01  .635E+00  .690E+00  .483E+00  .589E+00  .462E+00  .539E+00
  .421E+00  .295E+00  .362E+00  .280E+00  .259E+00  .237E+00  .218E+00  .201E+00
  .183E+00  .174E+00  .162E+00  .155E+00  .152E+00  .151E+00  .150E+00  .153E+00
  .151E+00  .154E+00  .157E+00  .155E+00  .158E+00  .155E+00  .158E+00  .156E+00
  .153E+00  .155E+00  .156E+00  .156E+00  .154E+00  .154E+00  .155E+00  .159E+00
  .160E+00  .158E+00  .156E+00  .155E+00  .161E+00  .166E+00  .157E+00  .153E+00
  .157E+00  .160E+00  .159E+00  .156E+00  .154E+00  .153E+00  .154E+00  .156E+00
  .158E+00  .158E+00  .159E+00  .159E+00  .158E+00  .157E+00  .157E+00  .157E+00
  .157E+00  .157E+00  .157E+00  .157E+00
  .196E-01  .195E-01  .189E-01  .183E-01  .198E-01  .288E-01  .241E-01  .288E-01
  .295E-01  .385E-01  .433E-01  .388E-01  .487E-01  .585E-01  .526E-01  .665E-01
  .428E-01  .630E-01  .512E-01  .554E-01  .598E-01  .896E-01  .826E-01  .641E-01
  .586E-01  .569E-01  .711E-01  .128E+00  .494E-01  .526E-01  .287E-01  .317E-01
  .264E-01  .519E-01  .270E-01  .274E-01  .176E-01  .216E-01  .156E-01  .179E-01
  .135E-01  .776E-02  .983E-02  .580E-02  .450E-02  .382E-02  .312E-02  .220E-02
  .183E-02  .160E-02  .143E-02  .107E-02  .893E-03  .754E-03  .680E-03  .508E-03
  .450E-03  .392E-03  .354E-03  .351E-03  .291E-03  .230E-03  .179E-03  .175E-03
  .138E-03  .128E-03  .121E-03  .924E-04  .875E-04  .854E-04  .907E-04  .819E-04
  .617E-04  .498E-04  .477E-04  .506E-04  .560E-04  .545E-04  .336E-04  .200E-04
  .246E-04  .332E-04  .203E-04  .166E-04  .163E-04  .183E-04  .144E-04  .122E-04
  .986E-05  .770E-05  .596E-05  .466E-05  .305E-05  .316E-05  .317E-05  .262E-05
  .231E-05  .170E-05  .160E-05  .149E-05
  .481E-01  .504E-01  .512E-01  .517E-01  .585E-01  .883E-01  .814E-01  .106E+00
  .118E+00  .166E+00  .199E+00  .191E+00  .254E+00  .324E+00  .307E+00  .408E+00
  .290E+00  .465E+00  .409E+00  .477E+00  .551E+00  .881E+00  .862E+00  .709E+00
  .684E+00  .700E+00  .961E+00  .188E+01  .789E+00  .905E+00  .529E+00  .622E+00
  .552E+00  .115E+01  .629E+00  .674E+00  .453E+00  .583E+00  .441E+00  .529E+00
  .414E+00  .262E+00  .362E+00  .232E+00  .194E+00  .176E+00  .154E+00  .115E+00
  .101E+00  .934E-01  .879E-01  .722E-01  .658E-01  .602E-01  .585E-01  .468E-01
  .442E-01  .410E-01  .392E-01  .410E-01  .358E-01  .311E-01  .264E-01  .280E-01
  .237E-01  .235E-01  .238E-01  .193E-01  .193E-01  .199E-01  .223E-01  .211E-01
  .167E-01  .141E-01  .141E-01  .155E-01  .189E-01  .201E-01  .134E-01  .859E-02
  .114E-01  .163E-01  .106E-01  .917E-02  .954E-02  .112E-01  .970E-02  .901E-02
  .787E-02  .662E-02  .549E-02  .458E-02  .338E-02  .389E-02  .428E-02  .387E-02
  .369E-02  .292E-02  .295E-02  .292E-02
  .300E+02  .300E+02  .300E+02  .300E+02  .300E+02  .300E+02  .300E+02  .336E+02
  .300E+02  .311E+02  .310E+02  .302E+02  .308E+02  .335E+02  .304E+02  .313E+02
  .307E+02  .332E+02  .341E+02  .303E+02  .307E+02  .350E+02  .342E+02  .304E+02
  .304E+02  .305E+02  .336E+02  .344E+02  .386E+02  .332E+02  .310E+02  .340E+02
  .307E+02  .516E+02  .326E+02  .351E+02  .312E+02  .368E+02  .336E+02  .366E+02
  .344E+02  .304E+02  .338E+02  .321E+02  .319E+02  .336E+02  .365E+02  .303E+02
  .303E+02  .303E+02  .303E+02  .303E+02  .303E+02  .303E+02  .366E+02  .300E+02
  .303E+02  .300E+02  .300E+02  .300E+02  .300E+02  .300E+02  .300E+02  .300E+02
  .300E+02  .300E+02  .300E+02  .300E+02  .300E+02  .300E+02  .300E+02  .300E+02
  .300E+02  .300E+02  .300E+02  .300E+02  .300E+02  .648E+02  .303E+02  .664E+02
  .300E+02  .791E+02  .811E+02  .303E+02  .611E+02  .531E+02  .551E+02  .700E+02
  .300E+02  .300E+02  .300E+02  .300E+02  .300E+02  .659E+02  .101E+03  .606E+02
  .609E+02  .300E+02  .300E+02  .300E+02
  .300E+02  .300E+02  .300E+02  .306E+02  .306E+02  .310E+02  .306E+02  .601E+02
  .313E+02  .310E+02  .310E+02  .302E+02  .307E+02  .335E+02  .304E+02  .313E+02
  .308E+02  .330E+02  .341E+02  .303E+02  .303E+02  .349E+02  .343E+02  .305E+02
  .305E+02  .305E+02  .336E+02  .343E+02  .385E+02  .332E+02  .311E+02  .339E+02
  .307E+02  .515E+02  .327E+02  .350E+02  .311E+02  .369E+02  .337E+02  .365E+02
  .345E+02  .303E+02  .336E+02  .323E+02  .304E+02  .304E+02  .304E+02  .304E+02
  .304E+02  .304E+02  .304E+02  .300E+02  .300E+02  .302E+02  .300E+02  .300E+02
  .300E+02  .300E+02  .300E+02  .300E+02  .300E+02  .300E+02  .300E+02  .300E+02
  .300E+02  .300E+02  .300E+02  .300E+02  .300E+02  .300E+02  .300E+02  .300E+02
  .300E+02  .300E+02  .300E+02  .300E+02  .300E+02  .300E+02  .300E+02  .300E+02
  .300E+02  .300E+02  .300E+02  .300E+02  .300E+02  .300E+02  .300E+02  .300E+02
  .300E+02  .300E+02  .300E+02  .300E+02  .300E+02  .300E+02  .300E+02  .300E+02
  .300E+02  .300E+02  .300E+02  .300E+02
  .300E+02  .300E+02  .300E+02  .300E+02  .300E+02  .300E+02  .300E+02  .336E+02
  .300E+02  .311E+02  .310E+02  .302E+02  .308E+02  .335E+02  .304E+02  .313E+02
  .307E+02  .332E+02  .341E+02  .303E+02  .307E+02  .350E+02  .342E+02  .304E+02
  .304E+02  .305E+02  .336E+02  .344E+02  .386E+02  .332E+02  .310E+02  .340E+02
  .307E+02  .516E+02  .326E+02  .351E+02  .312E+02  .368E+02  .336E+02  .366E+02
  .344E+02  .304E+02  .338E+02  .321E+02  .319E+02  .336E+02  .365E+02  .303E+02
  .303E+02  .303E+02  .303E+02  .303E+02  .303E+02  .303E+02  .366E+02  .300E+02
  .303E+02  .300E+02  .300E+02  .300E+02  .300E+02  .300E+02  .300E+02  .300E+02
  .300E+02  .300E+02  .300E+02  .300E+02  .300E+02  .300E+02  .300E+02  .300E+02
  .300E+02  .300E+02  .300E+02  .300E+02  .300E+02  .648E+02  .303E+02  .664E+02
  .300E+02  .791E+02  .811E+02  .303E+02  .611E+02  .531E+02  .551E+02  .700E+02
  .300E+02  .300E+02  .300E+02  .300E+02  .300E+02  .659E+02  .101E+03  .606E+02
  .609E+02  .300E+02  .300E+02  .300E+02
Damping =  .02. Data of Sd,Sv,Sa,Pssv,ttSd,ttSv,ttSa :
  .276E-03  .312E-03  .348E-03  .383E-03  .421E-03  .478E-03  .606E-03  .789E-03
  .955E-03  .121E-02  .162E-02  .215E-02  .263E-02  .299E-02  .357E-02  .383E-02
  .440E-02  .503E-02  .568E-02  .894E-02  .117E-01  .146E-01  .159E-01  .165E-01
  .175E-01  .181E-01  .233E-01  .274E-01  .211E-01  .213E-01  .203E-01  .240E-01
  .259E-01  .266E-01  .255E-01  .268E-01  .270E-01  .260E-01  .243E-01  .235E-01
  .234E-01  .218E-01  .220E-01  .179E-01  .171E-01  .153E-01  .151E-01  .149E-01
  .144E-01  .141E-01  .138E-01  .129E-01  .123E-01  .120E-01  .115E-01  .111E-01
  .108E-01  .112E-01  .113E-01  .117E-01  .113E-01  .108E-01  .104E-01  .109E-01
  .107E-01  .113E-01  .116E-01  .109E-01  .112E-01  .121E-01  .134E-01  .133E-01
  .119E-01  .110E-01  .113E-01  .124E-01  .149E-01  .113E-01  .118E-01  .916E-02
  .122E-01  .148E-01  .123E-01  .118E-01  .113E-01  .140E-01  .142E-01  .160E-01
  .157E-01  .145E-01  .131E-01  .118E-01  .996E-02  .114E-01  .132E-01  .134E-01
  .139E-01  .129E-01  .140E-01  .145E-01
  .105E-01  .121E-01  .147E-01  .154E-01  .170E-01  .208E-01  .333E-01  .537E-01
  .500E-01  .780E-01  .106E+00  .146E+00  .171E+00  .181E+00  .211E+00  .203E+00
  .230E+00  .239E+00  .262E+00  .374E+00  .447E+00  .528E+00  .566E+00  .548E+00
  .548E+00  .536E+00  .646E+00  .713E+00  .539E+00  .477E+00  .458E+00  .505E+00
  .515E+00  .528E+00  .517E+00  .473E+00  .409E+00  .392E+00  .376E+00  .360E+00
  .340E+00  .281E+00  .277E+00  .265E+00  .249E+00  .232E+00  .214E+00  .199E+00
  .185E+00  .175E+00  .166E+00  .155E+00  .151E+00  .150E+00  .151E+00  .153E+00
  .152E+00  .153E+00  .154E+00  .155E+00  .156E+00  .155E+00  .156E+00  .155E+00
  .154E+00  .155E+00  .156E+00  .155E+00  .154E+00  .154E+00  .155E+00  .158E+00
  .159E+00  .157E+00  .156E+00  .156E+00  .160E+00  .163E+00  .158E+00  .154E+00
  .156E+00  .159E+00  .158E+00  .156E+00  .154E+00  .153E+00  .154E+00  .156E+00
  .157E+00  .158E+00  .158E+00  .158E+00  .158E+00  .157E+00  .157E+00  .157E+00
  .157E+00  .157E+00  .157E+00  .157E+00
  .177E-01  .181E-01  .184E-01  .185E-01  .187E-01  .196E-01  .205E-01  .224E-01
  .231E-01  .253E-01  .295E-01  .342E-01  .370E-01  .378E-01  .404E-01  .392E-01
  .370E-01  .358E-01  .346E-01  .464E-01  .529E-01  .583E-01  .565E-01  .523E-01
  .495E-01  .461E-01  .493E-01  .490E-01  .320E-01  .278E-01  .231E-01  .239E-01
  .229E-01  .210E-01  .181E-01  .171E-01  .157E-01  .138E-01  .117E-01  .105E-01
  .957E-02  .739E-02  .627E-02  .434E-02  .357E-02  .280E-02  .241E-02  .211E-02
  .183E-02  .160E-02  .142E-02  .110E-02  .877E-03  .735E-03  .607E-03  .516E-03
  .443E-03  .409E-03  .368E-03  .342E-03  .300E-03  .240E-03  .196E-03  .177E-03
  .151E-03  .139E-03  .127E-03  .107E-03  .994E-04  .965E-04  .962E-04  .879E-04
  .732E-04  .632E-04  .598E-04  .603E-04  .597E-04  .362E-04  .343E-04  .274E-04
  .303E-04  .249E-04  .192E-04  .201E-04  .179E-04  .164E-04  .183E-04  .175E-04
  .153E-04  .130E-04  .111E-04  .963E-05  .763E-05  .652E-05  .588E-05  .545E-05
  .512E-05  .482E-05  .454E-05  .427E-05
  .434E-01  .466E-01  .497E-01  .523E-01  .552E-01  .600E-01  .692E-01  .826E-01
  .923E-01  .108E+00  .136E+00  .169E+00  .194E+00  .208E+00  .236E+00  .241E+00
  .251E+00  .263E+00  .275E+00  .401E+00  .489E+00  .573E+00  .588E+00  .576E+00
  .577E+00  .569E+00  .667E+00  .718E+00  .510E+00  .477E+00  .424E+00  .472E+00
  .479E+00  .465E+00  .422E+00  .420E+00  .404E+00  .372E+00  .332E+00  .308E+00
  .294E+00  .249E+00  .231E+00  .173E+00  .153E+00  .128E+00  .119E+00  .110E+00
  .101E+00  .930E-01  .868E-01  .739E-01  .642E-01  .582E-01  .516E-01  .463E-01
  .423E-01  .415E-01  .394E-01  .386E-01  .355E-01  .310E-01  .273E-01  .265E-01
  .240E-01  .236E-01  .228E-01  .201E-01  .195E-01  .200E-01  .210E-01  .199E-01
  .170E-01  .150E-01  .147E-01  .156E-01  .170E-01  .118E-01  .114E-01  .822E-02
  .102E-01  .116E-01  .908E-02  .823E-02  .747E-02  .878E-02  .808E-02  .840E-02
  .760E-02  .650E-02  .547E-02  .463E-02  .348E-02  .357E-02  .376E-02  .350E-02
  .336E-02  .290E-02  .293E-02  .284E-02
  .300E+02  .300E+02  .300E+02  .300E+02  .300E+02  .300E+02  .300E+02  .300E+02
  .300E+02  .300E+02  .302E+02  .302E+02  .303E+02  .303E+02  .304E+02  .306E+02
  .307E+02  .307E+02  .303E+02  .303E+02  .303E+02  .303E+02  .303E+02  .304E+02
  .304E+02  .305E+02  .309E+02  .313E+02  .315E+02  .313E+02  .309E+02  .308E+02
  .307E+02  .307E+02  .305E+02  .305E+02  .306E+02  .306E+02  .306E+02  .304E+02
  .304E+02  .304E+02  .338E+02  .321E+02  .319E+02  .303E+02  .303E+02  .303E+02
  .303E+02  .303E+02  .303E+02  .303E+02  .303E+02  .303E+02  .303E+02  .300E+02
  .300E+02  .300E+02  .300E+02  .300E+02  .300E+02  .300E+02  .300E+02  .300E+02
  .300E+02  .300E+02  .300E+02  .300E+02  .300E+02  .300E+02  .300E+02  .300E+02
  .300E+02  .300E+02  .300E+02  .300E+02  .300E+02  .649E+02  .303E+02  .303E+02
  .300E+02  .671E+02  .639E+02  .303E+02  .303E+02  .531E+02  .300E+02  .300E+02
  .300E+02  .300E+02  .300E+02  .300E+02  .300E+02  .660E+02  .677E+02  .606E+02
  .608E+02  .300E+02  .300E+02  .300E+02
  .300E+02  .302E+02  .302E+02  .302E+02  .306E+02  .306E+02  .304E+02  .306E+02
  .302E+02  .302E+02  .302E+02  .302E+02  .302E+02  .304E+02  .304E+02  .304E+02
  .306E+02  .313E+02  .305E+02  .303E+02  .303E+02  .303E+02  .303E+02  .303E+02
  .305E+02  .305E+02  .309E+02  .313E+02  .313E+02  .312E+02  .308E+02  .307E+02
  .307E+02  .306E+02  .306E+02  .306E+02  .305E+02  .305E+02  .305E+02  .305E+02
  .305E+02  .303E+02  .303E+02  .304E+02  .304E+02  .304E+02  .304E+02  .304E+02
  .304E+02  .304E+02  .304E+02  .301E+02  .300E+02  .300E+02  .300E+02  .300E+02
  .300E+02  .300E+02  .300E+02  .300E+02  .300E+02  .300E+02  .300E+02  .300E+02
  .300E+02  .300E+02  .300E+02  .300E+02  .300E+02  .300E+02  .300E+02  .300E+02
  .300E+02  .300E+02  .300E+02  .300E+02  .300E+02  .300E+02  .300E+02  .300E+02
  .300E+02  .300E+02  .300E+02  .300E+02  .300E+02  .300E+02  .300E+02  .300E+02
  .300E+02  .300E+02  .300E+02  .300E+02  .300E+02  .300E+02  .300E+02  .300E+02
  .300E+02  .300E+02  .300E+02  .300E+02
  .300E+02  .300E+02  .300E+02  .300E+02  .300E+02  .300E+02  .300E+02  .300E+02
  .300E+02  .300E+02  .302E+02  .302E+02  .303E+02  .303E+02  .304E+02  .304E+02
  .307E+02  .307E+02  .303E+02  .303E+02  .303E+02  .303E+02  .303E+02  .304E+02
  .304E+02  .305E+02  .309E+02  .313E+02  .315E+02  .313E+02  .309E+02  .308E+02
  .307E+02  .307E+02  .305E+02  .305E+02  .306E+02  .306E+02  .306E+02  .304E+02
  .304E+02  .304E+02  .338E+02  .321E+02  .319E+02  .303E+02  .303E+02  .303E+02
  .303E+02  .303E+02  .303E+02  .303E+02  .303E+02  .303E+02  .303E+02  .300E+02
  .300E+02  .300E+02  .300E+02  .300E+02  .300E+02  .300E+02  .300E+02  .300E+02
  .300E+02  .300E+02  .300E+02  .300E+02  .300E+02  .300E+02  .300E+02  .300E+02
  .300E+02  .300E+02  .300E+02  .300E+02  .300E+02  .300E+02  .302E+02  .300E+02
  .300E+02  .300E+02  .302E+02  .302E+02  .302E+02  .300E+02  .300E+02  .300E+02
  .300E+02  .300E+02  .300E+02  .300E+02  .300E+02  .300E+02  .300E+02  .300E+02
  .300E+02  .300E+02  .300E+02  .300E+02
Damping =  .05. Data of Sd,Sv,Sa,Pssv,ttSd,ttSv,ttSa :
  .277E-03  .311E-03  .346E-03  .382E-03  .424E-03  .468E-03  .598E-03  .766E-03
