Response and Fourier amplitude spectra (** periods,  .04 - 32.0 sec)   for      
Corrected accelerogram   89324-VAA6D-21355.06       Chan 15:  Long       from   
Uncorrected Accelerogram Data             Processed: 12/21/21, CGS  aa6de006    
Rcrd of Mon Dec 20, 2021 13:53:27.0 PST           (Avol1 v6.5,64b, 1/20; PC00)  
CSMIP Preliminary Processing            (Origin:  To be determined)             
89324-VAA6D-21355.06                 Start time: 12/20/21, 21:53:27.0 UTC (GPS) 
Station No. 89324   40.503N, 124.101W    130-MC  s/n AA6D (17 Chns of 17 at Sta)
Rio Dell - Hwy 101/Painter St. Overpass   CGS   Data: Acceleration              
Chan 15:  Long    (Sta Chn: 18)     Location: On Ground: Near West Abutment     
Rcrd of Mon Dec 20, 2021 13:53:27.0 PST    Mon Dec 20, 2021 13:53:27.0 PST      
Hypocenter:  To be determined.               ML:  To be determined.
Instr Period = 0.0008 sec,  Damping = 0.100,  Sensitivity = 1.64 v/g
                        Record Length = 65.610 sec.
                                     Uncor Max  =  0.013 g, at   30.005 sec.
RMS accel of (uncor) record  =        .   Chn. metadata effective date: 04/02/10
Accelerogram bandpass filtered with 3 dB pts at   .07 and 40.00 cyc/sec
                 instrument- and base-line correcte





Rcrd of Mon Dec 20, 2021 13:53:27.0 PST    Mon Dec 20, 2021 13:53:27.0 PST

89324-VAA6D-21355.06      Rio Dell - Hwy 101/Painter St. Overpass   Chan 15:  Lo
ng
89324-VAA6D-21355.06      Rio Dell - Hwy 101/Painter St. Overpass   Chan 15:  Lo
ng
Units for spectra are inches and sec, except Sa is in fraction of g.

   15  100   18   18   17  200    1    3    1   32  706 -999    089324    3    0
   21   53   27    0  354   12   20 2021   10    3  80013122   39   39   74   -1
13122    1  100    3 -999    1    6 -999 -999 -999 -999 -999 -999 -999 -999 -999
 -999 -999 -999 -999 6561    2  100    1   24  253 -999 -999    3    1 -999 6561
    3 6561    4  100    5   17    5    0    0 -999    0    0 -999 -999    1    2
    2    2    4    0   66   67    0    2 -999    0    0    1 4096 -999    0  222
    1 -999   16 -999
      .001      .100    65.610      .001     1.000  1640.000      .013    30.005
  1300.000     1.583      .965  -999.000     5.000  -999.000     4.000  -999.000
    10.000   -10.705    10.000   312.000    30.400    29.995  -999.000      .003
      .003      .000     2.000    15.000    40.503  -124.101      .093      .055
      .595     -.013      .012    43.000    30.398    35.609    13.300  -999.000
     1.000  -999.000    -8.000  -999.000  -999.000  -999.000  -999.000   120.000
     6.500     6.500     7.500   980.665      .010    65.610   206.901      .000
  -999.000    40.000  -999.000    65.610      .010      .067  -999.000  -999.000
    30.010    12.770    29.970     -.368    30.010     -.023     -.001      .067
    40.000      .010      .010     -.002      .010      .006  -999.000  -999.000
      .033      .085      .025      .016      .001      .000  -999.000  -999.000
  -999.000  -999.000  -999.000  -999.000  -999.000  -999.000  -999.000  -999.000
  -999.000  -999.000  -999.000  -999.000
      .000      .020      .050      .100      .200
      .040      .042      .044      .046      .048      .050      .055      .060
      .065      .070      .075      .080      .085      .090      .095      .100
      .110      .120      .130      .140      .150      .160      .170      .180
      .190      .200      .220      .240      .260      .280      .300      .320
      .340      .360      .380      .400      .420      .440      .460      .480
      .500      .550      .600      .650      .700      .750      .800      .850
      .900      .950     1.000     1.100     1.200     1.300     1.400     1.500
     1.600     1.700     1.800     1.900     2.000     2.200     2.400     2.600
     2.800     3.000     3.200     3.400     3.600     3.800     4.000     4.200
     4.400     4.600     4.800     5.000     5.500     6.000     6.500     7.000
     7.500     8.000     8.500     9.000     9.500    10.000    11.000    12.000
    13.000    14.000    15.000    16.000    18.000    20.000    22.000    24.000
    26.000    28.000    30.000    32.000
Fourier amplitude spectra in in/sec.
  .569E-02  .309E-01  .172E-01  .173E-01  .123E-01  .200E-02  .414E-01  .603E-01
  .210E+00  .128E+00  .934E-01  .124E+00  .361E+00  .488E+00  .466E+00  .160E-01
  .346E+00  .498E-01  .476E+00  .554E+00  .301E+00  .517E+00  .381E+00  .233E+00
  .366E+00  .185E+00  .105E+01  .898E+00  .147E+00  .512E+00  .371E+00  .295E+00
  .305E+00  .597E+00  .299E+00  .315E+00  .183E+00  .473E+00  .246E+00  .268E+00
  .334E+00  .100E+00  .259E+00  .101E+00  .664E-01  .143E+00  .128E+00  .989E-01
  .269E-01  .726E-01  .259E-01  .460E-01  .293E-01  .534E-01  .450E-01  .227E-01
  .850E-02  .145E-01  .152E-01  .174E-01  .596E-02  .215E-01  .109E-01  .250E-01
  .168E-01  .249E-02  .322E-02  .923E-02  .301E-02  .281E-02  .772E-02  .150E-01
  .709E-02  .554E-02  .478E-02  .816E-02  .303E-02  .242E-02  .171E-01  .172E-01
  .510E-02  .618E-02  .774E-02  .120E-01  .184E-01  .218E-01  .167E-01  .121E-01
  .153E-01  .135E-01  .760E-02  .241E-02  .747E-02  .764E-02  .493E-02  .241E-02
  .146E-02  .165E-02  .172E-02  .153E-02
Damping =  .00. Data of Sd,Sv,Sa,Pssv,ttSd,ttSv,ttSa :
  .286E-03  .434E-03  .302E-03  .361E-03  .531E-03  .362E-03  .686E-03  .929E-03
  .227E-02  .168E-02  .179E-02  .213E-02  .570E-02  .815E-02  .704E-02  .434E-02
  .629E-02  .449E-02  .110E-01  .129E-01  .105E-01  .165E-01  .106E-01  .941E-02
  .120E-01  .116E-01  .381E-01  .354E-01  .253E-01  .298E-01  .220E-01  .192E-01
  .203E-01  .350E-01  .274E-01  .299E-01  .215E-01  .346E-01  .254E-01  .235E-01
  .268E-01  .172E-01  .317E-01  .192E-01  .155E-01  .183E-01  .192E-01  .138E-01
  .108E-01  .114E-01  .113E-01  .101E-01  .105E-01  .125E-01  .121E-01  .934E-02
  .101E-01  .118E-01  .110E-01  .120E-01  .110E-01  .106E-01  .125E-01  .109E-01
  .125E-01  .117E-01  .108E-01  .106E-01  .119E-01  .121E-01  .120E-01  .124E-01
  .109E-01  .904E-02  .972E-02  .116E-01  .106E-01  .133E-01  .184E-01  .197E-01
  .122E-01  .101E-01  .126E-01  .198E-01  .305E-01  .367E-01  .293E-01  .231E-01
  .316E-01  .301E-01  .202E-01  .179E-01  .214E-01  .243E-01  .182E-01  .135E-01
  .114E-01  .874E-02  .885E-02  .100E-01
  .177E-01  .388E-01  .202E-01  .315E-01  .384E-01  .242E-01  .462E-01  .780E-01
  .215E+00  .147E+00  .133E+00  .154E+00  .415E+00  .551E+00  .465E+00  .267E+00
  .359E+00  .227E+00  .528E+00  .573E+00  .442E+00  .637E+00  .387E+00  .333E+00
  .393E+00  .369E+00  .108E+01  .921E+00  .636E+00  .669E+00  .470E+00  .381E+00
  .383E+00  .612E+00  .473E+00  .476E+00  .336E+00  .496E+00  .370E+00  .311E+00
  .339E+00  .280E+00  .346E+00  .190E+00  .189E+00  .176E+00  .178E+00  .168E+00
  .148E+00  .147E+00  .141E+00  .141E+00  .134E+00  .136E+00  .138E+00  .143E+00
  .139E+00  .142E+00  .137E+00  .140E+00  .145E+00  .134E+00  .149E+00  .136E+00
  .139E+00  .141E+00  .142E+00  .140E+00  .140E+00  .142E+00  .142E+00  .144E+00
  .145E+00  .143E+00  .140E+00  .140E+00  .142E+00  .138E+00  .142E+00  .147E+00
  .147E+00  .145E+00  .143E+00  .143E+00  .145E+00  .147E+00  .149E+00  .145E+00
  .142E+00  .140E+00  .140E+00  .141E+00  .144E+00  .146E+00  .146E+00  .145E+00
  .145E+00  .144E+00  .144E+00  .144E+00
  .183E-01  .252E-01  .159E-01  .174E-01  .236E-01  .148E-01  .232E-01  .264E-01
  .551E-01  .352E-01  .325E-01  .341E-01  .807E-01  .103E+00  .798E-01  .444E-01
  .532E-01  .319E-01  .666E-01  .674E-01  .476E-01  .661E-01  .374E-01  .297E-01
  .339E-01  .296E-01  .805E-01  .628E-01  .383E-01  .388E-01  .250E-01  .192E-01
  .180E-01  .276E-01  .194E-01  .191E-01  .124E-01  .183E-01  .123E-01  .104E-01
  .110E-01  .582E-02  .901E-02  .465E-02  .323E-02  .333E-02  .307E-02  .195E-02
  .136E-02  .129E-02  .115E-02  .853E-03  .747E-03  .754E-03  .632E-03  .425E-03
  .402E-03  .419E-03  .346E-03  .340E-03  .282E-03  .224E-03  .222E-03  .165E-03
  .164E-03  .133E-03  .108E-03  .940E-04  .940E-04  .855E-04  .764E-04  .721E-04
  .575E-04  .437E-04  .432E-04  .474E-04  .360E-04  .377E-04  .445E-04  .411E-04
  .223E-04  .161E-04  .178E-04  .250E-04  .345E-04  .376E-04  .247E-04  .164E-04
  .191E-04  .157E-04  .918E-05  .716E-05  .676E-05  .621E-05  .385E-05  .240E-05
  .172E-05  .114E-05  .101E-05  .100E-05
  .450E-01  .650E-01  .431E-01  .493E-01  .695E-01  .455E-01  .784E-01  .973E-01
  .220E+00  .151E+00  .150E+00  .167E+00  .421E+00  .569E+00  .466E+00  .273E+00
  .359E+00  .235E+00  .531E+00  .580E+00  .438E+00  .649E+00  .390E+00  .328E+00
  .396E+00  .363E+00  .109E+01  .927E+00  .611E+00  .668E+00  .461E+00  .378E+00
  .376E+00  .611E+00  .452E+00  .470E+00  .321E+00  .494E+00  .347E+00  .308E+00
  .337E+00  .197E+00  .332E+00  .186E+00  .139E+00  .153E+00  .151E+00  .102E+00
  .751E-01  .755E-01  .708E-01  .577E-01  .551E-01  .602E-01  .543E-01  .391E-01
  .395E-01  .437E-01  .383E-01  .397E-01  .346E-01  .303E-01  .327E-01  .264E-01
  .281E-01  .246E-01  .212E-01  .196E-01  .208E-01  .200E-01  .188E-01  .186E-01
  .155E-01  .123E-01  .127E-01  .146E-01  .122E-01  .139E-01  .178E-01  .177E-01
  .103E-01  .793E-02  .929E-02  .138E-01  .202E-01  .231E-01  .167E-01  .121E-01
  .153E-01  .135E-01  .846E-02  .703E-02  .747E-02  .764E-02  .520E-02  .353E-02
  .275E-02  .196E-02  .185E-02  .197E-02
  .300E+02  .300E+02  .300E+02  .300E+02  .300E+02  .300E+02  .300E+02  .300E+02
  .330E+02  .326E+02  .306E+02  .304E+02  .321E+02  .330E+02  .618E+02  .304E+02
  .358E+02  .300E+02  .336E+02  .345E+02  .309E+02  .324E+02  .323E+02  .301E+02
  .378E+02  .302E+02  .375E+02  .399E+02  .308E+02  .397E+02  .335E+02  .380E+02
  .345E+02  .494E+02  .332E+02  .349E+02  .312E+02  .486E+02  .342E+02  .327E+02
  .488E+02  .307E+02  .358E+02  .321E+02  .319E+02  .493E+02  .394E+02  .423E+02
  .300E+02  .475E+02  .300E+02  .300E+02  .300E+02  .342E+02  .464E+02  .300E+02
  .300E+02  .300E+02  .300E+02  .300E+02  .300E+02  .300E+02  .300E+02  .626E+02
  .300E+02  .300E+02  .300E+02  .300E+02  .300E+02  .300E+02  .300E+02  .300E+02
  .300E+02  .300E+02  .300E+02  .300E+02  .300E+02  .300E+02  .300E+02  .545E+02
  .300E+02  .300E+02  .542E+02  .545E+02  .551E+02  .611E+02  .688E+02  .700E+02
  .653E+02  .672E+02  .490E+02  .300E+02  .955E+02  .719E+02  .547E+02  .483E+02
  .490E+02  .490E+02  .547E+02  .547E+02
  .300E+02  .306E+02  .300E+02  .300E+02  .301E+02  .305E+02  .300E+02  .308E+02
  .330E+02  .326E+02  .314E+02  .304E+02  .321E+02  .330E+02  .618E+02  .303E+02
  .358E+02  .300E+02  .336E+02  .344E+02  .310E+02  .325E+02  .476E+02  .302E+02
  .378E+02  .302E+02  .376E+02  .400E+02  .308E+02  .396E+02  .334E+02  .379E+02
  .344E+02  .495E+02  .331E+02  .354E+02  .311E+02  .485E+02  .341E+02  .326E+02
  .487E+02  .305E+02  .357E+02  .325E+02  .304E+02  .304E+02  .304E+02  .304E+02
  .301E+02  .304E+02  .301E+02  .300E+02  .300E+02  .300E+02  .300E+02  .300E+02
  .300E+02  .300E+02  .300E+02  .300E+02  .300E+02  .300E+02  .300E+02  .300E+02
  .300E+02  .300E+02  .300E+02  .300E+02  .300E+02  .300E+02  .300E+02  .300E+02
  .300E+02  .300E+02  .300E+02  .300E+02  .300E+02  .300E+02  .300E+02  .300E+02
  .300E+02  .300E+02  .300E+02  .300E+02  .300E+02  .300E+02  .300E+02  .300E+02
  .300E+02  .300E+02  .300E+02  .300E+02  .300E+02  .300E+02  .300E+02  .300E+02
  .300E+02  .300E+02  .300E+02  .300E+02
  .300E+02  .300E+02  .300E+02  .300E+02  .300E+02  .300E+02  .300E+02  .300E+02
  .330E+02  .326E+02  .306E+02  .304E+02  .321E+02  .330E+02  .618E+02  .304E+02
  .358E+02  .300E+02  .336E+02  .345E+02  .309E+02  .324E+02  .323E+02  .301E+02
  .378E+02  .302E+02  .375E+02  .399E+02  .308E+02  .397E+02  .335E+02  .380E+02
  .345E+02  .494E+02  .332E+02  .349E+02  .312E+02  .486E+02  .342E+02  .327E+02
  .488E+02  .307E+02  .358E+02  .321E+02  .319E+02  .493E+02  .394E+02  .423E+02
  .300E+02  .475E+02  .300E+02  .300E+02  .300E+02  .342E+02  .464E+02  .300E+02
  .300E+02  .300E+02  .300E+02  .300E+02  .300E+02  .300E+02  .300E+02  .626E+02
  .300E+02  .300E+02  .300E+02  .300E+02  .300E+02  .300E+02  .300E+02  .300E+02
  .300E+02  .300E+02  .300E+02  .300E+02  .300E+02  .300E+02  .300E+02  .545E+02
  .300E+02  .300E+02  .542E+02  .545E+02  .551E+02  .611E+02  .688E+02  .700E+02
  .653E+02  .672E+02  .490E+02  .300E+02  .955E+02  .719E+02  .547E+02  .483E+02
  .490E+02  .490E+02  .547E+02  .547E+02
Damping =  .02. Data of Sd,Sv,Sa,Pssv,ttSd,ttSv,ttSa :
  .223E-03  .246E-03  .277E-03  .316E-03  .339E-03  .381E-03  .480E-03  .610E-03
  .691E-03  .102E-02  .131E-02  .193E-02  .345E-02  .376E-02  .306E-02  .294E-02
  .420E-02  .400E-02  .517E-02  .582E-02  .708E-02  .789E-02  .791E-02  .864E-02
  .931E-02  .105E-01  .170E-01  .200E-01  .190E-01  .156E-01  .159E-01  .156E-01
  .154E-01  .154E-01  .156E-01  .175E-01  .171E-01  .175E-01  .179E-01  .175E-01
  .166E-01  .153E-01  .181E-01  .152E-01  .140E-01  .124E-01  .118E-01  .981E-02
  .101E-01  .990E-02  .102E-01  .977E-02  .961E-02  .983E-02  .103E-01  .103E-01
  .105E-01  .111E-01  .109E-01  .115E-01  .109E-01  .108E-01  .115E-01  .768E-02
  .114E-01  .114E-01  .109E-01  .108E-01  .116E-01  .119E-01  .119E-01  .119E-01
  .109E-01  .988E-02  .102E-01  .113E-01  .111E-01  .133E-01  .169E-01  .160E-01
  .127E-01  .110E-01  .124E-01  .179E-01  .252E-01  .288E-01  .245E-01  .212E-01
  .257E-01  .239E-01  .170E-01  .168E-01  .187E-01  .206E-01  .165E-01  .124E-01
  .108E-01  .879E-02  .879E-02  .965E-02
  .125E-01  .140E-01  .157E-01  .175E-01  .172E-01  .200E-01  .260E-01  .356E-01
  .564E-01  .733E-01  .916E-01  .130E+00  .232E+00  .258E+00  .198E+00  .193E+00
  .244E+00  .195E+00  .250E+00  .262E+00  .282E+00  .320E+00  .273E+00  .296E+00
  .306E+00  .328E+00  .481E+00  .551E+00  .487E+00  .401E+00  .370E+00  .311E+00
  .284E+00  .267E+00  .310E+00  .294E+00  .268E+00  .263E+00  .269E+00  .265E+00
  .273E+00  .258E+00  .216E+00  .181E+00  .177E+00  .174E+00  .169E+00  .159E+00
  .150E+00  .145E+00  .140E+00  .137E+00  .133E+00  .133E+00  .134E+00  .137E+00
  .136E+00  .138E+00  .138E+00  .140E+00  .142E+00  .137E+00  .146E+00  .138E+00
  .138E+00  .140E+00  .141E+00  .140E+00  .140E+00  .141E+00  .142E+00  .143E+00
  .143E+00  .142E+00  .141E+00  .140E+00  .141E+00  .139E+00  .142E+00  .146E+00
  .146E+00  .145E+00  .143E+00  .144E+00  .145E+00  .147E+00  .148E+00  .145E+00
  .142E+00  .140E+00  .141E+00  .142E+00  .144E+00  .145E+00  .146E+00  .145E+00
  .145E+00  .144E+00  .144E+00  .144E+00
  .142E-01  .142E-01  .146E-01  .153E-01  .150E-01  .156E-01  .162E-01  .173E-01
  .168E-01  .214E-01  .238E-01  .309E-01  .490E-01  .478E-01  .346E-01  .304E-01
  .359E-01  .284E-01  .313E-01  .305E-01  .324E-01  .317E-01  .280E-01  .273E-01
  .263E-01  .268E-01  .359E-01  .354E-01  .289E-01  .205E-01  .181E-01  .156E-01
  .136E-01  .122E-01  .110E-01  .112E-01  .992E-02  .930E-02  .865E-02  .776E-02
  .678E-02  .519E-02  .514E-02  .367E-02  .294E-02  .227E-02  .188E-02  .141E-02
  .129E-02  .114E-02  .106E-02  .838E-03  .695E-03  .606E-03  .549E-03  .479E-03
  .431E-03  .404E-03  .354E-03  .336E-03  .290E-03  .237E-03  .214E-03  .125E-03
  .159E-03  .139E-03  .119E-03  .105E-03  .101E-03  .932E-04  .850E-04  .781E-04
  .667E-04  .566E-04  .539E-04  .544E-04  .456E-04  .453E-04  .485E-04  .409E-04
  .304E-04  .247E-04  .239E-04  .245E-04  .286E-04  .295E-04  .208E-04  .151E-04
  .156E-04  .125E-04  .105E-04  .110E-04  .994E-05  .782E-05  .604E-05  .487E-05
  .419E-05  .378E-05  .352E-05  .333E-05
  .350E-01  .368E-01  .395E-01  .432E-01  .443E-01  .478E-01  .548E-01  .639E-01
  .668E-01  .918E-01  .110E+00  .152E+00  .255E+00  .263E+00  .203E+00  .185E+00
  .240E+00  .209E+00  .250E+00  .261E+00  .297E+00  .310E+00  .292E+00  .302E+00
  .308E+00  .331E+00  .487E+00  .523E+00  .459E+00  .351E+00  .333E+00  .307E+00
  .284E+00  .269E+00  .258E+00  .274E+00  .256E+00  .250E+00  .244E+00  .229E+00
  .208E+00  .175E+00  .190E+00  .147E+00  .126E+00  .104E+00  .925E-01  .725E-01
  .705E-01  .655E-01  .643E-01  .558E-01  .503E-01  .475E-01  .462E-01  .432E-01
  .413E-01  .411E-01  .381E-01  .380E-01  .343E-01  .308E-01  .301E-01  .185E-01
  .257E-01  .240E-01  .215E-01  .200E-01  .203E-01  .196E-01  .186E-01  .178E-01
  .156E-01  .135E-01  .134E-01  .141E-01  .127E-01  .139E-01  .164E-01  .144E-01
  .106E-01  .867E-02  .918E-02  .125E-01  .167E-01  .181E-01  .140E-01  .111E-01
  .124E-01  .107E-01  .710E-02  .658E-02  .652E-02  .647E-02  .471E-02  .324E-02
  .261E-02  .197E-02  .184E-02  .189E-02
  .300E+02  .300E+02  .300E+02  .300E+02  .300E+02  .300E+02  .300E+02  .300E+02
  .300E+02  .300E+02  .306E+02  .306E+02  .306E+02  .307E+02  .308E+02  .303E+02
  .308E+02  .300E+02  .313E+02  .315E+02  .305E+02  .315E+02  .301E+02  .301E+02
  .301E+02  .302E+02  .306E+02  .308E+02  .306E+02  .303E+02  .302E+02  .303E+02
  .303E+02  .303E+02  .313E+02  .311E+02  .308E+02  .306E+02  .306E+02  .306E+02
  .306E+02  .304E+02  .340E+02  .305E+02  .305E+02  .305E+02  .337E+02  .300E+02
  .300E+02  .300E+02  .300E+02  .300E+02  .300E+02  .300E+02  .300E+02  .300E+02
  .300E+02  .300E+02  .300E+02  .300E+02  .300E+02  .300E+02  .300E+02  .300E+02
  .300E+02  .300E+02  .300E+02  .300E+02  .300E+02  .300E+02  .300E+02  .300E+02
  .300E+02  .300E+02  .300E+02  .300E+02  .300E+02  .300E+02  .300E+02  .300E+02
  .300E+02  .300E+02  .545E+02  .545E+02  .553E+02  .561E+02  .575E+02  .642E+02
  .652E+02  .669E+02  .490E+02  .300E+02  .300E+02  .623E+02  .547E+02  .483E+02
  .490E+02  .490E+02  .547E+02  .547E+02
  .305E+02  .305E+02  .305E+02  .305E+02  .305E+02  .305E+02  .303E+02  .305E+02
  .897E+01  .304E+02  .305E+02  .306E+02  .306E+02  .307E+02  .303E+02  .303E+02
  .308E+02  .300E+02  .315E+02  .315E+02  .304E+02  .306E+02  .301E+02  .302E+02
  .302E+02  .302E+02  .312E+02  .306E+02  .308E+02  .304E+02  .303E+02  .303E+02
  .302E+02  .302E+02  .312E+02  .312E+02  .311E+02  .307E+02  .307E+02  .305E+02
  .305E+02  .305E+02  .305E+02  .300E+02  .304E+02  .304E+02  .304E+02  .304E+02
  .300E+02  .300E+02  .300E+02  .300E+02  .300E+02  .300E+02  .300E+02  .300E+02
  .300E+02  .300E+02  .300E+02  .300E+02  .300E+02  .300E+02  .300E+02  .300E+02
  .300E+02  .300E+02  .300E+02  .300E+02  .300E+02  .300E+02  .300E+02  .300E+02
  .300E+02  .300E+02  .300E+02  .300E+02  .300E+02  .300E+02  .300E+02  .300E+02
  .300E+02  .300E+02  .300E+02  .300E+02  .300E+02  .300E+02  .300E+02  .300E+02
  .300E+02  .300E+02  .300E+02  .300E+02  .300E+02  .300E+02  .300E+02  .300E+02
  .300E+02  .300E+02  .300E+02  .300E+02
  .300E+02  .300E+02  .300E+02  .300E+02  .300E+02  .300E+02  .300E+02  .300E+02
  .300E+02  .300E+02  .306E+02  .306E+02  .306E+02  .307E+02  .303E+02  .303E+02
  .308E+02  .300E+02  .313E+02  .315E+02  .305E+02  .314E+02  .301E+02  .301E+02
  .301E+02  .301E+02  .306E+02  .308E+02  .306E+02  .303E+02  .302E+02  .303E+02
  .303E+02  .303E+02  .313E+02  .311E+02  .308E+02  .306E+02  .306E+02  .306E+02
  .306E+02  .304E+02  .340E+02  .305E+02  .305E+02  .305E+02  .337E+02  .300E+02
  .300E+02  .300E+02  .300E+02  .300E+02  .300E+02  .300E+02  .300E+02  .300E+02
  .300E+02  .300E+02  .300E+02  .300E+02  .300E+02  .300E+02  .300E+02  .300E+02
  .300E+02  .300E+02  .300E+02  .300E+02  .300E+02  .300E+02  .300E+02  .300E+02
  .300E+02  .300E+02  .300E+02  .300E+02  .300E+02  .300E+02  .300E+02  .300E+02
  .300E+02  .300E+02  .300E+02  .300E+02  .551E+02  .561E+02  .574E+02  .641E+02
  .652E+02  .668E+02  .300E+02  .300E+02  .300E+02  .300E+02  .300E+02  .300E+02
  .300E+02  .300E+02  .300E+02  .300E+02
Damping =  .05. Data of Sd,Sv,Sa,Pssv,ttSd,ttSv,ttSa :
  .222E-03  .248E-03  .278E-03  .310E-03  .341E-03  .375E-03  .475E-03  .600E-03
