Response and Fourier amplitude spectra (** periods,  .04 - 32.0 sec)   for      
Corrected accelerogram   89324-VAA6D-21355.06       Chan  4:  Tran       from   
Uncorrected Accelerogram Data             Processed: 12/21/21, CGS  aa6de006    
Rcrd of Mon Dec 20, 2021 13:53:27.0 PST           (Avol1 v6.5,64b, 1/20; PC00)  
CSMIP Preliminary Processing            (Origin:  To be determined)             
89324-VAA6D-21355.06                 Start time: 12/20/21, 21:53:27.0 UTC (GPS) 
Station No. 89324   40.503N, 124.101W    130-MC  s/n AA6D (17 Chns of 17 at Sta)
Rio Dell - Hwy 101/Painter St. Overpass   CGS   Data: Acceleration              
Chan  4:  Tran                      Location: Deck: Near West Abutment          
Rcrd of Mon Dec 20, 2021 13:53:27.0 PST    Mon Dec 20, 2021 13:53:27.0 PST      
Hypocenter:  To be determined.               ML:  To be determined.
Instr Period = 0.0008 sec,  Damping = 0.100,  Sensitivity = 1.64 v/g
                        Record Length = 65.610 sec.
                                     Uncor Max  = -0.020 g, at   30.410 sec.
RMS accel of (uncor) record  =        .   Chn. metadata effective date: 04/02/10
Accelerogram bandpass filtered with 3 dB pts at   .07 and 40.00 cyc/sec
                 instrument- and base-line correcte





Rcrd of Mon Dec 20, 2021 13:53:27.0 PST    Mon Dec 20, 2021 13:53:27.0 PST

89324-VAA6D-21355.06      Rio Dell - Hwy 101/Painter St. Overpass   Chan  4:  Tr
an
89324-VAA6D-21355.06      Rio Dell - Hwy 101/Painter St. Overpass   Chan  4:  Tr
an
Units for spectra are inches and sec, except Sa is in fraction of g.

    4  100    4   18   17  200    1    3    1   32  706 -999    089324    3    0
   21   53   27    0  354   12   20 2021   10    3  90013122   39   39   74   -1
13122    0  100    3 -999    1    6 -999 -999 -999 -999 -999 -999 -999 -999 -999
 -999 -999 -999 -999 6561    2  100    1   24  253 -999 -999    3    1 -999 6561
    3 6561    4  100    5   17    5    0    0 -999    0    0 -999 -999    1    2
    2    2    4    0   66   67    0    2 -999    0    0    1 4096 -999    0  222
    1 -999    5 -999
      .001      .100    65.610      .001     1.000  1642.000     -.020    30.410
  1300.000     1.584      .965  -999.000     5.000  -999.000     4.000  -999.000
    10.000    14.114    10.000   312.000    30.400    29.995  -999.000      .001
      .000     -.001     2.000    15.000    40.503  -124.101      .068      .076
     1.121     -.012      .009    43.000    30.398    35.609    13.300  -999.000
     1.000  -999.000    -8.000  -999.000  -999.000  -999.000  -999.000   120.000
     6.500     6.500     7.500   980.665      .010    65.610   206.901      .000
  -999.000    40.000  -999.000    65.610      .010      .067  -999.000  -999.000
    30.410   -19.139    30.590      .583    30.410      .030      .000      .067
    40.000      .010      .010     -.009      .010      .011  -999.000  -999.000
      .066      .260      .047      .053      .002      .000  -999.000  -999.000
  -999.000  -999.000  -999.000  -999.000  -999.000  -999.000  -999.000  -999.000
  -999.000  -999.000  -999.000  -999.000
      .000      .020      .050      .100      .200
      .040      .042      .044      .046      .048      .050      .055      .060
      .065      .070      .075      .080      .085      .090      .095      .100
      .110      .120      .130      .140      .150      .160      .170      .180
      .190      .200      .220      .240      .260      .280      .300      .320
      .340      .360      .380      .400      .420      .440      .460      .480
      .500      .550      .600      .650      .700      .750      .800      .850
      .900      .950     1.000     1.100     1.200     1.300     1.400     1.500
     1.600     1.700     1.800     1.900     2.000     2.200     2.400     2.600
     2.800     3.000     3.200     3.400     3.600     3.800     4.000     4.200
     4.400     4.600     4.800     5.000     5.500     6.000     6.500     7.000
     7.500     8.000     8.500     9.000     9.500    10.000    11.000    12.000
    13.000    14.000    15.000    16.000    18.000    20.000    22.000    24.000
    26.000    28.000    30.000    32.000
Fourier amplitude spectra in in/sec.
  .212E-01  .263E-01  .106E-02  .182E-01  .166E-01  .241E-01  .252E-01  .607E-01
  .527E-01  .175E-01  .336E-01  .212E-01  .858E-01  .136E+00  .172E+00  .338E+00
  .483E+00  .427E+00  .256E+00  .979E-01  .418E+00  .505E+00  .491E+00  .114E+01
  .136E+01  .353E+00  .289E+00  .209E+01  .955E+00  .329E+01  .136E+01  .699E+00
  .121E+01  .473E+00  .294E+00  .515E+00  .469E+00  .519E+00  .239E+00  .213E+00
  .121E+00  .159E+00  .129E+00  .108E+00  .548E-01  .984E-01  .126E+00  .682E-01
  .293E-01  .102E+00  .261E-01  .535E-01  .524E-01  .283E-01  .311E-01  .342E-01
  .211E-01  .153E-01  .227E-01  .463E-02  .123E-01  .111E-01  .271E-01  .212E-01
  .122E-01  .212E-01  .155E-01  .208E-01  .193E-01  .172E-01  .254E-01  .211E-01
  .120E-01  .201E-01  .180E-01  .207E-01  .229E-01  .226E-01  .215E-01  .131E-01
  .159E-01  .111E-01  .120E-01  .235E-01  .239E-01  .154E-01  .754E-02  .916E-02
  .150E-02  .675E-02  .753E-02  .412E-02  .427E-02  .700E-02  .538E-02  .278E-02
  .158E-02  .210E-02  .245E-02  .237E-02
Damping =  .00. Data of Sd,Sv,Sa,Pssv,ttSd,ttSv,ttSa :
  .437E-03  .396E-03  .424E-03  .508E-03  .546E-03  .654E-03  .625E-03  .110E-02
  .144E-02  .142E-02  .140E-02  .170E-02  .233E-02  .323E-02  .419E-02  .640E-02
  .112E-01  .107E-01  .867E-02  .797E-02  .145E-01  .200E-01  .255E-01  .348E-01
  .412E-01  .239E-01  .246E-01  .867E-01  .804E-01  .156E+00  .922E-01  .601E-01
  .682E-01  .454E-01  .384E-01  .384E-01  .344E-01  .430E-01  .286E-01  .261E-01
  .230E-01  .222E-01  .216E-01  .189E-01  .177E-01  .186E-01  .175E-01  .155E-01
  .172E-01  .178E-01  .144E-01  .141E-01  .141E-01  .153E-01  .182E-01  .152E-01
  .159E-01  .120E-01  .141E-01  .161E-01  .119E-01  .140E-01  .181E-01  .172E-01
  .158E-01  .195E-01  .180E-01  .160E-01  .217E-01  .205E-01  .170E-01  .142E-01
  .129E-01  .168E-01  .208E-01  .289E-01  .201E-01  .245E-01  .258E-01  .174E-01
  .198E-01  .225E-01  .306E-01  .372E-01  .369E-01  .281E-01  .235E-01  .196E-01
  .158E-01  .209E-01  .193E-01  .139E-01  .216E-01  .230E-01  .216E-01  .154E-01
  .160E-01  .194E-01  .209E-01  .211E-01
  .332E-01  .311E-01  .161E-01  .256E-01  .297E-01  .429E-01  .366E-01  .698E-01
  .892E-01  .772E-01  .797E-01  .715E-01  .116E+00  .159E+00  .197E+00  .363E+00
  .557E+00  .535E+00  .334E+00  .283E+00  .520E+00  .687E+00  .844E+00  .120E+01
  .136E+01  .713E+00  .661E+00  .223E+01  .194E+01  .353E+01  .198E+01  .125E+01
  .127E+01  .918E+00  .804E+00  .720E+00  .614E+00  .657E+00  .532E+00  .503E+00
  .463E+00  .417E+00  .386E+00  .337E+00  .318E+00  .299E+00  .282E+00  .271E+00
  .280E+00  .253E+00  .233E+00  .255E+00  .232E+00  .255E+00  .240E+00  .231E+00
  .236E+00  .232E+00  .230E+00  .234E+00  .235E+00  .239E+00  .231E+00  .229E+00
  .237E+00  .239E+00  .239E+00  .234E+00  .250E+00  .232E+00  .230E+00  .230E+00
  .229E+00  .237E+00  .246E+00  .240E+00  .239E+00  .241E+00  .239E+00  .228E+00
  .230E+00  .240E+00  .240E+00  .230E+00  .235E+00  .241E+00  .235E+00  .229E+00
  .231E+00  .227E+00  .231E+00  .233E+00  .231E+00  .227E+00  .229E+00  .230E+00
  .229E+00  .228E+00  .227E+00  .228E+00
  .279E-01  .230E-01  .224E-01  .245E-01  .243E-01  .267E-01  .211E-01  .312E-01
  .348E-01  .296E-01  .254E-01  .272E-01  .330E-01  .407E-01  .474E-01  .654E-01
  .943E-01  .762E-01  .525E-01  .416E-01  .658E-01  .798E-01  .902E-01  .110E+00
  .117E+00  .612E-01  .519E-01  .154E+00  .122E+00  .204E+00  .105E+00  .600E-01
  .603E-01  .358E-01  .272E-01  .245E-01  .199E-01  .227E-01  .138E-01  .116E-01
  .941E-02  .750E-02  .615E-02  .457E-02  .370E-02  .339E-02  .279E-02  .220E-02
  .217E-02  .202E-02  .147E-02  .119E-02  .100E-02  .924E-03  .952E-03  .693E-03
  .635E-03  .424E-03  .444E-03  .456E-03  .305E-03  .295E-03  .322E-03  .261E-03
  .207E-03  .222E-03  .180E-03  .141E-03  .171E-03  .145E-03  .109E-03  .824E-04
  .682E-04  .811E-04  .924E-04  .118E-03  .679E-04  .697E-04  .625E-04  .362E-04
  .361E-04  .360E-04  .433E-04  .470E-04  .418E-04  .288E-04  .199E-04  .139E-04
  .956E-05  .109E-04  .876E-05  .557E-05  .682E-05  .588E-05  .456E-05  .274E-05
  .242E-05  .253E-05  .238E-05  .210E-05
  .686E-01  .593E-01  .605E-01  .694E-01  .715E-01  .821E-01  .714E-01  .115E+00
  .139E+00  .127E+00  .117E+00  .134E+00  .172E+00  .225E+00  .277E+00  .402E+00
  .637E+00  .562E+00  .419E+00  .358E+00  .606E+00  .784E+00  .942E+00  .122E+01
  .136E+01  .752E+00  .701E+00  .227E+01  .194E+01  .351E+01  .193E+01  .118E+01
  .126E+01  .792E+00  .635E+00  .603E+00  .514E+00  .615E+00  .391E+00  .342E+00
  .289E+00  .254E+00  .227E+00  .182E+00  .159E+00  .156E+00  .137E+00  .115E+00
  .120E+00  .118E+00  .903E-01  .807E-01  .740E-01  .738E-01  .819E-01  .638E-01
  .624E-01  .443E-01  .491E-01  .532E-01  .375E-01  .398E-01  .474E-01  .417E-01
  .356E-01  .409E-01  .354E-01  .295E-01  .378E-01  .339E-01  .268E-01  .213E-01
  .184E-01  .229E-01  .272E-01  .363E-01  .229E-01  .257E-01  .250E-01  .156E-01
  .166E-01  .177E-01  .226E-01  .260E-01  .244E-01  .177E-01  .134E-01  .103E-01
  .763E-02  .938E-02  .807E-02  .548E-02  .754E-02  .722E-02  .617E-02  .404E-02
  .386E-02  .435E-02  .438E-02  .414E-02
  .304E+02  .305E+02  .304E+02  .304E+02  .304E+02  .304E+02  .304E+02  .304E+02
  .304E+02  .304E+02  .304E+02  .304E+02  .304E+02  .304E+02  .304E+02  .304E+02
  .306E+02  .330E+02  .305E+02  .305E+02  .305E+02  .305E+02  .306E+02  .352E+02
  .373E+02  .309E+02  .332E+02  .329E+02  .313E+02  .334E+02  .324E+02  .308E+02
  .414E+02  .306E+02  .307E+02  .359E+02  .328E+02  .353E+02  .305E+02  .305E+02
  .305E+02  .304E+02  .352E+02  .304E+02  .304E+02  .345E+02  .304E+02  .304E+02
  .304E+02  .304E+02  .302E+02  .304E+02  .304E+02  .304E+02  .304E+02  .304E+02
  .304E+02  .302E+02  .304E+02  .304E+02  .302E+02  .302E+02  .304E+02  .304E+02
  .302E+02  .306E+02  .302E+02  .306E+02  .302E+02  .302E+02  .570E+02  .641E+02
  .304E+02  .520E+02  .302E+02  .302E+02  .649E+02  .440E+02  .518E+02  .304E+02
  .611E+02  .325E+02  .333E+02  .304E+02  .593E+02  .321E+02  .302E+02  .302E+02
  .142E+02  .304E+02  .304E+02  .271E+02  .302E+02  .302E+02  .557E+02  .239E+02
  .304E+02  .304E+02  .304E+02  .304E+02
  .304E+02  .307E+02  .306E+02  .306E+02  .306E+02  .306E+02  .304E+02  .304E+02
  .304E+02  .304E+02  .320E+02  .304E+02  .304E+02  .304E+02  .306E+02  .333E+02
  .307E+02  .330E+02  .305E+02  .305E+02  .305E+02  .306E+02  .307E+02  .352E+02
  .464E+02  .310E+02  .332E+02  .329E+02  .313E+02  .333E+02  .323E+02  .307E+02
  .413E+02  .306E+02  .306E+02  .306E+02  .306E+02  .352E+02  .304E+02  .304E+02
  .304E+02  .304E+02  .304E+02  .304E+02  .304E+02  .304E+02  .304E+02  .304E+02
  .304E+02  .304E+02  .304E+02  .304E+02  .306E+02  .304E+02  .304E+02  .304E+02
  .304E+02  .304E+02  .304E+02  .304E+02  .304E+02  .306E+02  .304E+02  .306E+02
  .306E+02  .306E+02  .306E+02  .306E+02  .306E+02  .306E+02  .304E+02  .304E+02
  .304E+02  .306E+02  .306E+02  .306E+02  .304E+02  .304E+02  .304E+02  .304E+02
  .304E+02  .304E+02  .304E+02  .304E+02  .306E+02  .306E+02  .306E+02  .304E+02
  .304E+02  .306E+02  .306E+02  .306E+02  .306E+02  .304E+02  .304E+02  .304E+02
  .304E+02  .304E+02  .304E+02  .306E+02
  .304E+02  .305E+02  .304E+02  .304E+02  .304E+02  .304E+02  .304E+02  .304E+02
  .304E+02  .304E+02  .304E+02  .304E+02  .304E+02  .304E+02  .304E+02  .304E+02
  .306E+02  .330E+02  .305E+02  .305E+02  .305E+02  .305E+02  .306E+02  .352E+02
  .373E+02  .309E+02  .332E+02  .329E+02  .313E+02  .334E+02  .324E+02  .308E+02
  .414E+02  .306E+02  .307E+02  .359E+02  .328E+02  .353E+02  .305E+02  .305E+02
  .305E+02  .304E+02  .352E+02  .304E+02  .304E+02  .345E+02  .304E+02  .304E+02
  .304E+02  .304E+02  .302E+02  .304E+02  .304E+02  .304E+02  .304E+02  .304E+02
  .304E+02  .302E+02  .304E+02  .304E+02  .302E+02  .302E+02  .304E+02  .304E+02
  .302E+02  .306E+02  .302E+02  .306E+02  .302E+02  .302E+02  .570E+02  .641E+02
  .304E+02  .520E+02  .302E+02  .302E+02  .649E+02  .440E+02  .518E+02  .304E+02
  .611E+02  .325E+02  .333E+02  .304E+02  .593E+02  .321E+02  .302E+02  .302E+02
  .142E+02  .304E+02  .304E+02  .271E+02  .302E+02  .302E+02  .557E+02  .239E+02
  .304E+02  .304E+02  .304E+02  .304E+02
Damping =  .02. Data of Sd,Sv,Sa,Pssv,ttSd,ttSv,ttSa :
  .345E-03  .328E-03  .400E-03  .453E-03  .517E-03  .571E-03  .638E-03  .665E-03
  .903E-03  .117E-02  .138E-02  .157E-02  .227E-02  .308E-02  .406E-02  .557E-02
  .841E-02  .902E-02  .779E-02  .778E-02  .121E-01  .167E-01  .202E-01  .224E-01
  .234E-01  .205E-01  .217E-01  .428E-01  .586E-01  .745E-01  .585E-01  .516E-01
  .464E-01  .412E-01  .354E-01  .340E-01  .317E-01  .293E-01  .274E-01  .253E-01
  .232E-01  .206E-01  .197E-01  .189E-01  .179E-01  .177E-01  .171E-01  .163E-01
  .165E-01  .162E-01  .149E-01  .145E-01  .145E-01  .145E-01  .153E-01  .131E-01
  .134E-01  .121E-01  .133E-01  .140E-01  .126E-01  .122E-01  .156E-01  .153E-01
  .130E-01  .154E-01  .152E-01  .130E-01  .186E-01  .187E-01  .150E-01  .134E-01
  .113E-01  .128E-01  .193E-01  .244E-01  .185E-01  .190E-01  .177E-01  .157E-01
  .140E-01  .188E-01  .248E-01  .318E-01  .298E-01  .228E-01  .196E-01  .176E-01
  .147E-01  .186E-01  .176E-01  .131E-01  .198E-01  .213E-01  .182E-01  .144E-01
  .151E-01  .184E-01  .201E-01  .200E-01
  .176E-01  .164E-01  .157E-01  .194E-01  .242E-01  .274E-01  .340E-01  .361E-01
  .433E-01  .507E-01  .537E-01  .730E-01  .111E+00  .146E+00  .186E+00  .278E+00
  .438E+00  .427E+00  .312E+00  .279E+00  .434E+00  .561E+00  .660E+00  .736E+00
  .704E+00  .605E+00  .571E+00  .109E+01  .139E+01  .171E+01  .129E+01  .112E+01
  .949E+00  .846E+00  .760E+00  .675E+00  .592E+00  .543E+00  .519E+00  .494E+00
  .468E+00  .416E+00  .373E+00  .337E+00  .317E+00  .300E+00  .284E+00  .275E+00
  .270E+00  .259E+00  .248E+00  .251E+00  .240E+00  .245E+00  .234E+00  .231E+00
  .234E+00  .233E+00  .233E+00  .232E+00  .232E+00  .233E+00  .230E+00  .232E+00
  .235E+00  .237E+00  .238E+00  .236E+00  .243E+00  .234E+00  .229E+00  .229E+00
  .229E+00  .235E+00  .240E+00  .237E+00  .237E+00  .239E+00  .238E+00  .230E+00
  .231E+00  .237E+00  .237E+00  .230E+00  .232E+00  .237E+00  .234E+00  .228E+00
  .230E+00  .227E+00  .230E+00  .232E+00  .230E+00  .227E+00  .229E+00  .229E+00
  .229E+00  .228E+00  .227E+00  .228E+00
  .221E-01  .190E-01  .211E-01  .219E-01  .230E-01  .234E-01  .216E-01  .189E-01
  .219E-01  .243E-01  .251E-01  .251E-01  .320E-01  .390E-01  .461E-01  .567E-01
  .711E-01  .638E-01  .473E-01  .407E-01  .550E-01  .668E-01  .718E-01  .709E-01
  .662E-01  .524E-01  .458E-01  .762E-01  .890E-01  .969E-01  .664E-01  .517E-01
  .413E-01  .326E-01  .252E-01  .217E-01  .184E-01  .155E-01  .133E-01  .112E-01
  .948E-02  .701E-02  .561E-02  .457E-02  .374E-02  .324E-02  .276E-02  .233E-02
  .210E-02  .186E-02  .155E-02  .125E-02  .105E-02  .897E-03  .813E-03  .609E-03
  .552E-03  .443E-03  .435E-03  .409E-03  .336E-03  .270E-03  .291E-03  .243E-03
  .180E-03  .186E-03  .161E-03  .125E-03  .155E-03  .141E-03  .104E-03  .859E-04
  .696E-04  .697E-04  .932E-04  .108E-03  .704E-04  .572E-04  .470E-04  .418E-04
  .279E-04  .340E-04  .423E-04  .480E-04  .423E-04  .307E-04  .217E-04  .176E-04
  .143E-04  .161E-04  .146E-04  .115E-04  .102E-04  .967E-05  .781E-05  .634E-05
  .659E-05  .650E-05  .620E-05  .578E-05
  .542E-01  .491E-01  .571E-01  .619E-01  .677E-01  .718E-01  .728E-01  .696E-01
  .873E-01  .105E+00  .116E+00  .123E+00  .168E+00  .215E+00  .269E+00  .350E+00
  .480E+00  .472E+00  .377E+00  .349E+00  .508E+00  .655E+00  .747E+00  .782E+00
  .772E+00  .643E+00  .619E+00  .112E+01  .142E+01  .167E+01  .123E+01  .101E+01
  .858E+00  .720E+00  .585E+00  .534E+00  .474E+00  .418E+00  .374E+00  .331E+00
  .291E+00  .235E+00  .207E+00  .182E+00  .160E+00  .148E+00  .134E+00  .120E+00
  .115E+00  .107E+00  .938E-01  .828E-01  .758E-01  .701E-01  .685E-01  .547E-01
  .527E-01  .448E-01  .466E-01  .462E-01  .396E-01  .347E-01  .408E-01  .369E-01
  .292E-01  .323E-01  .299E-01  .239E-01  .324E-01  .309E-01  .236E-01  .201E-01
  .161E-01  .175E-01  .252E-01  .307E-01  .212E-01  .199E-01  .171E-01  .141E-01
  .117E-01  .148E-01  .183E-01  .222E-01  .197E-01  .143E-01  .112E-01  .921E-02
  .712E-02  .836E-02  .736E-02  .513E-02  .692E-02  .670E-02  .519E-02  .377E-02
  .366E-02  .413E-02  .420E-02  .392E-02
  .304E+02  .304E+02  .304E+02  .304E+02  .304E+02  .304E+02  .304E+02  .304E+02
  .304E+02  .304E+02  .304E+02  .304E+02  .304E+02  .304E+02  .304E+02  .304E+02
  .304E+02  .305E+02  .305E+02  .305E+02  .305E+02  .305E+02  .306E+02  .308E+02
  .308E+02  .309E+02  .309E+02  .327E+02  .311E+02  .327E+02  .309E+02  .308E+02
  .306E+02  .306E+02  .305E+02  .305E+02  .305E+02  .305E+02  .305E+02  .305E+02
  .305E+02  .304E+02  .304E+02  .304E+02  .304E+02  .304E+02  .304E+02  .304E+02
  .304E+02  .304E+02  .304E+02  .304E+02  .304E+02  .304E+02  .304E+02  .304E+02
  .304E+02  .304E+02  .304E+02  .304E+02  .304E+02  .304E+02  .304E+02  .306E+02
  .302E+02  .306E+02  .302E+02  .306E+02  .302E+02  .302E+02  .302E+02  .302E+02
  .302E+02  .302E+02  .302E+02  .302E+02  .302E+02  .440E+02  .418E+02  .304E+02
  .612E+02  .325E+02  .333E+02  .304E+02  .306E+02  .321E+02  .302E+02  .302E+02
  .142E+02  .304E+02  .304E+02  .918E+01  .302E+02  .302E+02  .557E+02  .239E+02
  .304E+02  .304E+02  .304E+02  .304E+02
  .304E+02  .303E+02  .303E+02  .306E+02  .306E+02  .304E+02  .304E+02  .304E+02
  .304E+02  .304E+02  .303E+02  .303E+02  .304E+02  .304E+02  .304E+02  .304E+02
  .304E+02  .305E+02  .305E+02  .305E+02  .305E+02  .305E+02  .306E+02  .307E+02
  .308E+02  .308E+02  .303E+02  .327E+02  .312E+02  .326E+02  .308E+02  .307E+02
  .307E+02  .306E+02  .306E+02  .306E+02  .306E+02  .304E+02  .304E+02  .304E+02
  .304E+02  .304E+02  .304E+02  .304E+02  .304E+02  .304E+02  .304E+02  .304E+02
  .304E+02  .304E+02  .304E+02  .304E+02  .304E+02  .304E+02  .304E+02  .304E+02
  .304E+02  .304E+02  .304E+02  .304E+02  .304E+02  .306E+02  .304E+02  .306E+02
  .306E+02  .306E+02  .306E+02  .306E+02  .306E+02  .306E+02  .306E+02  .304E+02
  .306E+02  .306E+02  .306E+02  .306E+02  .304E+02  .304E+02  .304E+02  .304E+02
  .304E+02  .304E+02  .304E+02  .304E+02  .306E+02  .306E+02  .306E+02  .304E+02
  .304E+02  .306E+02  .306E+02  .306E+02  .306E+02  .306E+02  .304E+02  .304E+02
  .304E+02  .304E+02  .304E+02  .306E+02
  .304E+02  .304E+02  .304E+02  .304E+02  .304E+02  .304E+02  .304E+02  .304E+02
  .304E+02  .304E+02  .304E+02  .304E+02  .304E+02  .304E+02  .304E+02  .304E+02
  .304E+02  .305E+02  .305E+02  .305E+02  .305E+02  .305E+02  .306E+02  .307E+02
  .308E+02  .309E+02  .309E+02  .327E+02  .311E+02  .327E+02  .309E+02  .308E+02
  .306E+02  .306E+02  .305E+02  .305E+02  .305E+02  .305E+02  .305E+02  .305E+02
  .305E+02  .304E+02  .304E+02  .304E+02  .304E+02  .304E+02  .304E+02  .304E+02
  .304E+02  .304E+02  .304E+02  .304E+02  .304E+02  .304E+02  .304E+02  .304E+02
  .304E+02  .304E+02  .304E+02  .304E+02  .304E+02  .304E+02  .304E+02  .304E+02
  .302E+02  .306E+02  .302E+02  .306E+02  .302E+02  .302E+02  .302E+02  .302E+02
  .304E+02  .302E+02  .302E+02  .302E+02  .302E+02  .319E+02  .324E+02  .304E+02
  .302E+02  .324E+02  .304E+02  .304E+02  .306E+02  .306E+02  .302E+02  .302E+02
  .306E+02  .306E+02  .306E+02  .306E+02  .305E+02  .305E+02  .305E+02  .306E+02
  .306E+02  .306E+02  .306E+02  .306E+02
Damping =  .05. Data of Sd,Sv,Sa,Pssv,ttSd,ttSv,ttSa :
  .330E-03  .347E-03  .393E-03  .446E-03  .499E-03  .546E-03  .626E-03  .691E-03
