Response and Fourier amplitude spectra (** periods,  .04 - 32.0 sec)   for      
Corrected accelerogram   89324-VAA6D-21355.06       Chan 16:  Up         from   
Uncorrected Accelerogram Data             Processed: 12/21/21, CGS  aa6de006    
Rcrd of Mon Dec 20, 2021 13:53:27.0 PST           (Avol1 v6.5,64b, 1/20; PC00)  
CSMIP Preliminary Processing            (Origin:  To be determined)             
89324-VAA6D-21355.06                 Start time: 12/20/21, 21:53:27.0 UTC (GPS) 
Station No. 89324   40.503N, 124.101W    130-MC  s/n AA6D (17 Chns of 17 at Sta)
Rio Dell - Hwy 101/Painter St. Overpass   CGS   Data: Acceleration              
Chan 16:  Up      (Sta Chn: 19)     Location: On Ground: Near West Abutment     
Rcrd of Mon Dec 20, 2021 13:53:27.0 PST    Mon Dec 20, 2021 13:53:27.0 PST      
Hypocenter:  To be determined.               ML:  To be determined.
Instr Period = 0.0008 sec,  Damping = 0.100,  Sensitivity = 1.64 v/g
                        Record Length = 65.610 sec.
                                     Uncor Max  = -0.005 g, at   30.440 sec.
RMS accel of (uncor) record  =        .   Chn. metadata effective date: 04/02/10
Accelerogram bandpass filtered with 3 dB pts at   .07 and 40.00 cyc/sec
                 instrument- and base-line correcte





Rcrd of Mon Dec 20, 2021 13:53:27.0 PST    Mon Dec 20, 2021 13:53:27.0 PST

89324-VAA6D-21355.06      Rio Dell - Hwy 101/Painter St. Overpass   Chan 16:  Up

89324-VAA6D-21355.06      Rio Dell - Hwy 101/Painter St. Overpass   Chan 16:  Up

Units for spectra are inches and sec, except Sa is in fraction of g.

   16  100   19   18   17  200    1    3    1   32  706 -999    089324    3    0
   21   53   27    0  354   12   20 2021   10    3  50013122   39   39   74   -1
13122    1  100    3 -999    1    6 -999 -999 -999 -999 -999 -999 -999 -999 -999
 -999 -999 -999 -999 6561    2  100    1   24  253 -999 -999    3    1 -999 6561
    3 6561    4  100    5   17    5    0    0 -999    0    0 -999 -999    1    2
    2    2    4    0   66   67    0    2 -999    0    0    1 4096 -999    0  222
    1 -999   17 -999
      .001      .100    65.610      .000     1.000  1636.000     -.005    30.440
  1300.000     1.583      .968  -999.000     5.000  -999.000     4.000  -999.000
    10.000   999.961    10.000   312.000    30.400    29.995  -999.000      .003
      .000     -.004     2.000    15.000    40.503  -124.101      .054      .031
      .587     -.011      .004    43.000    30.398    35.609    13.300  -999.000
     1.000  -999.000    -8.000  -999.000  -999.000  -999.000  -999.000   120.000
     6.500     6.500     7.500   980.665      .010    65.610   206.901      .000
  -999.000    40.000  -999.000    65.610      .010      .067  -999.000  -999.000
    30.440    -4.898    30.740     -.099    30.880     -.008      .000      .067
    40.000      .010      .010      .001      .010      .003  -999.000  -999.000
      .022      .100      .007      .006      .000      .000  -999.000  -999.000
  -999.000  -999.000  -999.000  -999.000  -999.000  -999.000  -999.000  -999.000
  -999.000  -999.000  -999.000  -999.000
      .000      .020      .050      .100      .200
      .040      .042      .044      .046      .048      .050      .055      .060
      .065      .070      .075      .080      .085      .090      .095      .100
      .110      .120      .130      .140      .150      .160      .170      .180
      .190      .200      .220      .240      .260      .280      .300      .320
      .340      .360      .380      .400      .420      .440      .460      .480
      .500      .550      .600      .650      .700      .750      .800      .850
      .900      .950     1.000     1.100     1.200     1.300     1.400     1.500
     1.600     1.700     1.800     1.900     2.000     2.200     2.400     2.600
     2.800     3.000     3.200     3.400     3.600     3.800     4.000     4.200
     4.400     4.600     4.800     5.000     5.500     6.000     6.500     7.000
     7.500     8.000     8.500     9.000     9.500    10.000    11.000    12.000
    13.000    14.000    15.000    16.000    18.000    20.000    22.000    24.000
    26.000    28.000    30.000    32.000
Fourier amplitude spectra in in/sec.
  .105E-01  .204E-01  .742E-02  .211E-01  .468E-01  .179E-01  .103E-01  .607E-01
  .866E-01  .700E-01  .286E-01  .876E-01  .528E-01  .162E+00  .377E+00  .275E+00
  .130E+00  .318E+00  .113E+00  .482E-01  .148E+00  .569E-01  .107E+00  .176E+00
  .226E+00  .166E+00  .214E-01  .110E+00  .205E+00  .164E+00  .115E+00  .174E+00
  .165E+00  .149E+00  .134E+00  .138E+00  .216E+00  .159E+00  .657E-01  .142E+00
  .115E+00  .112E+00  .682E-01  .920E-01  .838E-01  .843E-01  .736E-01  .313E-01
  .277E-01  .394E-01  .369E-01  .144E-01  .701E-02  .847E-02  .152E-02  .695E-02
  .993E-02  .776E-03  .340E-02  .268E-02  .175E-02  .370E-02  .492E-03  .122E-02
  .354E-02  .172E-02  .246E-02  .300E-02  .580E-02  .627E-02  .391E-02  .300E-02
  .194E-02  .344E-02  .382E-02  .178E-02  .919E-02  .340E-02  .712E-02  .246E-02
  .357E-02  .245E-02  .338E-02  .353E-02  .438E-02  .599E-02  .471E-02  .118E-02
  .508E-02  .617E-02  .518E-02  .358E-02  .215E-02  .225E-02  .185E-02  .122E-02
  .668E-03  .340E-03  .296E-03  .362E-03
Damping =  .00. Data of Sd,Sv,Sa,Pssv,ttSd,ttSv,ttSa :
  .150E-03  .211E-03  .118E-03  .212E-03  .537E-03  .227E-03  .252E-03  .712E-03
  .112E-02  .126E-02  .792E-03  .157E-02  .146E-02  .276E-02  .605E-02  .466E-02
  .320E-02  .686E-02  .463E-02  .226E-02  .446E-02  .420E-02  .630E-02  .556E-02
  .686E-02  .697E-02  .516E-02  .741E-02  .106E-01  .116E-01  .779E-02  .993E-02
  .984E-02  .912E-02  .102E-01  .101E-01  .150E-01  .112E-01  .873E-02  .113E-01
  .940E-02  .106E-01  .866E-02  .120E-01  .106E-01  .101E-01  .120E-01  .811E-02
  .709E-02  .629E-02  .697E-02  .504E-02  .378E-02  .391E-02  .310E-02  .327E-02
  .295E-02  .314E-02  .317E-02  .319E-02  .334E-02  .265E-02  .223E-02  .249E-02
  .394E-02  .255E-02  .288E-02  .276E-02  .355E-02  .400E-02  .377E-02  .302E-02
  .292E-02  .381E-02  .384E-02  .336E-02  .805E-02  .812E-02  .741E-02  .563E-02
  .525E-02  .581E-02  .613E-02  .528E-02  .679E-02  .973E-02  .824E-02  .784E-02
  .105E-01  .137E-01  .126E-01  .117E-01  .103E-01  .819E-02  .695E-02  .537E-02
  .514E-02  .540E-02  .548E-02  .536E-02
  .181E-01  .234E-01  .979E-02  .245E-01  .597E-01  .255E-01  .210E-01  .681E-01
  .984E-01  .107E+00  .563E-01  .114E+00  .981E-01  .185E+00  .394E+00  .295E+00
  .174E+00  .350E+00  .233E+00  .114E+00  .186E+00  .163E+00  .223E+00  .190E+00
  .227E+00  .215E+00  .144E+00  .194E+00  .262E+00  .260E+00  .163E+00  .193E+00
  .183E+00  .160E+00  .169E+00  .157E+00  .225E+00  .160E+00  .131E+00  .147E+00
  .125E+00  .121E+00  .938E-01  .120E+00  .956E-01  .924E-01  .944E-01  .717E-01
  .707E-01  .668E-01  .683E-01  .585E-01  .504E-01  .500E-01  .443E-01  .441E-01
  .434E-01  .439E-01  .435E-01  .427E-01  .424E-01  .409E-01  .411E-01  .405E-01
  .423E-01  .389E-01  .394E-01  .391E-01  .396E-01  .409E-01  .413E-01  .399E-01
  .396E-01  .407E-01  .403E-01  .391E-01  .421E-01  .401E-01  .428E-01  .395E-01
  .408E-01  .394E-01  .390E-01  .389E-01  .381E-01  .387E-01  .390E-01  .414E-01
  .423E-01  .417E-01  .404E-01  .390E-01  .391E-01  .394E-01  .392E-01  .388E-01
  .384E-01  .381E-01  .381E-01  .383E-01
  .956E-02  .122E-01  .622E-02  .102E-01  .238E-01  .929E-02  .851E-02  .202E-01
  .270E-01  .263E-01  .144E-01  .250E-01  .206E-01  .348E-01  .686E-01  .476E-01
  .271E-01  .487E-01  .280E-01  .118E-01  .203E-01  .168E-01  .223E-01  .176E-01
  .194E-01  .178E-01  .109E-01  .132E-01  .160E-01  .151E-01  .885E-02  .992E-02
  .871E-02  .720E-02  .723E-02  .646E-02  .868E-02  .593E-02  .422E-02  .502E-02
  .385E-02  .358E-02  .246E-02  .292E-02  .221E-02  .184E-02  .192E-02  .115E-02
  .895E-03  .712E-03  .713E-03  .426E-03  .269E-03  .236E-03  .162E-03  .149E-03
  .118E-03  .111E-03  .100E-03  .903E-04  .853E-04  .560E-04  .395E-04  .377E-04
  .514E-04  .290E-04  .288E-04  .244E-04  .280E-04  .283E-04  .241E-04  .175E-04
  .154E-04  .184E-04  .171E-04  .138E-04  .272E-04  .231E-04  .179E-04  .117E-04
  .955E-05  .928E-05  .867E-05  .666E-05  .769E-05  .995E-05  .696E-05  .557E-05
  .636E-05  .717E-05  .574E-05  .469E-05  .326E-05  .209E-05  .147E-05  .953E-06
  .778E-06  .704E-06  .622E-06  .535E-06
  .235E-01  .315E-01  .168E-01  .289E-01  .703E-01  .285E-01  .288E-01  .746E-01
  .108E+00  .113E+00  .664E-01  .123E+00  .108E+00  .192E+00  .400E+00  .293E+00
  .183E+00  .359E+00  .224E+00  .101E+00  .187E+00  .165E+00  .233E+00  .194E+00
  .227E+00  .219E+00  .147E+00  .194E+00  .256E+00  .259E+00  .163E+00  .195E+00
  .182E+00  .159E+00  .169E+00  .159E+00  .224E+00  .160E+00  .119E+00  .148E+00
  .118E+00  .121E+00  .907E-01  .116E+00  .951E-01  .848E-01  .945E-01  .599E-01
  .495E-01  .416E-01  .438E-01  .288E-01  .198E-01  .189E-01  .139E-01  .137E-01
  .116E-01  .116E-01  .111E-01  .105E-01  .105E-01  .756E-02  .583E-02  .602E-02
  .884E-02  .534E-02  .566E-02  .510E-02  .620E-02  .661E-02  .592E-02  .451E-02
  .418E-02  .521E-02  .503E-02  .423E-02  .919E-02  .851E-02  .717E-02  .505E-02
  .440E-02  .456E-02  .453E-02  .368E-02  .449E-02  .611E-02  .471E-02  .411E-02
  .508E-02  .617E-02  .529E-02  .461E-02  .360E-02  .257E-02  .198E-02  .141E-02
  .124E-02  .121E-02  .115E-02  .105E-02
  .304E+02  .304E+02  .304E+02  .304E+02  .304E+02  .304E+02  .304E+02  .307E+02
  .304E+02  .303E+02  .304E+02  .304E+02  .308E+02  .308E+02  .313E+02  .317E+02
  .310E+02  .314E+02  .309E+02  .308E+02  .324E+02  .313E+02  .319E+02  .362E+02
  .584E+02  .326E+02  .315E+02  .322E+02  .321E+02  .333E+02  .328E+02  .343E+02
  .393E+02  .433E+02  .351E+02  .381E+02  .419E+02  .611E+02  .326E+02  .526E+02
  .453E+02  .420E+02  .319E+02  .346E+02  .436E+02  .532E+02  .446E+02  .344E+02
  .337E+02  .601E+02  .400E+02  .312E+02  .312E+02  .309E+02  .309E+02  .309E+02
  .313E+02  .309E+02  .313E+02  .313E+02  .309E+02  .312E+02  .309E+02  .312E+02
  .309E+02  .313E+02  .309E+02  .313E+02  .534E+02  .542E+02  .457E+02  .309E+02
  .385E+02  .346E+02  .346E+02  .452E+02  .574E+02  .309E+02  .622E+02  .481E+02
  .366E+02  .309E+02  .480E+02  .628E+02  .632E+02  .594E+02  .673E+02  .317E+02
  .680E+02  .708E+02  .525E+02  .460E+02  .413E+02  .345E+02  .345E+02  .258E+02
  .527E+02  .309E+02  .309E+02  .309E+02
  .304E+02  .287E+02  .269E+02  .373E+02  .304E+02  .948E+01  .304E+02  .307E+02
  .304E+02  .304E+02  .308E+02  .305E+02  .307E+02  .308E+02  .313E+02  .319E+02
  .310E+02  .314E+02  .309E+02  .308E+02  .324E+02  .312E+02  .320E+02  .362E+02
  .599E+02  .325E+02  .316E+02  .321E+02  .322E+02  .334E+02  .327E+02  .344E+02
  .398E+02  .439E+02  .354E+02  .380E+02  .418E+02  .610E+02  .325E+02  .525E+02
  .341E+02  .424E+02  .318E+02  .361E+02  .438E+02  .323E+02  .456E+02  .346E+02
  .313E+02  .313E+02  .313E+02  .313E+02  .313E+02  .310E+02  .310E+02  .310E+02
  .310E+02  .310E+02  .310E+02  .310E+02  .310E+02  .304E+02  .307E+02  .313E+02
  .310E+02  .304E+02  .307E+02  .304E+02  .304E+02  .304E+02  .310E+02  .310E+02
  .310E+02  .310E+02  .310E+02  .310E+02  .310E+02  .307E+02  .307E+02  .304E+02
  .310E+02  .310E+02  .307E+02  .307E+02  .310E+02  .310E+02  .307E+02  .307E+02
  .307E+02  .307E+02  .307E+02  .307E+02  .304E+02  .304E+02  .304E+02  .304E+02
  .304E+02  .304E+02  .307E+02  .307E+02
  .304E+02  .304E+02  .304E+02  .304E+02  .304E+02  .304E+02  .304E+02  .307E+02
  .304E+02  .303E+02  .304E+02  .304E+02  .308E+02  .308E+02  .313E+02  .317E+02
  .310E+02  .314E+02  .309E+02  .308E+02  .324E+02  .313E+02  .319E+02  .362E+02
  .584E+02  .326E+02  .315E+02  .322E+02  .321E+02  .333E+02  .328E+02  .343E+02
  .393E+02  .433E+02  .351E+02  .381E+02  .419E+02  .611E+02  .326E+02  .526E+02
  .453E+02  .420E+02  .319E+02  .346E+02  .436E+02  .532E+02  .446E+02  .344E+02
  .337E+02  .601E+02  .400E+02  .312E+02  .312E+02  .309E+02  .309E+02  .309E+02
  .313E+02  .309E+02  .313E+02  .313E+02  .309E+02  .312E+02  .309E+02  .312E+02
  .309E+02  .313E+02  .309E+02  .313E+02  .534E+02  .542E+02  .457E+02  .309E+02
  .385E+02  .346E+02  .346E+02  .452E+02  .574E+02  .309E+02  .622E+02  .481E+02
  .366E+02  .309E+02  .480E+02  .628E+02  .632E+02  .594E+02  .673E+02  .317E+02
  .680E+02  .708E+02  .525E+02  .460E+02  .413E+02  .345E+02  .345E+02  .258E+02
  .527E+02  .309E+02  .309E+02  .309E+02
Damping =  .02. Data of Sd,Sv,Sa,Pssv,ttSd,ttSv,ttSa :
  .942E-04  .105E-03  .125E-03  .147E-03  .163E-03  .177E-03  .244E-03  .333E-03
  .453E-03  .459E-03  .665E-03  .961E-03  .134E-02  .206E-02  .301E-02  .295E-02
  .257E-02  .405E-02  .330E-02  .247E-02  .273E-02  .274E-02  .298E-02  .297E-02
  .366E-02  .416E-02  .422E-02  .538E-02  .777E-02  .739E-02  .653E-02  .677E-02
  .593E-02  .457E-02  .617E-02  .725E-02  .808E-02  .608E-02  .629E-02  .698E-02
  .736E-02  .736E-02  .738E-02  .773E-02  .807E-02  .756E-02  .703E-02  .662E-02
  .584E-02  .483E-02  .500E-02  .463E-02  .399E-02  .362E-02  .305E-02  .300E-02
  .303E-02  .300E-02  .297E-02  .295E-02  .317E-02  .252E-02  .258E-02  .264E-02
  .308E-02  .242E-02  .257E-02  .265E-02  .307E-02  .350E-02  .316E-02  .283E-02
  .285E-02  .330E-02  .340E-02  .321E-02  .493E-02  .662E-02  .432E-02  .438E-02
  .409E-02  .501E-02  .502E-02  .468E-02  .571E-02  .764E-02  .731E-02  .680E-02
  .806E-02  .108E-01  .101E-01  .987E-02  .901E-02  .743E-02  .652E-02  .513E-02
  .463E-02  .510E-02  .525E-02  .513E-02
  .776E-02  .919E-02  .931E-02  .101E-01  .106E-01  .107E-01  .166E-01  .235E-01
  .336E-01  .345E-01  .447E-01  .671E-01  .897E-01  .135E+00  .189E+00  .173E+00
  .147E+00  .213E+00  .168E+00  .119E+00  .123E+00  .122E+00  .113E+00  .957E-01
  .118E+00  .130E+00  .116E+00  .141E+00  .184E+00  .173E+00  .139E+00  .136E+00
  .111E+00  .904E-01  .105E+00  .114E+00  .126E+00  .962E-01  .100E+00  .969E-01
  .983E-01  .100E+00  .866E-01  .924E-01  .861E-01  .795E-01  .728E-01  .691E-01
  .678E-01  .667E-01  .649E-01  .576E-01  .509E-01  .491E-01  .453E-01  .444E-01
  .437E-01  .435E-01  .429E-01  .427E-01  .424E-01  .397E-01  .402E-01  .395E-01
  .409E-01  .389E-01  .389E-01  .388E-01  .395E-01  .403E-01  .406E-01  .400E-01
  .398E-01  .403E-01  .401E-01  .395E-01  .411E-01  .395E-01  .414E-01  .387E-01
  .399E-01  .392E-01  .386E-01  .387E-01  .381E-01  .384E-01  .391E-01  .410E-01
  .418E-01  .413E-01  .403E-01  .391E-01  .388E-01  .392E-01  .390E-01  .387E-01
  .384E-01  .381E-01  .381E-01  .383E-01
  .603E-02  .610E-02  .661E-02  .709E-02  .722E-02  .723E-02  .827E-02  .945E-02
  .109E-01  .962E-02  .122E-01  .154E-01  .190E-01  .261E-01  .340E-01  .302E-01
  .218E-01  .288E-01  .199E-01  .128E-01  .125E-01  .110E-01  .105E-01  .942E-02
  .104E-01  .106E-01  .893E-02  .958E-02  .118E-01  .967E-02  .744E-02  .678E-02
  .524E-02  .361E-02  .436E-02  .464E-02  .468E-02  .322E-02  .304E-02  .309E-02
  .302E-02  .249E-02  .210E-02  .188E-02  .169E-02  .138E-02  .112E-02  .941E-03
  .738E-03  .548E-03  .513E-03  .392E-03  .284E-03  .219E-03  .162E-03  .137E-03
  .122E-03  .107E-03  .942E-04  .842E-04  .835E-04  .555E-04  .481E-04  .402E-04
  .425E-04  .299E-04  .280E-04  .237E-04  .246E-04  .252E-04  .208E-04  .181E-04
  .161E-04  .168E-04  .167E-04  .151E-04  .167E-04  .206E-04  .105E-04  .918E-05
  .787E-05  .958E-05  .856E-05  .659E-05  .648E-05  .783E-05  .753E-05  .616E-05
  .489E-05  .564E-05  .461E-05  .441E-05  .316E-05  .212E-05  .158E-05  .134E-05
  .135E-05  .128E-05  .118E-05  .108E-05
  .148E-01  .158E-01  .178E-01  .200E-01  .213E-01  .223E-01  .278E-01  .349E-01
  .438E-01  .412E-01  .558E-01  .755E-01  .990E-01  .144E+00  .199E+00  .186E+00
  .147E+00  .212E+00  .159E+00  .111E+00  .115E+00  .108E+00  .110E+00  .104E+00
  .121E+00  .131E+00  .121E+00  .141E+00  .188E+00  .166E+00  .137E+00  .133E+00
  .110E+00  .798E-01  .102E+00  .114E+00  .121E+00  .869E-01  .859E-01  .913E-01
  .925E-01  .840E-01  .773E-01  .747E-01  .724E-01  .633E-01  .552E-01  .489E-01
  .407E-01  .319E-01  .314E-01  .264E-01  .209E-01  .175E-01  .137E-01  .126E-01
  .119E-01  .111E-01  .104E-01  .977E-02  .997E-02  .719E-02  .676E-02  .638E-02
  .690E-02  .508E-02  .505E-02  .489E-02  .536E-02  .578E-02  .496E-02  .424E-02
  .408E-02  .451E-02  .445E-02  .404E-02  .563E-02  .693E-02  .417E-02  .394E-02
  .342E-02  .393E-02  .371E-02  .327E-02  .378E-02  .480E-02  .418E-02  .356E-02
  .389E-02  .484E-02  .423E-02  .388E-02  .315E-02  .233E-02  .186E-02  .134E-02
  .112E-02  .115E-02  .110E-02  .101E-02
  .304E+02  .304E+02  .304E+02  .304E+02  .304E+02  .304E+02  .304E+02  .304E+02
  .307E+02  .307E+02  .304E+02  .304E+02  .307E+02  .308E+02  .309E+02  .310E+02
  .305E+02  .309E+02  .309E+02  .308E+02  .308E+02  .307E+02  .306E+02  .319E+02
  .325E+02  .326E+02  .315E+02  .321E+02  .321E+02  .322E+02  .328E+02  .327E+02
  .333E+02  .335E+02  .347E+02  .347E+02  .348E+02  .338E+02  .326E+02  .315E+02
  .315E+02  .316E+02  .319E+02  .346E+02  .325E+02  .318E+02  .323E+02  .323E+02
  .323E+02  .320E+02  .320E+02  .312E+02  .312E+02  .312E+02  .309E+02  .312E+02
  .312E+02  .313E+02  .313E+02  .313E+02  .309E+02  .309E+02  .309E+02  .313E+02
  .309E+02  .309E+02  .309E+02  .313E+02  .313E+02  .313E+02  .313E+02  .321E+02
  .321E+02  .346E+02  .346E+02  .309E+02  .575E+02  .309E+02  .591E+02  .239E+02
  .332E+02  .309E+02  .480E+02  .481E+02  .590E+02  .595E+02  .309E+02  .309E+02
  .617E+02  .571E+02  .525E+02  .460E+02  .413E+02  .345E+02  .345E+02  .255E+02
  .309E+02  .309E+02  .309E+02  .309E+02
  .304E+02  .304E+02  .304E+02  .304E+02  .304E+02  .304E+02  .304E+02  .307E+02
  .307E+02  .307E+02  .305E+02  .305E+02  .307E+02  .308E+02  .309E+02  .310E+02
  .305E+02  .309E+02  .309E+02  .308E+02  .308E+02  .307E+02  .307E+02  .320E+02
  .324E+02  .325E+02  .315E+02  .321E+02  .322E+02  .321E+02  .327E+02  .328E+02
  .325E+02  .319E+02  .348E+02  .348E+02  .347E+02  .318E+02  .325E+02  .316E+02
  .314E+02  .314E+02  .315E+02  .319E+02  .319E+02  .323E+02  .313E+02  .313E+02
  .313E+02  .313E+02  .313E+02  .313E+02  .310E+02  .310E+02  .310E+02  .310E+02
  .310E+02  .310E+02  .310E+02  .310E+02  .310E+02  .310E+02  .307E+02  .304E+02
  .310E+02  .307E+02  .307E+02  .304E+02  .304E+02  .304E+02  .310E+02  .310E+02
  .310E+02  .310E+02  .310E+02  .310E+02  .310E+02  .307E+02  .307E+02  .304E+02
  .310E+02  .310E+02  .307E+02  .307E+02  .307E+02  .310E+02  .307E+02  .307E+02
  .307E+02  .307E+02  .307E+02  .307E+02  .304E+02  .304E+02  .304E+02  .304E+02
  .304E+02  .304E+02  .307E+02  .307E+02
  .304E+02  .304E+02  .304E+02  .304E+02  .304E+02  .304E+02  .304E+02  .304E+02
  .307E+02  .307E+02  .304E+02  .304E+02  .307E+02  .308E+02  .309E+02  .310E+02
  .305E+02  .309E+02  .309E+02  .308E+02  .308E+02  .307E+02  .306E+02  .319E+02
  .324E+02  .326E+02  .315E+02  .321E+02  .321E+02  .322E+02  .328E+02  .327E+02
  .332E+02  .333E+02  .347E+02  .347E+02  .348E+02  .338E+02  .326E+02  .315E+02
  .315E+02  .316E+02  .319E+02  .346E+02  .324E+02  .318E+02  .323E+02  .323E+02
  .323E+02  .320E+02  .320E+02  .312E+02  .312E+02  .312E+02  .309E+02  .312E+02
  .312E+02  .312E+02  .312E+02  .312E+02  .309E+02  .309E+02  .309E+02  .312E+02
  .308E+02  .308E+02  .308E+02  .312E+02  .312E+02  .312E+02  .318E+02  .308E+02
  .320E+02  .320E+02  .308E+02  .308E+02  .575E+02  .308E+02  .590E+02  .239E+02
  .320E+02  .308E+02  .308E+02  .308E+02  .590E+02  .594E+02  .308E+02  .308E+02
  .617E+02  .571E+02  .525E+02  .304E+02  .304E+02  .318E+02  .344E+02  .308E+02
  .308E+02  .308E+02  .307E+02  .307E+02
Damping =  .05. Data of Sd,Sv,Sa,Pssv,ttSd,ttSv,ttSa :
  .864E-04  .103E-03  .122E-03  .140E-03  .156E-03  .172E-03  .235E-03  .315E-03
