Response and Fourier amplitude spectra (** periods,  .04 - 32.0 sec)   for      
Corrected accelerogram   89324-VAA6D-21355.06       Chan  8:  Up         from   
Uncorrected Accelerogram Data             Processed: 12/21/21, CGS  aa6de006    
Rcrd of Mon Dec 20, 2021 13:53:27.0 PST           (Avol1 v6.5,64b, 1/20; PC00)  
CSMIP Preliminary Processing            (Origin:  To be determined)             
89324-VAA6D-21355.06                 Start time: 12/20/21, 21:53:27.0 UTC (GPS) 
Station No. 89324   40.503N, 124.101W    130-MC  s/n AA6D (17 Chns of 17 at Sta)
Rio Dell - Hwy 101/Painter St. Overpass   CGS   Data: Acceleration              
Chan  8:  Up                        Location: Deck: Middle of East Span         
Rcrd of Mon Dec 20, 2021 13:53:27.0 PST    Mon Dec 20, 2021 13:53:27.0 PST      
Hypocenter:  To be determined.               ML:  To be determined.
Instr Period = 0.0008 sec,  Damping = 0.100,  Sensitivity = 1.64 v/g
                        Record Length = 65.610 sec.
                                     Uncor Max  = -0.018 g, at   30.270 sec.
RMS accel of (uncor) record  =        .   Chn. metadata effective date: 04/02/10
Accelerogram bandpass filtered with 3 dB pts at   .07 and 40.00 cyc/sec
                 instrument- and base-line correcte





Rcrd of Mon Dec 20, 2021 13:53:27.0 PST    Mon Dec 20, 2021 13:53:27.0 PST

89324-VAA6D-21355.06      Rio Dell - Hwy 101/Painter St. Overpass   Chan  8:  Up

89324-VAA6D-21355.06      Rio Dell - Hwy 101/Painter St. Overpass   Chan  8:  Up

Units for spectra are inches and sec, except Sa is in fraction of g.

    8  100    8   18   17  200    1    3    1   32  706 -999    089324    3    0
   21   53   27    0  354   12   20 2021   10    3  50013122   39   39   74   -1
13122    0  100    3 -999    1    6 -999 -999 -999 -999 -999 -999 -999 -999 -999
 -999 -999 -999 -999 6561    2  100    1   24  253 -999 -999    3    1 -999 6561
    3 6561    4  100    5   17    5    0    0 -999    0    0 -999 -999    1    2
    2    2    4    0   66   67    0    2 -999    0    0    1 4096 -999    0  222
    1 -999    9 -999
      .001      .100    65.610      .002     1.000  1636.000     -.018    30.270
  1300.000     1.583      .968  -999.000     5.000  -999.000     4.000  -999.000
    10.000   998.185    10.000   312.000    30.400    29.995  -999.000      .002
     -.001     -.003     2.000    15.000    40.503  -124.101      .069      .099
     1.446     -.015      .008    43.000    30.398    35.609    13.300  -999.000
     1.000  -999.000    -8.000  -999.000  -999.000  -999.000  -999.000   120.000
     6.500     6.500     7.500   980.665      .010    65.610   206.901      .000
  -999.000    40.000  -999.000    65.610      .010      .067  -999.000  -999.000
    30.270   -17.721    30.330     -.668    30.910     -.036     -.001      .067
    40.000      .010      .010      .002      .010      .014  -999.000  -999.000
      .085      .240      .069      .045      .001      .000  -999.000  -999.000
  -999.000  -999.000  -999.000  -999.000  -999.000  -999.000  -999.000  -999.000
  -999.000  -999.000  -999.000  -999.000
      .000      .020      .050      .100      .200
      .040      .042      .044      .046      .048      .050      .055      .060
      .065      .070      .075      .080      .085      .090      .095      .100
      .110      .120      .130      .140      .150      .160      .170      .180
      .190      .200      .220      .240      .260      .280      .300      .320
      .340      .360      .380      .400      .420      .440      .460      .480
      .500      .550      .600      .650      .700      .750      .800      .850
      .900      .950     1.000     1.100     1.200     1.300     1.400     1.500
     1.600     1.700     1.800     1.900     2.000     2.200     2.400     2.600
     2.800     3.000     3.200     3.400     3.600     3.800     4.000     4.200
     4.400     4.600     4.800     5.000     5.500     6.000     6.500     7.000
     7.500     8.000     8.500     9.000     9.500    10.000    11.000    12.000
    13.000    14.000    15.000    16.000    18.000    20.000    22.000    24.000
    26.000    28.000    30.000    32.000
Fourier amplitude spectra in in/sec.
  .215E-01  .265E-01  .186E-01  .204E-01  .227E-01  .687E-02  .143E-01  .179E+00
  .273E-01  .124E+00  .398E-01  .280E-01  .548E-01  .117E+00  .208E+00  .617E-01
  .273E+00  .206E+00  .850E+00  .297E+01  .505E+00  .132E+01  .532E+00  .879E+00
  .182E+01  .187E+01  .894E+00  .364E+01  .422E+00  .231E+01  .221E+01  .115E+00
  .395E+00  .243E+00  .162E+00  .264E-01  .397E+00  .366E+00  .187E+00  .217E+00
  .215E+00  .928E-01  .773E-01  .771E-01  .875E-01  .672E-01  .796E-01  .243E-01
  .258E-01  .494E-01  .396E-01  .113E-01  .205E-01  .114E-01  .771E-02  .223E-02
  .621E-02  .950E-02  .106E-01  .747E-02  .451E-02  .949E-02  .821E-02  .171E-01
  .125E-01  .867E-02  .111E-01  .490E-02  .139E-01  .539E-02  .962E-02  .587E-02
  .117E-01  .907E-02  .788E-02  .119E-01  .164E-01  .112E-01  .581E-02  .934E-02
  .789E-02  .892E-02  .394E-02  .944E-02  .176E-01  .184E-01  .114E-01  .109E-01
  .117E-01  .137E-01  .157E-01  .162E-01  .132E-01  .869E-02  .517E-02  .291E-02
  .158E-02  .105E-02  .119E-02  .151E-02
Damping =  .00. Data of Sd,Sv,Sa,Pssv,ttSd,ttSv,ttSa :
  .318E-03  .474E-03  .478E-03  .463E-03  .636E-03  .559E-03  .818E-03  .228E-02
  .108E-02  .217E-02  .145E-02  .164E-02  .215E-02  .336E-02  .495E-02  .333E-02
  .827E-02  .672E-02  .263E-01  .665E-01  .285E-01  .406E-01  .326E-01  .324E-01
  .571E-01  .600E-01  .606E-01  .178E+00  .900E-01  .104E+00  .115E+00  .401E-01
  .345E-01  .290E-01  .249E-01  .217E-01  .288E-01  .292E-01  .249E-01  .223E-01
  .203E-01  .148E-01  .122E-01  .161E-01  .129E-01  .156E-01  .128E-01  .131E-01
  .148E-01  .138E-01  .138E-01  .109E-01  .105E-01  .121E-01  .112E-01  .107E-01
  .110E-01  .102E-01  .121E-01  .974E-02  .113E-01  .114E-01  .116E-01  .124E-01
  .108E-01  .141E-01  .108E-01  .129E-01  .139E-01  .125E-01  .159E-01  .152E-01
  .131E-01  .125E-01  .142E-01  .172E-01  .185E-01  .132E-01  .148E-01  .167E-01
  .147E-01  .181E-01  .192E-01  .211E-01  .266E-01  .293E-01  .214E-01  .229E-01
  .320E-01  .387E-01  .409E-01  .425E-01  .378E-01  .314E-01  .281E-01  .258E-01
  .246E-01  .239E-01  .235E-01  .232E-01
  .214E-01  .360E-01  .309E-01  .257E-01  .419E-01  .279E-01  .498E-01  .206E+00
  .664E-01  .146E+00  .767E-01  .782E-01  .116E+00  .170E+00  .269E+00  .151E+00
  .422E+00  .266E+00  .122E+01  .298E+01  .116E+01  .157E+01  .117E+01  .111E+01
  .189E+01  .188E+01  .171E+01  .464E+01  .223E+01  .234E+01  .244E+01  .938E+00
  .733E+00  .639E+00  .580E+00  .520E+00  .520E+00  .550E+00  .447E+00  .377E+00
  .355E+00  .336E+00  .326E+00  .313E+00  .306E+00  .296E+00  .289E+00  .282E+00
  .284E+00  .279E+00  .282E+00  .275E+00  .280E+00  .273E+00  .267E+00  .267E+00
  .270E+00  .266E+00  .264E+00  .263E+00  .267E+00  .263E+00  .263E+00  .259E+00
  .265E+00  .255E+00  .258E+00  .251E+00  .256E+00  .266E+00  .261E+00  .254E+00
  .252E+00  .253E+00  .251E+00  .248E+00  .252E+00  .260E+00  .256E+00  .261E+00
  .265E+00  .260E+00  .253E+00  .251E+00  .253E+00  .257E+00  .258E+00  .254E+00
  .251E+00  .251E+00  .254E+00  .257E+00  .261E+00  .262E+00  .263E+00  .263E+00
  .263E+00  .262E+00  .262E+00  .262E+00
  .203E-01  .275E-01  .253E-01  .224E-01  .282E-01  .229E-01  .276E-01  .647E-01
  .262E-01  .453E-01  .264E-01  .263E-01  .305E-01  .424E-01  .561E-01  .341E-01
  .699E-01  .477E-01  .159E+00  .347E+00  .129E+00  .162E+00  .116E+00  .102E+00
  .162E+00  .153E+00  .128E+00  .317E+00  .136E+00  .136E+00  .131E+00  .401E-01
  .305E-01  .229E-01  .176E-01  .138E-01  .167E-01  .154E-01  .120E-01  .990E-02
  .831E-02  .500E-02  .348E-02  .390E-02  .269E-02  .284E-02  .204E-02  .185E-02
  .187E-02  .156E-02  .141E-02  .923E-03  .746E-03  .730E-03  .583E-03  .489E-03
  .439E-03  .360E-03  .381E-03  .276E-03  .289E-03  .240E-03  .206E-03  .188E-03
  .141E-03  .160E-03  .108E-03  .114E-03  .110E-03  .887E-04  .102E-03  .883E-04
  .691E-04  .604E-04  .632E-04  .703E-04  .624E-04  .374E-04  .359E-04  .349E-04
  .268E-04  .289E-04  .272E-04  .266E-04  .302E-04  .299E-04  .181E-04  .163E-04
  .194E-04  .202E-04  .186E-04  .170E-04  .119E-04  .804E-05  .594E-05  .459E-05
  .372E-05  .312E-05  .267E-05  .232E-05
  .499E-01  .709E-01  .683E-01  .632E-01  .832E-01  .702E-01  .934E-01  .239E+00
  .105E+00  .195E+00  .122E+00  .129E+00  .159E+00  .235E+00  .327E+00  .209E+00
  .473E+00  .352E+00  .127E+01  .299E+01  .119E+01  .159E+01  .121E+01  .113E+01
  .189E+01  .188E+01  .173E+01  .467E+01  .218E+01  .234E+01  .242E+01  .788E+00
  .638E+00  .506E+00  .411E+00  .340E+00  .431E+00  .417E+00  .340E+00  .292E+00
  .255E+00  .169E+00  .128E+00  .156E+00  .116E+00  .131E+00  .100E+00  .968E-01
  .103E+00  .913E-01  .867E-01  .624E-01  .550E-01  .583E-01  .502E-01  .450E-01
  .432E-01  .376E-01  .421E-01  .322E-01  .355E-01  .324E-01  .303E-01  .300E-01
  .242E-01  .296E-01  .212E-01  .239E-01  .243E-01  .207E-01  .250E-01  .228E-01
  .187E-01  .171E-01  .186E-01  .216E-01  .211E-01  .138E-01  .143E-01  .150E-01
  .123E-01  .142E-01  .142E-01  .147E-01  .176E-01  .184E-01  .122E-01  .120E-01
  .155E-01  .174E-01  .171E-01  .167E-01  .132E-01  .988E-02  .802E-02  .676E-02
  .594E-02  .537E-02  .493E-02  .456E-02
  .309E+02  .303E+02  .303E+02  .303E+02  .303E+02  .302E+02  .303E+02  .303E+02
  .316E+02  .303E+02  .306E+02  .302E+02  .323E+02  .309E+02  .309E+02  .304E+02
  .316E+02  .303E+02  .320E+02  .445E+02  .311E+02  .318E+02  .308E+02  .344E+02
  .381E+02  .366E+02  .315E+02  .331E+02  .316E+02  .442E+02  .367E+02  .306E+02
  .306E+02  .307E+02  .307E+02  .305E+02  .335E+02  .334E+02  .333E+02  .320E+02
  .320E+02  .318E+02  .304E+02  .334E+02  .332E+02  .333E+02  .320E+02  .320E+02
  .320E+02  .320E+02  .320E+02  .303E+02  .303E+02  .303E+02  .303E+02  .303E+02
  .303E+02  .303E+02  .303E+02  .303E+02  .303E+02  .304E+02  .303E+02  .303E+02
  .309E+02  .303E+02  .303E+02  .305E+02  .320E+02  .309E+02  .303E+02  .305E+02
  .305E+02  .305E+02  .305E+02  .320E+02  .320E+02  .333E+02  .332E+02  .309E+02
  .512E+02  .303E+02  .320E+02  .332E+02  .682E+02  .649E+02  .618E+02  .577E+02
  .474E+02  .427E+02  .433E+02  .614E+02  .101E+03  .309E+02  .309E+02  .309E+02
  .309E+02  .309E+02  .309E+02  .309E+02
  .630E+02  .323E+02  .303E+02  .303E+02  .303E+02  .303E+02  .306E+02  .302E+02
  .122E+02  .317E+02  .306E+02  .302E+02  .317E+02  .309E+02  .309E+02  .317E+02
  .316E+02  .339E+02  .319E+02  .453E+02  .311E+02  .318E+02  .308E+02  .345E+02
  .380E+02  .498E+02  .314E+02  .330E+02  .313E+02  .442E+02  .366E+02  .307E+02
  .306E+02  .306E+02  .306E+02  .306E+02  .334E+02  .333E+02  .320E+02  .320E+02
  .319E+02  .303E+02  .303E+02  .303E+02  .303E+02  .303E+02  .303E+02  .303E+02
  .303E+02  .303E+02  .303E+02  .303E+02  .303E+02  .303E+02  .303E+02  .303E+02
  .303E+02  .303E+02  .303E+02  .303E+02  .303E+02  .303E+02  .303E+02  .303E+02
  .303E+02  .303E+02  .303E+02  .303E+02  .303E+02  .303E+02  .303E+02  .303E+02
  .303E+02  .303E+02  .303E+02  .302E+02  .303E+02  .303E+02  .303E+02  .303E+02
  .303E+02  .303E+02  .303E+02  .303E+02  .303E+02  .303E+02  .303E+02  .303E+02
  .303E+02  .303E+02  .303E+02  .303E+02  .303E+02  .303E+02  .303E+02  .303E+02
  .303E+02  .303E+02  .303E+02  .303E+02
  .309E+02  .303E+02  .303E+02  .303E+02  .303E+02  .302E+02  .303E+02  .303E+02
  .316E+02  .303E+02  .306E+02  .302E+02  .323E+02  .309E+02  .309E+02  .304E+02
  .316E+02  .303E+02  .320E+02  .445E+02  .311E+02  .318E+02  .308E+02  .344E+02
  .381E+02  .366E+02  .315E+02  .331E+02  .316E+02  .442E+02  .367E+02  .306E+02
  .306E+02  .307E+02  .307E+02  .305E+02  .335E+02  .334E+02  .333E+02  .320E+02
  .320E+02  .318E+02  .304E+02  .334E+02  .332E+02  .333E+02  .320E+02  .320E+02
  .320E+02  .320E+02  .320E+02  .303E+02  .303E+02  .303E+02  .303E+02  .303E+02
  .303E+02  .303E+02  .303E+02  .303E+02  .303E+02  .304E+02  .303E+02  .303E+02
  .309E+02  .303E+02  .303E+02  .305E+02  .320E+02  .309E+02  .303E+02  .305E+02
  .305E+02  .305E+02  .305E+02  .320E+02  .320E+02  .333E+02  .332E+02  .309E+02
  .512E+02  .303E+02  .320E+02  .332E+02  .682E+02  .649E+02  .618E+02  .577E+02
  .474E+02  .427E+02  .433E+02  .614E+02  .101E+03  .309E+02  .309E+02  .309E+02
  .309E+02  .309E+02  .309E+02  .309E+02
Damping =  .02. Data of Sd,Sv,Sa,Pssv,ttSd,ttSv,ttSa :
  .305E-03  .342E-03  .376E-03  .405E-03  .435E-03  .473E-03  .607E-03  .748E-03
  .880E-03  .104E-02  .120E-02  .147E-02  .183E-02  .262E-02  .293E-02  .292E-02
  .551E-02  .617E-02  .134E-01  .249E-01  .181E-01  .257E-01  .251E-01  .241E-01
  .272E-01  .331E-01  .430E-01  .897E-01  .668E-01  .592E-01  .487E-01  .371E-01
  .324E-01  .276E-01  .238E-01  .205E-01  .202E-01  .208E-01  .179E-01  .192E-01
  .181E-01  .132E-01  .122E-01  .142E-01  .119E-01  .133E-01  .119E-01  .129E-01
  .136E-01  .133E-01  .132E-01  .110E-01  .107E-01  .109E-01  .107E-01  .104E-01
  .106E-01  .106E-01  .112E-01  .103E-01  .110E-01  .955E-02  .114E-01  .118E-01
  .114E-01  .129E-01  .113E-01  .113E-01  .114E-01  .105E-01  .141E-01  .141E-01
  .129E-01  .125E-01  .130E-01  .160E-01  .168E-01  .134E-01  .141E-01  .146E-01
  .111E-01  .154E-01  .167E-01  .186E-01  .187E-01  .216E-01  .182E-01  .198E-01
  .278E-01  .336E-01  .355E-01  .342E-01  .326E-01  .306E-01  .278E-01  .257E-01
  .245E-01  .239E-01  .236E-01  .230E-01
  .135E-01  .142E-01  .156E-01  .160E-01  .168E-01  .190E-01  .254E-01  .549E-01
  .301E-01  .365E-01  .495E-01  .604E-01  .874E-01  .117E+00  .140E+00  .133E+00
  .255E+00  .234E+00  .579E+00  .108E+01  .743E+00  .939E+00  .879E+00  .797E+00
  .866E+00  .995E+00  .116E+01  .236E+01  .168E+01  .142E+01  .109E+01  .865E+00
  .690E+00  .614E+00  .553E+00  .500E+00  .445E+00  .424E+00  .396E+00  .362E+00
  .350E+00  .332E+00  .320E+00  .311E+00  .303E+00  .295E+00  .289E+00  .285E+00
  .283E+00  .279E+00  .280E+00  .277E+00  .276E+00  .272E+00  .268E+00  .267E+00
  .268E+00  .266E+00  .265E+00  .263E+00  .264E+00  .263E+00  .263E+00  .260E+00
  .262E+00  .257E+00  .257E+00  .254E+00  .257E+00  .263E+00  .260E+00  .255E+00
  .253E+00  .253E+00  .251E+00  .249E+00  .252E+00  .258E+00  .257E+00  .260E+00
  .263E+00  .259E+00  .254E+00  .253E+00  .254E+00  .256E+00  .257E+00  .254E+00
  .252E+00  .252E+00  .254E+00  .256E+00  .260E+00  .262E+00  .262E+00  .263E+00
  .262E+00  .262E+00  .262E+00  .262E+00
  .195E-01  .198E-01  .198E-01  .196E-01  .193E-01  .194E-01  .205E-01  .213E-01
  .213E-01  .218E-01  .218E-01  .235E-01  .260E-01  .330E-01  .333E-01  .299E-01
  .467E-01  .437E-01  .810E-01  .130E+00  .825E-01  .103E+00  .885E-01  .756E-01
  .776E-01  .846E-01  .910E-01  .159E+00  .101E+00  .770E-01  .556E-01  .372E-01
  .287E-01  .218E-01  .169E-01  .132E-01  .118E-01  .110E-01  .869E-02  .859E-02
  .742E-02  .449E-02  .346E-02  .347E-02  .251E-02  .245E-02  .192E-02  .184E-02
  .173E-02  .152E-02  .136E-02  .944E-03  .776E-03  .672E-03  .572E-03  .486E-03
  .438E-03  .389E-03  .367E-03  .306E-03  .296E-03  .213E-03  .216E-03  .191E-03
  .161E-03  .160E-03  .126E-03  .111E-03  .101E-03  .879E-04  .103E-03  .947E-04
  .792E-04  .711E-04  .667E-04  .754E-04  .668E-04  .466E-04  .408E-04  .402E-04
  .293E-04  .351E-04  .321E-04  .299E-04  .268E-04  .234E-04  .171E-04  .186E-04
  .191E-04  .189E-04  .200E-04  .197E-04  .168E-04  .137E-04  .113E-04  .969E-05
  .858E-05  .774E-05  .708E-05  .651E-05
  .480E-01  .512E-01  .536E-01  .553E-01  .569E-01  .594E-01  .693E-01  .783E-01
  .851E-01  .936E-01  .100E+00  .116E+00  .135E+00  .183E+00  .194E+00  .184E+00
  .315E+00  .323E+00  .648E+00  .112E+01  .759E+00  .101E+01  .928E+00  .840E+00
  .900E+00  .104E+01  .123E+01  .235E+01  .161E+01  .133E+01  .102E+01  .729E+00
  .599E+00  .482E+00  .394E+00  .323E+00  .303E+00  .297E+00  .245E+00  .252E+00
  .227E+00  .151E+00  .127E+00  .137E+00  .107E+00  .112E+00  .932E-01  .951E-01
  .949E-01  .881E-01  .828E-01  .630E-01  .563E-01  .526E-01  .480E-01  .435E-01
  .416E-01  .391E-01  .390E-01  .341E-01  .346E-01  .273E-01  .299E-01  .284E-01
  .255E-01  .270E-01  .221E-01  .210E-01  .199E-01  .174E-01  .221E-01  .210E-01
  .184E-01  .171E-01  .170E-01  .201E-01  .192E-01  .140E-01  .136E-01  .131E-01
  .933E-02  .121E-01  .124E-01  .130E-01  .124E-01  .136E-01  .104E-01  .104E-01
  .134E-01  .151E-01  .149E-01  .134E-01  .114E-01  .960E-02  .793E-02  .672E-02
  .593E-02  .537E-02  .494E-02  .451E-02
  .303E+02  .303E+02  .303E+02  .303E+02  .303E+02  .303E+02  .303E+02  .306E+02
  .303E+02  .303E+02  .302E+02  .302E+02  .308E+02  .309E+02  .309E+02  .309E+02
  .310E+02  .303E+02  .316E+02  .324E+02  .307E+02  .308E+02  .308E+02  .304E+02
  .304E+02  .304E+02  .308E+02  .324E+02  .312E+02  .310E+02  .336E+02  .306E+02
  .306E+02  .307E+02  .307E+02  .305E+02  .335E+02  .334E+02  .333E+02  .320E+02
  .320E+02  .318E+02  .304E+02  .334E+02  .332E+02  .333E+02  .320E+02  .320E+02
  .320E+02  .320E+02  .320E+02  .320E+02  .303E+02  .303E+02  .303E+02  .303E+02
  .303E+02  .303E+02  .303E+02  .303E+02  .303E+02  .304E+02  .303E+02  .303E+02
  .303E+02  .303E+02  .303E+02  .305E+02  .320E+02  .303E+02  .303E+02  .303E+02
  .305E+02  .305E+02  .305E+02  .320E+02  .320E+02  .333E+02  .332E+02  .309E+02
  .309E+02  .303E+02  .320E+02  .332E+02  .333E+02  .601E+02  .617E+02  .466E+02
  .413E+02  .427E+02  .433E+02  .367E+02  .309E+02  .309E+02  .309E+02  .309E+02
  .309E+02  .309E+02  .309E+02  .309E+02
  .305E+02  .303E+02  .303E+02  .303E+02  .303E+02  .303E+02  .303E+02  .991E+01
  .306E+02  .302E+02  .306E+02  .306E+02  .306E+02  .309E+02  .310E+02  .313E+02
  .310E+02  .302E+02  .317E+02  .324E+02  .311E+02  .308E+02  .308E+02  .304E+02
  .304E+02  .305E+02  .311E+02  .323E+02  .313E+02  .309E+02  .337E+02  .307E+02
  .306E+02  .306E+02  .306E+02  .306E+02  .306E+02  .333E+02  .320E+02  .303E+02
  .303E+02  .303E+02  .303E+02  .303E+02  .303E+02  .303E+02  .303E+02  .303E+02
  .303E+02  .303E+02  .303E+02  .303E+02  .303E+02  .303E+02  .303E+02  .303E+02
  .303E+02  .303E+02  .303E+02  .303E+02  .303E+02  .303E+02  .303E+02  .303E+02
  .303E+02  .303E+02  .303E+02  .303E+02  .303E+02  .303E+02  .303E+02  .303E+02
  .303E+02  .303E+02  .303E+02  .303E+02  .303E+02  .303E+02  .303E+02  .303E+02
  .303E+02  .303E+02  .303E+02  .303E+02  .303E+02  .303E+02  .303E+02  .303E+02
  .303E+02  .303E+02  .303E+02  .303E+02  .303E+02  .303E+02  .303E+02  .303E+02
  .303E+02  .303E+02  .303E+02  .303E+02
  .303E+02  .303E+02  .303E+02  .303E+02  .303E+02  .303E+02  .303E+02  .306E+02
  .303E+02  .303E+02  .302E+02  .302E+02  .308E+02  .309E+02  .309E+02  .309E+02
  .310E+02  .303E+02  .316E+02  .324E+02  .307E+02  .308E+02  .308E+02  .304E+02
  .304E+02  .304E+02  .308E+02  .324E+02  .312E+02  .310E+02  .336E+02  .306E+02
  .306E+02  .306E+02  .307E+02  .305E+02  .335E+02  .334E+02  .332E+02  .320E+02
  .320E+02  .318E+02  .304E+02  .334E+02  .332E+02  .332E+02  .320E+02  .320E+02
  .320E+02  .320E+02  .320E+02  .320E+02  .303E+02  .303E+02  .303E+02  .303E+02
  .303E+02  .303E+02  .303E+02  .303E+02  .303E+02  .304E+02  .303E+02  .303E+02
  .302E+02  .302E+02  .302E+02  .302E+02  .319E+02  .302E+02  .302E+02  .302E+02
  .302E+02  .302E+02  .319E+02  .319E+02  .319E+02  .303E+02  .303E+02  .303E+02
  .302E+02  .302E+02  .319E+02  .319E+02  .332E+02  .303E+02  .303E+02  .332E+02
  .335E+02  .352E+02  .303E+02  .303E+02  .303E+02  .303E+02  .303E+02  .303E+02
  .303E+02  .303E+02  .303E+02  .303E+02
Damping =  .05. Data of Sd,Sv,Sa,Pssv,ttSd,ttSv,ttSa :
  .302E-03  .337E-03  .371E-03  .404E-03  .437E-03  .476E-03  .599E-03  .733E-03
