Response and Fourier amplitude spectra (** periods,  .04 - 32.0 sec)   for      
Corrected accelerogram   89324-VAA6D-21355.06       Chan  3:  Tran       from   
Uncorrected Accelerogram Data             Processed: 12/21/21, CGS  aa6de006    
Rcrd of Mon Dec 20, 2021 13:53:27.0 PST           (Avol1 v6.5,64b, 1/20; PC00)  
CSMIP Preliminary Processing            (Origin:  To be determined)             
89324-VAA6D-21355.06                 Start time: 12/20/21, 21:53:27.0 UTC (GPS) 
Station No. 89324   40.503N, 124.101W    130-MC  s/n AA6D (17 Chns of 17 at Sta)
Rio Dell - Hwy 101/Painter St. Overpass   CGS   Data: Acceleration              
Chan  3:  Tran                      Location: Middle Bent: Column at Grnd Level 
Rcrd of Mon Dec 20, 2021 13:53:27.0 PST    Mon Dec 20, 2021 13:53:27.0 PST      
Hypocenter:  To be determined.               ML:  To be determined.
Instr Period = 0.0008 sec,  Damping = 0.100,  Sensitivity = 1.66 v/g
                        Record Length = 65.610 sec.
                                     Uncor Max  = -0.009 g, at   30.440 sec.
RMS accel of (uncor) record  =        .   Chn. metadata effective date: 04/02/10
Accelerogram bandpass filtered with 3 dB pts at   .07 and 40.00 cyc/sec
                 instrument- and base-line correcte





Rcrd of Mon Dec 20, 2021 13:53:27.0 PST    Mon Dec 20, 2021 13:53:27.0 PST

89324-VAA6D-21355.06      Rio Dell - Hwy 101/Painter St. Overpass   Chan  3:  Tr
an
89324-VAA6D-21355.06      Rio Dell - Hwy 101/Painter St. Overpass   Chan  3:  Tr
an
Units for spectra are inches and sec, except Sa is in fraction of g.

    3  100    3   18   17  200    1    3    1   32  706 -999    089324    3    0
   21   53   27    0  354   12   20 2021   10    3  90013122   39   39   74   -1
13122    0  100    3 -999    1    6 -999 -999 -999 -999 -999 -999 -999 -999 -999
 -999 -999 -999 -999 6561    2  100    1   24  253 -999 -999    3    1 -999 6561
    3 6561    4  100    5   17    5    0    0 -999    0    0 -999 -999    1    2
    2    2    4    0   66   67    0    2 -999    0    0    1 4096 -999    0  222
    1 -999    4 -999
      .001      .100    65.610      .001     1.000  1662.000     -.009    30.440
  1300.000     1.583      .952  -999.000     5.000  -999.000     4.000  -999.000
    10.000     5.008    10.000   312.000    30.400    29.995  -999.000     -.003
      .005      .008     2.000    15.000    40.503  -124.101      .024      .036
     1.538      .004      .012    43.000    30.398    35.609    13.300  -999.000
     1.000  -999.000    -8.000  -999.000  -999.000  -999.000  -999.000   120.000
     6.500     6.500     7.500   980.665      .010    65.610   206.901      .000
  -999.000    40.000  -999.000    65.610      .010      .067  -999.000  -999.000
    30.440    -8.376    30.480     -.311    53.420      .036      .001      .067
    40.000      .010      .010     -.001      .010      .006  -999.000  -999.000
      .029      .190      .026      .025      .001      .000  -999.000  -999.000
  -999.000  -999.000  -999.000  -999.000  -999.000  -999.000  -999.000  -999.000
  -999.000  -999.000  -999.000  -999.000
      .000      .020      .050      .100      .200
      .040      .042      .044      .046      .048      .050      .055      .060
      .065      .070      .075      .080      .085      .090      .095      .100
      .110      .120      .130      .140      .150      .160      .170      .180
      .190      .200      .220      .240      .260      .280      .300      .320
      .340      .360      .380      .400      .420      .440      .460      .480
      .500      .550      .600      .650      .700      .750      .800      .850
      .900      .950     1.000     1.100     1.200     1.300     1.400     1.500
     1.600     1.700     1.800     1.900     2.000     2.200     2.400     2.600
     2.800     3.000     3.200     3.400     3.600     3.800     4.000     4.200
     4.400     4.600     4.800     5.000     5.500     6.000     6.500     7.000
     7.500     8.000     8.500     9.000     9.500    10.000    11.000    12.000
    13.000    14.000    15.000    16.000    18.000    20.000    22.000    24.000
    26.000    28.000    30.000    32.000
Fourier amplitude spectra in in/sec.
  .142E-01  .570E-02  .946E-02  .437E-02  .568E-02  .167E-01  .159E-01  .926E-02
  .334E-01  .247E-01  .377E-01  .680E-01  .668E-01  .990E-01  .120E+00  .236E+00
  .274E+00  .335E-01  .116E+00  .128E+00  .122E+00  .572E-01  .678E+00  .420E+00
  .491E+00  .595E+00  .126E+00  .545E+00  .506E+00  .139E+01  .103E+01  .149E+00
  .444E+00  .488E+00  .345E+00  .206E+00  .552E+00  .332E+00  .636E-01  .246E+00
  .132E+00  .729E-01  .108E+00  .426E-01  .898E-01  .492E-01  .844E-01  .496E-01
  .526E-01  .581E-01  .242E-01  .328E-01  .482E-01  .399E-02  .169E-01  .312E-01
  .120E-01  .184E-01  .862E-02  .113E-01  .298E-02  .236E-02  .560E-02  .150E-01
  .292E-02  .895E-02  .468E-02  .356E-02  .664E-02  .385E-03  .283E-02  .106E-01
  .341E-02  .692E-02  .787E-02  .143E-01  .114E-01  .890E-02  .177E-01  .203E-01
  .133E-01  .152E-01  .206E-01  .221E-01  .267E-01  .286E-01  .169E-01  .188E-01
  .231E-01  .186E-01  .122E-01  .874E-02  .820E-02  .823E-02  .790E-02  .679E-02
  .515E-02  .342E-02  .194E-02  .986E-03
Damping =  .00. Data of Sd,Sv,Sa,Pssv,ttSd,ttSv,ttSa :
  .217E-03  .177E-03  .209E-03  .211E-03  .258E-03  .345E-03  .467E-03  .330E-03
  .690E-03  .653E-03  .872E-03  .117E-02  .169E-02  .209E-02  .261E-02  .437E-02
  .544E-02  .355E-02  .378E-02  .354E-02  .431E-02  .708E-02  .184E-01  .201E-01
  .180E-01  .193E-01  .121E-01  .311E-01  .366E-01  .676E-01  .490E-01  .300E-01
  .281E-01  .283E-01  .225E-01  .225E-01  .391E-01  .288E-01  .178E-01  .192E-01
  .193E-01  .144E-01  .164E-01  .126E-01  .130E-01  .131E-01  .135E-01  .994E-02
  .986E-02  .112E-01  .111E-01  .872E-02  .103E-01  .783E-02  .686E-02  .751E-02
  .671E-02  .667E-02  .641E-02  .720E-02  .693E-02  .643E-02  .692E-02  .644E-02
  .619E-02  .644E-02  .677E-02  .687E-02  .859E-02  .692E-02  .685E-02  .885E-02
  .852E-02  .837E-02  .827E-02  .134E-01  .108E-01  .959E-02  .201E-01  .252E-01
  .183E-01  .221E-01  .299E-01  .323E-01  .404E-01  .455E-01  .295E-01  .360E-01
  .478E-01  .414E-01  .291E-01  .223E-01  .235E-01  .262E-01  .276E-01  .276E-01
  .248E-01  .228E-01  .230E-01  .213E-01
  .166E-01  .893E-02  .111E-01  .137E-01  .153E-01  .270E-01  .392E-01  .260E-01
  .432E-01  .469E-01  .529E-01  .836E-01  .912E-01  .126E+00  .145E+00  .264E+00
  .302E+00  .169E+00  .153E+00  .145E+00  .169E+00  .249E+00  .677E+00  .687E+00
  .580E+00  .605E+00  .331E+00  .796E+00  .891E+00  .152E+01  .103E+01  .629E+00
  .545E+00  .494E+00  .429E+00  .387E+00  .585E+00  .431E+00  .334E+00  .318E+00
  .299E+00  .266E+00  .230E+00  .203E+00  .183E+00  .168E+00  .153E+00  .146E+00
  .142E+00  .134E+00  .135E+00  .129E+00  .124E+00  .123E+00  .124E+00  .124E+00
  .121E+00  .123E+00  .122E+00  .118E+00  .120E+00  .121E+00  .118E+00  .120E+00
  .125E+00  .120E+00  .119E+00  .123E+00  .121E+00  .118E+00  .122E+00  .117E+00
  .117E+00  .121E+00  .121E+00  .118E+00  .123E+00  .122E+00  .119E+00  .118E+00
  .117E+00  .118E+00  .120E+00  .121E+00  .119E+00  .117E+00  .114E+00  .116E+00
  .120E+00  .122E+00  .123E+00  .123E+00  .123E+00  .123E+00  .123E+00  .123E+00
  .123E+00  .123E+00  .123E+00  .123E+00
  .139E-01  .103E-01  .111E-01  .102E-01  .115E-01  .141E-01  .158E-01  .938E-02
  .167E-01  .136E-01  .159E-01  .186E-01  .239E-01  .264E-01  .296E-01  .447E-01
  .460E-01  .252E-01  .229E-01  .185E-01  .196E-01  .283E-01  .651E-01  .635E-01
  .510E-01  .494E-01  .255E-01  .551E-01  .554E-01  .882E-01  .557E-01  .299E-01
  .248E-01  .223E-01  .160E-01  .144E-01  .227E-01  .152E-01  .860E-02  .852E-02
  .791E-02  .488E-02  .466E-02  .306E-02  .272E-02  .238E-02  .216E-02  .141E-02
  .125E-02  .127E-02  .114E-02  .737E-03  .735E-03  .474E-03  .358E-03  .341E-03
  .268E-03  .236E-03  .202E-03  .204E-03  .177E-03  .136E-03  .123E-03  .975E-04
  .807E-04  .732E-04  .676E-04  .608E-04  .678E-04  .490E-04  .438E-04  .513E-04
  .450E-04  .405E-04  .367E-04  .549E-04  .365E-04  .273E-04  .487E-04  .526E-04
  .333E-04  .353E-04  .423E-04  .408E-04  .458E-04  .466E-04  .250E-04  .255E-04
  .289E-04  .216E-04  .132E-04  .889E-05  .742E-05  .670E-05  .584E-05  .491E-05
  .375E-05  .297E-05  .261E-05  .213E-05
  .341E-01  .265E-01  .299E-01  .288E-01  .338E-01  .434E-01  .534E-01  .346E-01
  .667E-01  .586E-01  .731E-01  .916E-01  .125E+00  .146E+00  .173E+00  .274E+00
  .311E+00  .186E+00  .183E+00  .159E+00  .181E+00  .278E+00  .680E+00  .702E+00
  .596E+00  .608E+00  .345E+00  .813E+00  .885E+00  .152E+01  .103E+01  .588E+00
  .519E+00  .494E+00  .372E+00  .353E+00  .585E+00  .411E+00  .243E+00  .251E+00
  .243E+00  .165E+00  .172E+00  .122E+00  .117E+00  .110E+00  .106E+00  .734E-01
  .689E-01  .743E-01  .699E-01  .498E-01  .542E-01  .378E-01  .308E-01  .315E-01
  .264E-01  .247E-01  .224E-01  .238E-01  .218E-01  .184E-01  .181E-01  .156E-01
  .139E-01  .135E-01  .133E-01  .127E-01  .150E-01  .114E-01  .108E-01  .132E-01
  .122E-01  .114E-01  .108E-01  .169E-01  .123E-01  .100E-01  .194E-01  .226E-01
  .153E-01  .173E-01  .221E-01  .226E-01  .267E-01  .286E-01  .169E-01  .188E-01
  .231E-01  .186E-01  .122E-01  .874E-02  .820E-02  .823E-02  .789E-02  .723E-02
  .599E-02  .512E-02  .481E-02  .418E-02
  .305E+02  .304E+02  .305E+02  .305E+02  .302E+02  .302E+02  .305E+02  .304E+02
  .304E+02  .305E+02  .305E+02  .319E+02  .304E+02  .304E+02  .305E+02  .305E+02
  .339E+02  .310E+02  .310E+02  .328E+02  .323E+02  .305E+02  .615E+02  .321E+02
  .308E+02  .378E+02  .312E+02  .332E+02  .316E+02  .390E+02  .424E+02  .309E+02
  .335E+02  .539E+02  .305E+02  .305E+02  .419E+02  .351E+02  .305E+02  .373E+02
  .339E+02  .325E+02  .352E+02  .304E+02  .367E+02  .345E+02  .364E+02  .304E+02
  .304E+02  .448E+02  .354E+02  .332E+02  .605E+02  .304E+02  .304E+02  .558E+02
  .302E+02  .304E+02  .302E+02  .304E+02  .302E+02  .304E+02  .302E+02  .302E+02
  .304E+02  .304E+02  .304E+02  .302E+02  .304E+02  .302E+02  .304E+02  .539E+02
  .302E+02  .537E+02  .568E+02  .570E+02  .575E+02  .580E+02  .580E+02  .588E+02
  .594E+02  .590E+02  .595E+02  .599E+02  .653E+02  .812E+02  .678E+02  .679E+02
  .695E+02  .713E+02  .952E+02  .973E+02  .655E+02  .665E+02  .101E+03  .591E+02
  .599E+02  .531E+02  .534E+02  .534E+02
  .305E+02  .302E+02  .303E+02  .303E+02  .302E+02  .302E+02  .306E+02  .300E+02
  .304E+02  .305E+02  .303E+02  .319E+02  .305E+02  .305E+02  .305E+02  .326E+02
  .339E+02  .310E+02  .310E+02  .328E+02  .324E+02  .306E+02  .615E+02  .320E+02
  .308E+02  .378E+02  .312E+02  .332E+02  .317E+02  .389E+02  .425E+02  .307E+02
  .307E+02  .538E+02  .306E+02  .306E+02  .420E+02  .352E+02  .305E+02  .305E+02
  .305E+02  .305E+02  .305E+02  .305E+02  .305E+02  .305E+02  .305E+02  .305E+02
  .305E+02  .305E+02  .305E+02  .305E+02  .305E+02  .305E+02  .305E+02  .305E+02
  .305E+02  .305E+02  .305E+02  .305E+02  .305E+02  .305E+02  .305E+02  .305E+02
  .305E+02  .305E+02  .305E+02  .305E+02  .305E+02  .305E+02  .305E+02  .305E+02
  .305E+02  .305E+02  .305E+02  .305E+02  .305E+02  .305E+02  .305E+02  .305E+02
  .305E+02  .305E+02  .305E+02  .305E+02  .305E+02  .305E+02  .305E+02  .305E+02
  .305E+02  .305E+02  .305E+02  .305E+02  .305E+02  .305E+02  .305E+02  .305E+02
  .305E+02  .305E+02  .305E+02  .305E+02
  .305E+02  .304E+02  .305E+02  .305E+02  .302E+02  .302E+02  .305E+02  .304E+02
  .304E+02  .305E+02  .305E+02  .319E+02  .304E+02  .304E+02  .305E+02  .305E+02
  .339E+02  .310E+02  .310E+02  .328E+02  .323E+02  .305E+02  .615E+02  .321E+02
  .308E+02  .378E+02  .312E+02  .332E+02  .316E+02  .390E+02  .424E+02  .309E+02
  .335E+02  .539E+02  .305E+02  .305E+02  .419E+02  .351E+02  .305E+02  .373E+02
  .339E+02  .325E+02  .352E+02  .304E+02  .367E+02  .345E+02  .364E+02  .304E+02
  .304E+02  .448E+02  .354E+02  .332E+02  .605E+02  .304E+02  .304E+02  .558E+02
  .302E+02  .304E+02  .302E+02  .304E+02  .302E+02  .304E+02  .302E+02  .302E+02
  .304E+02  .304E+02  .304E+02  .302E+02  .304E+02  .302E+02  .304E+02  .539E+02
  .302E+02  .537E+02  .568E+02  .570E+02  .575E+02  .580E+02  .580E+02  .588E+02
  .594E+02  .590E+02  .595E+02  .599E+02  .653E+02  .812E+02  .678E+02  .679E+02
  .695E+02  .713E+02  .952E+02  .973E+02  .655E+02  .665E+02  .101E+03  .591E+02
  .599E+02  .531E+02  .534E+02  .534E+02
Damping =  .02. Data of Sd,Sv,Sa,Pssv,ttSd,ttSv,ttSa :
  .151E-03  .164E-03  .177E-03  .201E-03  .242E-03  .283E-03  .363E-03  .392E-03
  .551E-03  .580E-03  .743E-03  .967E-03  .147E-02  .183E-02  .242E-02  .346E-02
  .412E-02  .268E-02  .295E-02  .311E-02  .350E-02  .596E-02  .907E-02  .123E-01
  .139E-01  .143E-01  .102E-01  .161E-01  .264E-01  .323E-01  .281E-01  .253E-01
  .243E-01  .222E-01  .212E-01  .208E-01  .196E-01  .181E-01  .168E-01  .153E-01
  .137E-01  .130E-01  .127E-01  .121E-01  .116E-01  .110E-01  .104E-01  .987E-02
  .946E-02  .908E-02  .896E-02  .852E-02  .793E-02  .756E-02  .721E-02  .703E-02
  .679E-02  .672E-02  .671E-02  .681E-02  .683E-02  .629E-02  .667E-02  .653E-02
  .613E-02  .655E-02  .637E-02  .624E-02  .738E-02  .629E-02  .666E-02  .689E-02
  .745E-02  .722E-02  .802E-02  .106E-01  .105E-01  .108E-01  .172E-01  .212E-01
  .182E-01  .210E-01  .266E-01  .297E-01  .348E-01  .370E-01  .277E-01  .315E-01
  .390E-01  .356E-01  .273E-01  .222E-01  .224E-01  .242E-01  .251E-01  .257E-01
  .231E-01  .214E-01  .217E-01  .204E-01
  .661E-02  .740E-02  .809E-02  .899E-02  .103E-01  .121E-01  .240E-01  .254E-01
  .332E-01  .380E-01  .471E-01  .543E-01  .767E-01  .106E+00  .138E+00  .183E+00
  .203E+00  .132E+00  .122E+00  .118E+00  .122E+00  .199E+00  .303E+00  .396E+00
  .428E+00  .424E+00  .277E+00  .413E+00  .628E+00  .727E+00  .617E+00  .550E+00
  .483E+00  .446E+00  .399E+00  .358E+00  .342E+00  .331E+00  .320E+00  .306E+00
  .290E+00  .258E+00  .227E+00  .201E+00  .183E+00  .167E+00  .156E+00  .148E+00
  .143E+00  .138E+00  .136E+00  .130E+00  .126E+00  .124E+00  .124E+00  .123E+00
  .122E+00  .122E+00  .122E+00  .120E+00  .120E+00  .121E+00  .120E+00  .121E+00
  .123E+00  .121E+00  .120E+00  .122E+00  .121E+00  .119E+00  .120E+00  .118E+00
  .118E+00  .120E+00  .120E+00  .119E+00  .122E+00  .122E+00  .120E+00  .119E+00
  .117E+00  .118E+00  .119E+00  .120E+00  .119E+00  .117E+00  .115E+00  .117E+00
  .119E+00  .122E+00  .123E+00  .123E+00  .123E+00  .123E+00  .123E+00  .123E+00
  .123E+00  .123E+00  .123E+00  .123E+00
  .965E-02  .949E-02  .937E-02  .973E-02  .107E-01  .116E-01  .123E-01  .112E-01
  .133E-01  .121E-01  .135E-01  .154E-01  .207E-01  .232E-01  .275E-01  .354E-01
  .348E-01  .191E-01  .179E-01  .162E-01  .160E-01  .238E-01  .321E-01  .389E-01
  .393E-01  .364E-01  .216E-01  .288E-01  .399E-01  .421E-01  .321E-01  .252E-01
  .215E-01  .176E-01  .150E-01  .133E-01  .114E-01  .958E-02  .816E-02  .680E-02
  .564E-02  .440E-02  .361E-02  .293E-02  .243E-02  .201E-02  .167E-02  .141E-02
  .120E-02  .104E-02  .926E-03  .728E-03  .570E-03  .464E-03  .383E-03  .325E-03
  .277E-03  .243E-03  .217E-03  .198E-03  .181E-03  .139E-03  .125E-03  .105E-03
  .846E-04  .791E-04  .681E-04  .607E-04  .625E-04  .489E-04  .466E-04  .439E-04
  .449E-04  .404E-04  .356E-04  .435E-04  .357E-04  .306E-04  .417E-04  .442E-04
  .332E-04  .335E-04  .378E-04  .376E-04  .395E-04  .379E-04  .234E-04  .224E-04
  .236E-04  .186E-04  .124E-04  .889E-05  .708E-05  .620E-05  .531E-05  .458E-05
  .353E-05  .281E-05  .249E-05  .224E-05
  .237E-01  .245E-01  .253E-01  .275E-01  .317E-01  .356E-01  .414E-01  .410E-01
  .532E-01  .521E-01  .622E-01  .759E-01  .108E+00  .128E+00  .160E+00  .217E+00
  .235E+00  .140E+00  .143E+00  .139E+00  .147E+00  .234E+00  .335E+00  .430E+00
  .458E+00  .448E+00  .292E+00  .422E+00  .638E+00  .725E+00  .588E+00  .497E+00
  .450E+00  .388E+00  .351E+00  .327E+00  .293E+00  .259E+00  .230E+00  .201E+00
  .173E+00  .149E+00  .133E+00  .117E+00  .104E+00  .923E-01  .816E-01  .729E-01
  .660E-01  .601E-01  .563E-01  .487E-01  .415E-01  .365E-01  .324E-01  .294E-01
  .267E-01  .249E-01  .234E-01  .225E-01  .214E-01  .180E-01  .175E-01  .158E-01
  .138E-01  .137E-01  .125E-01  .115E-01  .129E-01  .104E-01  .105E-01  .103E-01
  .106E-01  .986E-02  .105E-01  .133E-01  .120E-01  .113E-01  .166E-01  .190E-01
  .153E-01  .165E-01  .197E-01  .208E-01  .230E-01  .233E-01  .158E-01  .165E-01
  .188E-01  .160E-01  .115E-01  .873E-02  .782E-02  .761E-02  .716E-02  .674E-02
  .559E-02  .480E-02  .454E-02  .401E-02
  .305E+02  .304E+02  .304E+02  .304E+02  .304E+02  .304E+02  .304E+02  .302E+02
  .304E+02  .304E+02  .303E+02  .304E+02  .304E+02  .304E+02  .305E+02  .305E+02
  .305E+02  .310E+02  .310E+02  .305E+02  .301E+02  .305E+02  .305E+02  .306E+02
  .308E+02  .308E+02  .308E+02  .331E+02  .312E+02  .324E+02  .310E+02  .308E+02
  .306E+02  .306E+02  .305E+02  .305E+02  .305E+02  .305E+02  .305E+02  .305E+02
  .305E+02  .304E+02  .304E+02  .304E+02  .304E+02  .304E+02  .304E+02  .304E+02
  .304E+02  .304E+02  .304E+02  .304E+02  .304E+02  .304E+02  .304E+02  .304E+02
  .304E+02  .304E+02  .304E+02  .304E+02  .302E+02  .304E+02  .302E+02  .302E+02
  .304E+02  .304E+02  .304E+02  .302E+02  .304E+02  .304E+02  .304E+02  .304E+02
  .302E+02  .302E+02  .568E+02  .570E+02  .577E+02  .579E+02  .580E+02  .588E+02
  .593E+02  .593E+02  .595E+02  .600E+02  .604E+02  .611E+02  .675E+02  .681E+02
  .630E+02  .642E+02  .649E+02  .652E+02  .655E+02  .665E+02  .584E+02  .591E+02
  .598E+02  .531E+02  .533E+02  .534E+02
  .305E+02  .302E+02  .302E+02  .302E+02  .303E+02  .304E+02  .305E+02  .302E+02
  .302E+02  .303E+02  .303E+02  .303E+02  .305E+02  .305E+02  .305E+02  .305E+02
  .306E+02  .310E+02  .310E+02  .306E+02  .304E+02  .306E+02  .306E+02  .306E+02
  .308E+02  .308E+02  .309E+02  .330E+02  .312E+02  .325E+02  .311E+02  .307E+02
  .307E+02  .306E+02  .306E+02  .306E+02  .305E+02  .305E+02  .305E+02  .305E+02
  .305E+02  .305E+02  .305E+02  .305E+02  .305E+02  .305E+02  .305E+02  .305E+02
  .305E+02  .305E+02  .305E+02  .305E+02  .305E+02  .305E+02  .305E+02  .305E+02
  .305E+02  .305E+02  .305E+02  .305E+02  .305E+02  .305E+02  .305E+02  .305E+02
  .305E+02  .305E+02  .305E+02  .305E+02  .305E+02  .305E+02  .305E+02  .305E+02
  .305E+02  .305E+02  .305E+02  .305E+02  .305E+02  .305E+02  .305E+02  .305E+02
  .305E+02  .305E+02  .305E+02  .305E+02  .305E+02  .305E+02  .305E+02  .305E+02
  .305E+02  .305E+02  .305E+02  .305E+02  .305E+02  .305E+02  .305E+02  .305E+02
  .305E+02  .305E+02  .305E+02  .305E+02
  .305E+02  .304E+02  .304E+02  .304E+02  .304E+02  .304E+02  .304E+02  .302E+02
  .304E+02  .304E+02  .303E+02  .304E+02  .304E+02  .304E+02  .305E+02  .305E+02
  .305E+02  .310E+02  .310E+02  .305E+02  .301E+02  .305E+02  .305E+02  .306E+02
  .308E+02  .308E+02  .308E+02  .331E+02  .312E+02  .324E+02  .310E+02  .308E+02
  .306E+02  .306E+02  .305E+02  .305E+02  .305E+02  .305E+02  .305E+02  .305E+02
  .305E+02  .304E+02  .304E+02  .304E+02  .304E+02  .304E+02  .304E+02  .304E+02
  .304E+02  .304E+02  .304E+02  .304E+02  .304E+02  .304E+02  .304E+02  .304E+02
  .304E+02  .304E+02  .304E+02  .304E+02  .302E+02  .302E+02  .302E+02  .302E+02
  .304E+02  .304E+02  .304E+02  .302E+02  .304E+02  .302E+02  .304E+02  .304E+02
  .302E+02  .302E+02  .568E+02  .570E+02  .576E+02  .579E+02  .580E+02  .588E+02
  .592E+02  .592E+02  .595E+02  .599E+02  .604E+02  .610E+02  .674E+02  .680E+02
  .629E+02  .641E+02  .648E+02  .650E+02  .654E+02  .663E+02  .584E+02  .590E+02
  .590E+02  .530E+02  .531E+02  .303E+02
Damping =  .05. Data of Sd,Sv,Sa,Pssv,ttSd,ttSv,ttSa :
  .146E-03  .160E-03  .178E-03  .201E-03  .232E-03  .263E-03  .319E-03  .371E-03
