Response and Fourier amplitude spectra (** periods,  .04 - 32.0 sec)   for      
Corrected accelerogram   89324-VAA6D-21355.06       Chan 14:  Tran       from   
Uncorrected Accelerogram Data             Processed: 12/21/21, CGS  aa6de006    
Rcrd of Mon Dec 20, 2021 13:53:27.0 PST           (Avol1 v6.5,64b, 1/20; PC00)  
CSMIP Preliminary Processing            (Origin:  To be determined)             
89324-VAA6D-21355.06                 Start time: 12/20/21, 21:53:27.0 UTC (GPS) 
Station No. 89324   40.503N, 124.101W    130-MC  s/n AA6D (17 Chns of 17 at Sta)
Rio Dell - Hwy 101/Painter St. Overpass   CGS   Data: Acceleration              
Chan 14:  Tran    (Sta Chn: 17)     Location: On Ground: Near East Abutment     
Rcrd of Mon Dec 20, 2021 13:53:27.0 PST    Mon Dec 20, 2021 13:53:27.0 PST      
Hypocenter:  To be determined.               ML:  To be determined.
Instr Period = 0.0008 sec,  Damping = 0.100,  Sensitivity = 1.65 v/g
                        Record Length = 65.610 sec.
                                     Uncor Max  =  0.022 g, at   30.250 sec.
RMS accel of (uncor) record  =        .   Chn. metadata effective date: 04/02/10
Accelerogram bandpass filtered with 3 dB pts at   .07 and 40.00 cyc/sec
                 instrument- and base-line correcte





Rcrd of Mon Dec 20, 2021 13:53:27.0 PST    Mon Dec 20, 2021 13:53:27.0 PST

89324-VAA6D-21355.06      Rio Dell - Hwy 101/Painter St. Overpass   Chan 14:  Tr
an
89324-VAA6D-21355.06      Rio Dell - Hwy 101/Painter St. Overpass   Chan 14:  Tr
an
Units for spectra are inches and sec, except Sa is in fraction of g.

   14  100   17   18   17  200    1    3    1   32  706 -999    089324    3    0
   21   53   27    0  354   12   20 2021   10    3  90013122   39   39   74   -1
13122    1  100    3 -999    1    6 -999 -999 -999 -999 -999 -999 -999 -999 -999
 -999 -999 -999 -999 6561    2  100    1   24  253 -999 -999    3    1 -999 6561
    3 6561    4  100    5   17    5    0    0 -999    0    0 -999 -999    1    2
    2    2    4    0   66   67    0    2 -999    0    0    1 4096 -999    0  222
    1 -999   15 -999
      .001      .100    65.610      .001     1.000  1650.000      .022    30.250
  1300.000     1.584      .960  -999.000     5.000  -999.000     4.000  -999.000
    10.000   -11.806    10.000   312.000    30.400    29.995  -999.000      .000
     -.003     -.003     2.000    15.000    40.503  -124.101      .037      .070
     1.919     -.010      .004    43.000    30.398    35.609    13.300  -999.000
     1.000  -999.000    -8.000  -999.000  -999.000  -999.000  -999.000   120.000
     6.500     6.500     7.500   980.665      .010    65.610   206.901      .000
  -999.000    40.000  -999.000    65.610      .010      .067  -999.000  -999.000
    30.250    21.507    30.300      .597    30.250     -.035      .000      .067
    40.000      .010      .010      .002      .010      .010  -999.000  -999.000
      .058      .240      .052      .039      .002      .000  -999.000  -999.000
  -999.000  -999.000  -999.000  -999.000  -999.000  -999.000  -999.000  -999.000
  -999.000  -999.000  -999.000  -999.000
      .000      .020      .050      .100      .200
      .040      .042      .044      .046      .048      .050      .055      .060
      .065      .070      .075      .080      .085      .090      .095      .100
      .110      .120      .130      .140      .150      .160      .170      .180
      .190      .200      .220      .240      .260      .280      .300      .320
      .340      .360      .380      .400      .420      .440      .460      .480
      .500      .550      .600      .650      .700      .750      .800      .850
      .900      .950     1.000     1.100     1.200     1.300     1.400     1.500
     1.600     1.700     1.800     1.900     2.000     2.200     2.400     2.600
     2.800     3.000     3.200     3.400     3.600     3.800     4.000     4.200
     4.400     4.600     4.800     5.000     5.500     6.000     6.500     7.000
     7.500     8.000     8.500     9.000     9.500    10.000    11.000    12.000
    13.000    14.000    15.000    16.000    18.000    20.000    22.000    24.000
    26.000    28.000    30.000    32.000
Fourier amplitude spectra in in/sec.
  .131E-01  .129E-01  .297E-01  .413E-02  .150E-01  .877E-01  .281E-01  .389E-01
  .506E-01  .124E+00  .377E-01  .753E-01  .205E+00  .361E+00  .370E+00  .319E+00
  .391E+00  .205E+00  .365E+00  .478E-01  .201E+00  .165E+00  .643E+00  .721E+00
  .842E+00  .846E+00  .560E+00  .158E+01  .870E+00  .169E+01  .205E+01  .785E+00
  .502E+00  .724E+00  .744E+00  .189E+00  .100E+01  .411E+00  .192E+00  .349E+00
  .157E+00  .659E-01  .112E+00  .417E-01  .137E+00  .387E-01  .722E-01  .580E-01
  .476E-01  .673E-01  .196E-01  .300E-01  .568E-01  .921E-02  .207E-01  .274E-01
  .531E-02  .237E-01  .393E-02  .155E-01  .553E-02  .244E-02  .414E-02  .159E-01
  .559E-02  .891E-02  .153E-03  .392E-02  .711E-02  .327E-02  .580E-02  .897E-02
  .616E-02  .211E-02  .592E-02  .105E-01  .702E-02  .133E-01  .123E-01  .672E-02
  .452E-02  .363E-02  .358E-02  .155E-02  .704E-02  .122E-01  .152E-01  .104E-01
  .245E-02  .443E-02  .713E-02  .661E-02  .178E-02  .188E-02  .287E-02  .227E-02
  .118E-02  .220E-03  .655E-03  .112E-02
Damping =  .00. Data of Sd,Sv,Sa,Pssv,ttSd,ttSv,ttSa :
  .438E-03  .444E-03  .621E-03  .569E-03  .610E-03  .890E-03  .108E-02  .122E-02
  .112E-02  .247E-02  .187E-02  .247E-02  .324E-02  .536E-02  .597E-02  .723E-02
  .925E-02  .571E-02  .903E-02  .574E-02  .752E-02  .871E-02  .215E-01  .255E-01
  .284E-01  .307E-01  .394E-01  .729E-01  .638E-01  .110E+00  .992E-01  .617E-01
  .453E-01  .447E-01  .453E-01  .350E-01  .712E-01  .370E-01  .241E-01  .353E-01
  .358E-01  .211E-01  .201E-01  .182E-01  .198E-01  .160E-01  .153E-01  .149E-01
  .145E-01  .142E-01  .145E-01  .145E-01  .144E-01  .151E-01  .142E-01  .147E-01
  .154E-01  .139E-01  .159E-01  .139E-01  .140E-01  .147E-01  .151E-01  .134E-01
  .174E-01  .135E-01  .141E-01  .143E-01  .136E-01  .122E-01  .136E-01  .148E-01
  .151E-01  .146E-01  .150E-01  .178E-01  .229E-01  .152E-01  .128E-01  .124E-01
  .133E-01  .120E-01  .115E-01  .154E-01  .202E-01  .249E-01  .283E-01  .199E-01
  .217E-01  .246E-01  .223E-01  .177E-01  .131E-01  .155E-01  .141E-01  .120E-01
  .143E-01  .159E-01  .167E-01  .170E-01
  .209E-01  .223E-01  .443E-01  .260E-01  .307E-01  .879E-01  .630E-01  .106E+00
  .770E-01  .168E+00  .102E+00  .155E+00  .232E+00  .361E+00  .382E+00  .428E+00
  .511E+00  .273E+00  .415E+00  .245E+00  .274E+00  .285E+00  .742E+00  .835E+00
  .928E+00  .923E+00  .114E+01  .188E+01  .153E+01  .248E+01  .209E+01  .122E+01
  .894E+00  .835E+00  .750E+00  .576E+00  .108E+01  .612E+00  .423E+00  .550E+00
  .538E+00  .369E+00  .353E+00  .330E+00  .317E+00  .308E+00  .296E+00  .287E+00
  .280E+00  .278E+00  .273E+00  .265E+00  .261E+00  .263E+00  .256E+00  .254E+00
  .245E+00  .251E+00  .246E+00  .243E+00  .244E+00  .240E+00  .246E+00  .237E+00
  .238E+00  .238E+00  .236E+00  .237E+00  .234E+00  .237E+00  .239E+00  .238E+00
  .237E+00  .237E+00  .239E+00  .241E+00  .231E+00  .227E+00  .228E+00  .230E+00
  .232E+00  .232E+00  .231E+00  .229E+00  .230E+00  .233E+00  .241E+00  .243E+00
  .240E+00  .236E+00  .233E+00  .232E+00  .233E+00  .234E+00  .235E+00  .236E+00
  .236E+00  .235E+00  .235E+00  .235E+00
  .280E-01  .258E-01  .328E-01  .275E-01  .271E-01  .364E-01  .366E-01  .347E-01
  .272E-01  .517E-01  .339E-01  .395E-01  .459E-01  .676E-01  .677E-01  .739E-01
  .782E-01  .406E-01  .546E-01  .300E-01  .342E-01  .348E-01  .763E-01  .805E-01
  .805E-01  .786E-01  .833E-01  .129E+00  .965E-01  .143E+00  .113E+00  .617E-01
  .400E-01  .353E-01  .321E-01  .224E-01  .413E-01  .196E-01  .116E-01  .157E-01
  .146E-01  .715E-02  .570E-02  .441E-02  .413E-02  .290E-02  .244E-02  .211E-02
  .183E-02  .161E-02  .148E-02  .123E-02  .102E-02  .916E-03  .743E-03  .667E-03
  .613E-03  .493E-03  .501E-03  .395E-03  .358E-03  .311E-03  .269E-03  .203E-03
  .227E-03  .153E-03  .141E-03  .126E-03  .107E-03  .863E-04  .868E-04  .857E-04
  .796E-04  .707E-04  .667E-04  .727E-04  .775E-04  .432E-04  .309E-04  .259E-04
  .242E-04  .192E-04  .163E-04  .195E-04  .229E-04  .254E-04  .239E-04  .141E-04
  .131E-04  .129E-04  .101E-04  .705E-05  .414E-05  .396E-05  .298E-05  .213E-05
  .216E-05  .207E-05  .190E-05  .170E-05
  .688E-01  .665E-01  .886E-01  .778E-01  .799E-01  .112E+00  .124E+00  .128E+00
  .109E+00  .222E+00  .156E+00  .194E+00  .240E+00  .374E+00  .395E+00  .454E+00
  .528E+00  .299E+00  .436E+00  .258E+00  .315E+00  .342E+00  .796E+00  .891E+00
  .939E+00  .966E+00  .113E+01  .191E+01  .154E+01  .246E+01  .208E+01  .121E+01
  .836E+00  .780E+00  .750E+00  .550E+00  .106E+01  .529E+00  .329E+00  .462E+00
  .449E+00  .241E+00  .210E+00  .176E+00  .178E+00  .134E+00  .120E+00  .110E+00
  .101E+00  .940E-01  .910E-01  .829E-01  .755E-01  .731E-01  .639E-01  .614E-01
  .603E-01  .514E-01  .554E-01  .461E-01  .440E-01  .421E-01  .396E-01  .325E-01
  .390E-01  .282E-01  .277E-01  .264E-01  .238E-01  .201E-01  .213E-01  .221E-01
  .215E-01  .200E-01  .197E-01  .223E-01  .262E-01  .159E-01  .123E-01  .112E-01
  .112E-01  .943E-02  .849E-02  .108E-01  .133E-01  .156E-01  .161E-01  .104E-01
  .105E-01  .111E-01  .932E-02  .693E-02  .458E-02  .487E-02  .403E-02  .313E-02
  .345E-02  .356E-02  .350E-02  .334E-02
  .302E+02  .302E+02  .303E+02  .302E+02  .303E+02  .302E+02  .302E+02  .304E+02
  .303E+02  .304E+02  .304E+02  .304E+02  .308E+02  .322E+02  .322E+02  .306E+02
  .312E+02  .321E+02  .339E+02  .307E+02  .301E+02  .302E+02  .340E+02  .341E+02
  .368E+02  .342E+02  .305E+02  .332E+02  .315E+02  .330E+02  .480E+02  .350E+02
  .322E+02  .338E+02  .522E+02  .338E+02  .410E+02  .342E+02  .304E+02  .342E+02
  .341E+02  .304E+02  .304E+02  .304E+02  .370E+02  .304E+02  .304E+02  .302E+02
  .304E+02  .302E+02  .302E+02  .302E+02  .302E+02  .302E+02  .302E+02  .302E+02
  .302E+02  .302E+02  .302E+02  .302E+02  .302E+02  .302E+02  .302E+02  .304E+02
  .302E+02  .302E+02  .302E+02  .302E+02  .302E+02  .302E+02  .302E+02  .302E+02
  .302E+02  .302E+02  .302E+02  .302E+02  .302E+02  .302E+02  .678E+02  .304E+02
  .304E+02  .304E+02  .304E+02  .340E+02  .304E+02  .304E+02  .590E+02  .680E+02
  .302E+02  .302E+02  .302E+02  .302E+02  .304E+02  .304E+02  .304E+02  .302E+02
  .302E+02  .302E+02  .302E+02  .302E+02
  .302E+02  .302E+02  .304E+02  .304E+02  .303E+02  .636E+02  .302E+02  .304E+02
  .308E+02  .304E+02  .304E+02  .304E+02  .315E+02  .602E+02  .364E+02  .306E+02
  .310E+02  .321E+02  .341E+02  .307E+02  .302E+02  .303E+02  .340E+02  .341E+02
  .368E+02  .342E+02  .305E+02  .333E+02  .314E+02  .329E+02  .371E+02  .350E+02
  .321E+02  .338E+02  .395E+02  .337E+02  .409E+02  .341E+02  .303E+02  .341E+02
  .340E+02  .303E+02  .303E+02  .303E+02  .303E+02  .303E+02  .303E+02  .303E+02
  .303E+02  .303E+02  .303E+02  .303E+02  .303E+02  .303E+02  .303E+02  .303E+02
  .303E+02  .303E+02  .303E+02  .303E+02  .303E+02  .303E+02  .303E+02  .303E+02
  .303E+02  .303E+02  .303E+02  .303E+02  .303E+02  .303E+02  .303E+02  .303E+02
  .303E+02  .303E+02  .303E+02  .303E+02  .303E+02  .302E+02  .303E+02  .303E+02
  .303E+02  .303E+02  .303E+02  .303E+02  .303E+02  .303E+02  .303E+02  .303E+02
  .303E+02  .303E+02  .303E+02  .303E+02  .303E+02  .303E+02  .303E+02  .303E+02
  .303E+02  .303E+02  .303E+02  .303E+02
  .302E+02  .302E+02  .303E+02  .302E+02  .303E+02  .302E+02  .302E+02  .304E+02
  .303E+02  .304E+02  .304E+02  .304E+02  .308E+02  .322E+02  .322E+02  .306E+02
  .312E+02  .321E+02  .339E+02  .307E+02  .301E+02  .302E+02  .340E+02  .341E+02
  .368E+02  .342E+02  .305E+02  .332E+02  .315E+02  .330E+02  .480E+02  .350E+02
  .322E+02  .338E+02  .522E+02  .338E+02  .410E+02  .342E+02  .304E+02  .342E+02
  .341E+02  .304E+02  .304E+02  .304E+02  .370E+02  .304E+02  .304E+02  .302E+02
  .304E+02  .302E+02  .302E+02  .302E+02  .302E+02  .302E+02  .302E+02  .302E+02
  .302E+02  .302E+02  .302E+02  .302E+02  .302E+02  .302E+02  .302E+02  .304E+02
  .302E+02  .302E+02  .302E+02  .302E+02  .302E+02  .302E+02  .302E+02  .302E+02
  .302E+02  .302E+02  .302E+02  .302E+02  .302E+02  .302E+02  .678E+02  .304E+02
  .304E+02  .304E+02  .304E+02  .340E+02  .304E+02  .304E+02  .590E+02  .680E+02
  .302E+02  .302E+02  .302E+02  .302E+02  .304E+02  .304E+02  .304E+02  .302E+02
  .302E+02  .302E+02  .302E+02  .302E+02
Damping =  .02. Data of Sd,Sv,Sa,Pssv,ttSd,ttSv,ttSa :
  .379E-03  .442E-03  .504E-03  .561E-03  .623E-03  .700E-03  .974E-03  .118E-02
  .119E-02  .141E-02  .180E-02  .225E-02  .295E-02  .375E-02  .475E-02  .580E-02
  .610E-02  .471E-02  .438E-02  .526E-02  .688E-02  .831E-02  .107E-01  .145E-01
  .189E-01  .240E-01  .332E-01  .382E-01  .431E-01  .585E-01  .423E-01  .381E-01
  .345E-01  .315E-01  .285E-01  .269E-01  .314E-01  .270E-01  .237E-01  .242E-01
  .243E-01  .206E-01  .194E-01  .180E-01  .171E-01  .160E-01  .152E-01  .146E-01
  .143E-01  .143E-01  .144E-01  .143E-01  .142E-01  .146E-01  .144E-01  .145E-01
  .146E-01  .141E-01  .150E-01  .143E-01  .143E-01  .145E-01  .146E-01  .125E-01
  .156E-01  .140E-01  .141E-01  .141E-01  .136E-01  .129E-01  .137E-01  .146E-01
  .149E-01  .149E-01  .156E-01  .176E-01  .209E-01  .155E-01  .122E-01  .120E-01
  .128E-01  .122E-01  .123E-01  .149E-01  .191E-01  .226E-01  .217E-01  .173E-01
  .197E-01  .225E-01  .209E-01  .173E-01  .123E-01  .146E-01  .136E-01  .119E-01
  .140E-01  .155E-01  .165E-01  .165E-01
  .154E-01  .179E-01  .209E-01  .227E-01  .256E-01  .299E-01  .593E-01  .827E-01
  .709E-01  .801E-01  .917E-01  .134E+00  .191E+00  .241E+00  .291E+00  .329E+00
  .338E+00  .229E+00  .184E+00  .205E+00  .231E+00  .268E+00  .357E+00  .474E+00
  .582E+00  .725E+00  .986E+00  .102E+01  .103E+01  .132E+01  .923E+00  .816E+00
  .744E+00  .668E+00  .586E+00  .531E+00  .493E+00  .442E+00  .422E+00  .407E+00
  .392E+00  .364E+00  .347E+00  .328E+00  .316E+00  .305E+00  .295E+00  .287E+00
  .281E+00  .278E+00  .273E+00  .266E+00  .262E+00  .260E+00  .255E+00  .253E+00
  .248E+00  .249E+00  .247E+00  .244E+00  .244E+00  .241E+00  .242E+00  .239E+00
  .240E+00  .238E+00  .237E+00  .237E+00  .236E+00  .237E+00  .239E+00  .238E+00
  .238E+00  .238E+00  .239E+00  .239E+00  .232E+00  .227E+00  .229E+00  .230E+00
  .232E+00  .232E+00  .231E+00  .230E+00  .231E+00  .234E+00  .240E+00  .242E+00
  .240E+00  .236E+00  .234E+00  .233E+00  .233E+00  .234E+00  .235E+00  .236E+00
  .236E+00  .235E+00  .235E+00  .235E+00
  .243E-01  .256E-01  .266E-01  .271E-01  .277E-01  .287E-01  .330E-01  .335E-01
  .287E-01  .293E-01  .328E-01  .359E-01  .418E-01  .474E-01  .540E-01  .592E-01
  .518E-01  .333E-01  .265E-01  .276E-01  .314E-01  .333E-01  .379E-01  .456E-01
  .537E-01  .613E-01  .704E-01  .680E-01  .654E-01  .761E-01  .482E-01  .381E-01
  .306E-01  .249E-01  .202E-01  .173E-01  .182E-01  .143E-01  .115E-01  .107E-01
  .991E-02  .698E-02  .551E-02  .436E-02  .357E-02  .292E-02  .244E-02  .209E-02
  .182E-02  .165E-02  .149E-02  .123E-02  .103E-02  .904E-03  .768E-03  .676E-03
  .600E-03  .514E-03  .489E-03  .420E-03  .380E-03  .320E-03  .273E-03  .203E-03
  .217E-03  .173E-03  .155E-03  .139E-03  .121E-03  .105E-03  .101E-03  .975E-04
  .915E-04  .847E-04  .814E-04  .838E-04  .823E-04  .554E-04  .403E-04  .342E-04
  .322E-04  .282E-04  .257E-04  .268E-04  .295E-04  .308E-04  .257E-04  .162E-04
  .189E-04  .185E-04  .160E-04  .132E-04  .919E-05  .871E-05  .755E-05  .669E-05
  .640E-05  .605E-05  .567E-05  .529E-05
  .596E-01  .661E-01  .719E-01  .766E-01  .815E-01  .879E-01  .111E+00  .123E+00
  .115E+00  .126E+00  .151E+00  .176E+00  .218E+00  .262E+00  .314E+00  .364E+00
  .348E+00  .247E+00  .212E+00  .236E+00  .288E+00  .326E+00  .395E+00  .505E+00
  .626E+00  .753E+00  .947E+00  .100E+01  .104E+01  .131E+01  .885E+00  .748E+00
  .637E+00  .550E+00  .471E+00  .423E+00  .469E+00  .385E+00  .324E+00  .316E+00
  .305E+00  .235E+00  .204E+00  .174E+00  .153E+00  .134E+00  .119E+00  .108E+00
  .997E-01  .948E-01  .902E-01  .818E-01  .743E-01  .707E-01  .645E-01  .607E-01
  .574E-01  .520E-01  .523E-01  .472E-01  .448E-01  .414E-01  .383E-01  .303E-01
  .349E-01  .292E-01  .277E-01  .260E-01  .238E-01  .213E-01  .215E-01  .218E-01
  .213E-01  .204E-01  .204E-01  .221E-01  .239E-01  .163E-01  .118E-01  .108E-01
  .107E-01  .957E-02  .907E-02  .104E-01  .126E-01  .142E-01  .124E-01  .905E-02
  .952E-02  .101E-01  .877E-02  .680E-02  .430E-02  .458E-02  .388E-02  .311E-02
  .338E-02  .349E-02  .346E-02  .323E-02
  .302E+02  .302E+02  .302E+02  .302E+02  .302E+02  .302E+02  .303E+02  .303E+02
  .303E+02  .303E+02  .304E+02  .304E+02  .304E+02  .305E+02  .306E+02  .306E+02
  .308E+02  .303E+02  .301E+02  .301E+02  .301E+02  .302E+02  .303E+02  .304E+02
  .304E+02  .305E+02  .305E+02  .305E+02  .311E+02  .323E+02  .308E+02  .306E+02
  .307E+02  .305E+02  .305E+02  .304E+02  .345E+02  .342E+02  .304E+02  .340E+02
  .341E+02  .304E+02  .304E+02  .304E+02  .304E+02  .304E+02  .304E+02  .302E+02
  .304E+02  .302E+02  .302E+02  .302E+02  .302E+02  .302E+02  .302E+02  .302E+02
  .302E+02  .302E+02  .302E+02  .302E+02  .302E+02  .302E+02  .302E+02  .302E+02
  .302E+02  .302E+02  .302E+02  .302E+02  .302E+02  .302E+02  .302E+02  .302E+02
  .302E+02  .302E+02  .302E+02  .302E+02  .302E+02  .302E+02  .302E+02  .304E+02
  .304E+02  .304E+02  .304E+02  .304E+02  .304E+02  .304E+02  .304E+02  .321E+02
  .302E+02  .302E+02  .302E+02  .302E+02  .304E+02  .304E+02  .304E+02  .302E+02
  .302E+02  .302E+02  .302E+02  .302E+02
  .302E+02  .302E+02  .304E+02  .304E+02  .303E+02  .303E+02  .304E+02  .304E+02
  .303E+02  .303E+02  .304E+02  .304E+02  .305E+02  .305E+02  .306E+02  .306E+02
  .308E+02  .303E+02  .309E+02  .306E+02  .302E+02  .303E+02  .303E+02  .303E+02
  .305E+02  .304E+02  .305E+02  .305E+02  .312E+02  .323E+02  .308E+02  .304E+02
  .304E+02  .304E+02  .304E+02  .304E+02  .346E+02  .341E+02  .303E+02  .303E+02
  .303E+02  .303E+02  .303E+02  .303E+02  .303E+02  .303E+02  .303E+02  .303E+02
  .303E+02  .303E+02  .303E+02  .303E+02  .303E+02  .303E+02  .303E+02  .303E+02
  .303E+02  .303E+02  .303E+02  .303E+02  .303E+02  .303E+02  .303E+02  .303E+02
  .303E+02  .303E+02  .303E+02  .303E+02  .303E+02  .303E+02  .303E+02  .303E+02
  .303E+02  .303E+02  .303E+02  .303E+02  .303E+02  .303E+02  .303E+02  .303E+02
  .303E+02  .303E+02  .303E+02  .303E+02  .303E+02  .303E+02  .303E+02  .303E+02
  .303E+02  .303E+02  .303E+02  .303E+02  .303E+02  .303E+02  .303E+02  .303E+02
  .303E+02  .303E+02  .303E+02  .303E+02
  .302E+02  .302E+02  .302E+02  .302E+02  .302E+02  .302E+02  .303E+02  .303E+02
  .303E+02  .303E+02  .304E+02  .304E+02  .304E+02  .305E+02  .306E+02  .306E+02
  .308E+02  .303E+02  .301E+02  .301E+02  .301E+02  .302E+02  .303E+02  .304E+02
  .304E+02  .305E+02  .305E+02  .304E+02  .311E+02  .323E+02  .308E+02  .306E+02
  .306E+02  .305E+02  .305E+02  .304E+02  .345E+02  .342E+02  .304E+02  .340E+02
  .340E+02  .304E+02  .304E+02  .304E+02  .304E+02  .304E+02  .304E+02  .302E+02
  .302E+02  .302E+02  .302E+02  .302E+02  .302E+02  .302E+02  .302E+02  .302E+02
  .302E+02  .302E+02  .302E+02  .302E+02  .302E+02  .302E+02  .302E+02  .302E+02
  .302E+02  .302E+02  .302E+02  .302E+02  .302E+02  .302E+02  .302E+02  .302E+02
  .302E+02  .302E+02  .302E+02  .302E+02  .302E+02  .302E+02  .302E+02  .303E+02
  .303E+02  .303E+02  .303E+02  .303E+02  .303E+02  .303E+02  .303E+02  .303E+02
  .302E+02  .302E+02  .302E+02  .302E+02  .303E+02  .303E+02  .303E+02  .302E+02
  .302E+02  .302E+02  .302E+02  .302E+02
Damping =  .05. Data of Sd,Sv,Sa,Pssv,ttSd,ttSv,ttSa :
  .379E-03  .436E-03  .493E-03  .551E-03  .617E-03  .688E-03  .911E-03  .109E-02
